{
"type": "FeatureCollection",
"name": "bvsd-boundary",
"crs": { "type": "name", "properties": { "name": "urn:ogc:def:crs:OGC:1.3:CRS84" } },
"features": [
{ "type": "Feature", "properties": { "GEOID": "0802490", "NAME": "Boulder Valley School District RE-2" }, "geometry": { "type": "Polygon", "coordinates": [ [ [ -105.700731, 39.879153 ], [ -105.699887, 39.879891 ], [ -105.69904, 39.880454 ], [ -105.698383, 39.880956 ], [ -105.69829, 39.881133 ], [ -105.698293, 39.881308 ], [ -105.698363, 39.882072 ], [ -105.698406, 39.882535 ], [ -105.698373, 39.882828 ], [ -105.698282, 39.88315 ], [ -105.697764, 39.884031 ], [ -105.697692, 39.88431 ], [ -105.697789, 39.884455 ], [ -105.698458, 39.884698 ], [ -105.698726, 39.884856 ], [ -105.699267, 39.885422 ], [ -105.699364, 39.885596 ], [ -105.699425, 39.885873 ], [ -105.699392, 39.886166 ], [ -105.699225, 39.886474 ], [ -105.699216, 39.887132 ], [ -105.699038, 39.887894 ], [ -105.699349, 39.888374 ], [ -105.699546, 39.88884 ], [ -105.699707, 39.889452 ], [ -105.699692, 39.88973 ], [ -105.69955, 39.890404 ], [ -105.699557, 39.890871 ], [ -105.699719, 39.891499 ], [ -105.699326, 39.891926 ], [ -105.698732, 39.892896 ], [ -105.698378, 39.893252 ], [ -105.698264, 39.893368 ], [ -105.697913, 39.893999 ], [ -105.697726, 39.894191 ], [ -105.697218, 39.894561 ], [ -105.695537, 39.895248 ], [ -105.695067, 39.895605 ], [ -105.694959, 39.895687 ], [ -105.694863, 39.895733 ], [ -105.694578, 39.89587 ], [ -105.694483, 39.895917 ], [ -105.693918, 39.8963 ], [ -105.69265, 39.896647 ], [ -105.691802, 39.897107 ], [ -105.691176, 39.897215 ], [ -105.691121, 39.897289 ], [ -105.691179, 39.897391 ], [ -105.691759, 39.898043 ], [ -105.691799, 39.898145 ], [ -105.691802, 39.898394 ], [ -105.691728, 39.898526 ], [ -105.69113, 39.899218 ], [ -105.690967, 39.899702 ], [ -105.690826, 39.900478 ], [ -105.690456, 39.901139 ], [ -105.690315, 39.9019 ], [ -105.689902, 39.90224 ], [ -105.689079, 39.903124 ], [ -105.688192, 39.903483 ], [ -105.687305, 39.903944 ], [ -105.687233, 39.904193 ], [ -105.687569, 39.905082 ], [ -105.68788, 39.905532 ], [ -105.687984, 39.906116 ], [ -105.688532, 39.907149 ], [ -105.688594, 39.907484 ], [ -105.688526, 39.908055 ], [ -105.688323, 39.908452 ], [ -105.688219, 39.909125 ], [ -105.687943, 39.909741 ], [ -105.687966, 39.911232 ], [ -105.687859, 39.911701 ], [ -105.687523, 39.912157 ], [ -105.687298, 39.912349 ], [ -105.686507, 39.912838 ], [ -105.686287, 39.913366 ], [ -105.686238, 39.91515 ], [ -105.686166, 39.915414 ], [ -105.685979, 39.915649 ], [ -105.685735, 39.915827 ], [ -105.683961, 39.916646 ], [ -105.683001, 39.917254 ], [ -105.682489, 39.917346 ], [ -105.682243, 39.917392 ], [ -105.682187, 39.91748 ], [ -105.682246, 39.917596 ], [ -105.682648, 39.917812 ], [ -105.682725, 39.917899 ], [ -105.682807, 39.918249 ], [ -105.682827, 39.919609 ], [ -105.682736, 39.919887 ], [ -105.682744, 39.920443 ], [ -105.68269, 39.920589 ], [ -105.682372, 39.920943 ], [ -105.682324, 39.921572 ], [ -105.682272, 39.921908 ], [ -105.682049, 39.922217 ], [ -105.681899, 39.922394 ], [ -105.681567, 39.923055 ], [ -105.681156, 39.923482 ], [ -105.680971, 39.92382 ], [ -105.680788, 39.924348 ], [ -105.680194, 39.925259 ], [ -105.680178, 39.925493 ], [ -105.680189, 39.926224 ], [ -105.68008, 39.926503 ], [ -105.679593, 39.927004 ], [ -105.67888, 39.927653 ], [ -105.677523, 39.928381 ], [ -105.677258, 39.928471 ], [ -105.676614, 39.928565 ], [ -105.676577, 39.928653 ], [ -105.676598, 39.928769 ], [ -105.677251, 39.929217 ], [ -105.677502, 39.929492 ], [ -105.67789, 39.930059 ], [ -105.67797, 39.930322 ], [ -105.677973, 39.930512 ], [ -105.677881, 39.930717 ], [ -105.677073, 39.931353 ], [ -105.676887, 39.931603 ], [ -105.675798, 39.932445 ], [ -105.675075, 39.933253 ], [ -105.675133, 39.933324 ], [ -105.675265, 39.933323 ], [ -105.677846, 39.932902 ], [ -105.678582, 39.932864 ], [ -105.678941, 39.93286 ], [ -105.68065, 39.93335 ], [ -105.680972, 39.933375 ], [ -105.681709, 39.93341 ], [ -105.682943, 39.933789 ], [ -105.683086, 39.933885 ], [ -105.683125, 39.933912 ], [ -105.683405, 39.934105 ], [ -105.683421, 39.934121 ], [ -105.683636, 39.934337 ], [ -105.68453, 39.935499 ], [ -105.685052, 39.935992 ], [ -105.68593, 39.936821 ], [ -105.686523, 39.937381 ], [ -105.686616, 39.937469 ], [ -105.687077, 39.937728 ], [ -105.688683, 39.938298 ], [ -105.689627, 39.938634 ], [ -105.689946, 39.938812 ], [ -105.689961, 39.93884 ], [ -105.690142, 39.939132 ], [ -105.6903, 39.939525 ], [ -105.691359, 39.940291 ], [ -105.6932, 39.941239 ], [ -105.693452, 39.941529 ], [ -105.69359, 39.941879 ], [ -105.693694, 39.942405 ], [ -105.693592, 39.943137 ], [ -105.693453, 39.944017 ], [ -105.693193, 39.944414 ], [ -105.692562, 39.945371 ], [ -105.691796, 39.946241 ], [ -105.691761, 39.946417 ], [ -105.691839, 39.946592 ], [ -105.692283, 39.946997 ], [ -105.692459, 39.947318 ], [ -105.692815, 39.948163 ], [ -105.693008, 39.948264 ], [ -105.693543, 39.948464 ], [ -105.693756, 39.948681 ], [ -105.694362, 39.949684 ], [ -105.694351, 39.950153 ], [ -105.693662, 39.951154 ], [ -105.693343, 39.951421 ], [ -105.691199, 39.952991 ], [ -105.690783, 39.953171 ], [ -105.689873, 39.95337 ], [ -105.6894, 39.953506 ], [ -105.689137, 39.953699 ], [ -105.6888, 39.954053 ], [ -105.688508, 39.954831 ], [ -105.688638, 39.955869 ], [ -105.68855, 39.95622 ], [ -105.688383, 39.95653 ], [ -105.688121, 39.956766 ], [ -105.686651, 39.957674 ], [ -105.685504, 39.958532 ], [ -105.685108, 39.958741 ], [ -105.686466, 39.959226 ], [ -105.688185, 39.959663 ], [ -105.688244, 39.959765 ], [ -105.688317, 39.960759 ], [ -105.688235, 39.961623 ], [ -105.688476, 39.962396 ], [ -105.688331, 39.96288 ], [ -105.688755, 39.963213 ], [ -105.689066, 39.963619 ], [ -105.689283, 39.964144 ], [ -105.689255, 39.96473 ], [ -105.688654, 39.966433 ], [ -105.688569, 39.967092 ], [ -105.688827, 39.967762 ], [ -105.689763, 39.969187 ], [ -105.690304, 39.969708 ], [ -105.690321, 39.969768 ], [ -105.690345, 39.969855 ], [ -105.689678, 39.971001 ], [ -105.688851, 39.974151 ], [ -105.688414, 39.975426 ], [ -105.687833, 39.975958 ], [ -105.687145, 39.976972 ], [ -105.686377, 39.977724 ], [ -105.686253, 39.978369 ], [ -105.684938, 39.97933 ], [ -105.684901, 39.979447 ], [ -105.685001, 39.979768 ], [ -105.685388, 39.980203 ], [ -105.685489, 39.980626 ], [ -105.685462, 39.981387 ], [ -105.685372, 39.981665 ], [ -105.684968, 39.982633 ], [ -105.684972, 39.982867 ], [ -105.685127, 39.9831 ], [ -105.686651, 39.984621 ], [ -105.68742, 39.98517 ], [ -105.68748, 39.985418 ], [ -105.686048, 39.987477 ], [ -105.686204, 39.98904 ], [ -105.685968, 39.989743 ], [ -105.685482, 39.990274 ], [ -105.683906, 39.991632 ], [ -105.683383, 39.992295 ], [ -105.683164, 39.992881 ], [ -105.68321, 39.99465 ], [ -105.684689, 39.994491 ], [ -105.685013, 39.994517 ], [ -105.687929, 39.995062 ], [ -105.689036, 39.995374 ], [ -105.690185, 39.995934 ], [ -105.69059, 39.996281 ], [ -105.6909, 39.996673 ], [ -105.691194, 39.997313 ], [ -105.69117, 39.999521 ], [ -105.690977, 40.000007 ], [ -105.690497, 40.000869 ], [ -105.690459, 40.001015 ], [ -105.690438, 40.00138 ], [ -105.690436, 40.001687 ], [ -105.690475, 40.001931 ], [ -105.690583, 40.002594 ], [ -105.690658, 40.002769 ], [ -105.69079, 40.002945 ], [ -105.691036, 40.003194 ], [ -105.691092, 40.003355 ], [ -105.69111, 40.003545 ], [ -105.691052, 40.003764 ], [ -105.69067, 40.004173 ], [ -105.690517, 40.004363 ], [ -105.69044, 40.004523 ], [ -105.690035, 40.005531 ], [ -105.689767, 40.005955 ], [ -105.688946, 40.006698 ], [ -105.68866, 40.006873 ], [ -105.688527, 40.006923 ], [ -105.688469, 40.006946 ], [ -105.689792, 40.00844 ], [ -105.690016, 40.009113 ], [ -105.690015, 40.009317 ], [ -105.689757, 40.009967 ], [ -105.689418, 40.010822 ], [ -105.689341, 40.011026 ], [ -105.689378, 40.011173 ], [ -105.689529, 40.01129 ], [ -105.689813, 40.011495 ], [ -105.68985, 40.011656 ], [ -105.689772, 40.011992 ], [ -105.689694, 40.012474 ], [ -105.689651, 40.013352 ], [ -105.689687, 40.013688 ], [ -105.689629, 40.013878 ], [ -105.689844, 40.01443 ], [ -105.689874, 40.014508 ], [ -105.689818, 40.015108 ], [ -105.689666, 40.015541 ], [ -105.689265, 40.015783 ], [ -105.689237, 40.015797 ], [ -105.689154, 40.015838 ], [ -105.689127, 40.015853 ], [ -105.688889, 40.015976 ], [ -105.688452, 40.016049 ], [ -105.687826, 40.015979 ], [ -105.687259, 40.015597 ], [ -105.686347, 40.015095 ], [ -105.684947, 40.014626 ], [ -105.684912, 40.014614 ], [ -105.684475, 40.014569 ], [ -105.684114, 40.014524 ], [ -105.683052, 40.014142 ], [ -105.682634, 40.014112 ], [ -105.68157, 40.014183 ], [ -105.681418, 40.014168 ], [ -105.681133, 40.01408 ], [ -105.680716, 40.014006 ], [ -105.680431, 40.01402 ], [ -105.679251, 40.014295 ], [ -105.677977, 40.014541 ], [ -105.677634, 40.014672 ], [ -105.675747, 40.015794 ], [ -105.675309, 40.015983 ], [ -105.67451, 40.016186 ], [ -105.671906, 40.016592 ], [ -105.67063, 40.016792 ], [ -105.670136, 40.016879 ], [ -105.669832, 40.016878 ], [ -105.669528, 40.016804 ], [ -105.668826, 40.016525 ], [ -105.66801, 40.016363 ], [ -105.667467, 40.016336 ], [ -105.667098, 40.016317 ], [ -105.664646, 40.016487 ], [ -105.663422, 40.016474 ], [ -105.662917, 40.016469 ], [ -105.661854, 40.016409 ], [ -105.661606, 40.016466 ], [ -105.661263, 40.016773 ], [ -105.660689, 40.017386 ], [ -105.660344, 40.017897 ], [ -105.66019, 40.018349 ], [ -105.658799, 40.019107 ], [ -105.657408, 40.019528 ], [ -105.656819, 40.019658 ], [ -105.655488, 40.019846 ], [ -105.653071, 40.020425 ], [ -105.652641, 40.020602 ], [ -105.65191, 40.020905 ], [ -105.652231, 40.021228 ], [ -105.652779, 40.02177 ], [ -105.652873, 40.021945 ], [ -105.652815, 40.022165 ], [ -105.652793, 40.023772 ], [ -105.651841, 40.024945 ], [ -105.649574, 40.027742 ], [ -105.64891, 40.028396 ], [ -105.647835, 40.029457 ], [ -105.647728, 40.029562 ], [ -105.647572, 40.029717 ], [ -105.647407, 40.029877 ], [ -105.647301, 40.029983 ], [ -105.643938, 40.033301 ], [ -105.641197, 40.034172 ], [ -105.640642, 40.035019 ], [ -105.64069, 40.035502 ], [ -105.640696, 40.03556 ], [ -105.640656, 40.035867 ], [ -105.640193, 40.037255 ], [ -105.639619, 40.03797 ], [ -105.638797, 40.038787 ], [ -105.63866, 40.039605 ], [ -105.639037, 40.040118 ], [ -105.639149, 40.040469 ], [ -105.638861, 40.041038 ], [ -105.638878, 40.041492 ], [ -105.638838, 40.041813 ], [ -105.638454, 40.042485 ], [ -105.638376, 40.042909 ], [ -105.638413, 40.043172 ], [ -105.638601, 40.043552 ], [ -105.63858, 40.043801 ], [ -105.638292, 40.044326 ], [ -105.637567, 40.044924 ], [ -105.637413, 40.045231 ], [ -105.637412, 40.045509 ], [ -105.637486, 40.045845 ], [ -105.637864, 40.046285 ], [ -105.638507, 40.046739 ], [ -105.64012, 40.047196 ], [ -105.640709, 40.047138 ], [ -105.641257, 40.047724 ], [ -105.642338, 40.048121 ], [ -105.643301, 40.049234 ], [ -105.643395, 40.049454 ], [ -105.643622, 40.049659 ], [ -105.64402, 40.049893 ], [ -105.644457, 40.04985 ], [ -105.644664, 40.050202 ], [ -105.645099, 40.05067 ], [ -105.645229, 40.051124 ], [ -105.645246, 40.051489 ], [ -105.645472, 40.051899 ], [ -105.645582, 40.05266 ], [ -105.646452, 40.053465 ], [ -105.647837, 40.053863 ], [ -105.648425, 40.053937 ], [ -105.648765, 40.054289 ], [ -105.648778, 40.054442 ], [ -105.648819, 40.054903 ], [ -105.650743, 40.057553 ], [ -105.651061, 40.058445 ], [ -105.649781, 40.059642 ], [ -105.649419, 40.059992 ], [ -105.648578, 40.06198 ], [ -105.648054, 40.063221 ], [ -105.647533, 40.064286 ], [ -105.647, 40.064533 ], [ -105.646692, 40.06522 ], [ -105.645452, 40.065889 ], [ -105.64513, 40.066064 ], [ -105.643491, 40.066836 ], [ -105.643073, 40.066835 ], [ -105.642748, 40.067156 ], [ -105.641814, 40.06787 ], [ -105.641433, 40.067884 ], [ -105.638873, 40.067031 ], [ -105.640739, 40.069871 ], [ -105.64087, 40.070178 ], [ -105.640963, 40.070544 ], [ -105.640995, 40.07167 ], [ -105.640896, 40.072371 ], [ -105.640914, 40.072605 ], [ -105.641121, 40.073 ], [ -105.641044, 40.073088 ], [ -105.640911, 40.073117 ], [ -105.640379, 40.073086 ], [ -105.639809, 40.073173 ], [ -105.63939, 40.073377 ], [ -105.639305, 40.073381 ], [ -105.638838, 40.073405 ], [ -105.638, 40.073842 ], [ -105.637313, 40.074454 ], [ -105.637027, 40.074585 ], [ -105.636647, 40.074614 ], [ -105.635695, 40.074846 ], [ -105.635429, 40.074947 ], [ -105.635027, 40.075531 ], [ -105.634947, 40.075799 ], [ -105.634775, 40.076379 ], [ -105.634677, 40.077036 ], [ -105.634836, 40.079215 ], [ -105.634758, 40.079551 ], [ -105.634566, 40.079975 ], [ -105.633973, 40.080617 ], [ -105.633229, 40.081185 ], [ -105.63262, 40.081447 ], [ -105.633988, 40.08145 ], [ -105.634253, 40.081509 ], [ -105.634914, 40.0823 ], [ -105.635539, 40.08274 ], [ -105.635633, 40.082871 ], [ -105.635893, 40.083968 ], [ -105.636004, 40.084553 ], [ -105.635908, 40.084685 ], [ -105.635147, 40.084976 ], [ -105.634974, 40.085224 ], [ -105.635011, 40.085545 ], [ -105.635218, 40.085875 ], [ -105.635369, 40.086116 ], [ -105.635442, 40.08654 ], [ -105.635211, 40.087183 ], [ -105.634734, 40.087489 ], [ -105.63376, 40.088379 ], [ -105.633683, 40.088583 ], [ -105.633755, 40.089315 ], [ -105.634302, 40.090164 ], [ -105.634539, 40.091904 ], [ -105.634384, 40.092605 ], [ -105.634719, 40.093848 ], [ -105.634601, 40.094521 ], [ -105.634693, 40.09512 ], [ -105.634539, 40.095485 ], [ -105.634329, 40.095602 ], [ -105.634044, 40.095587 ], [ -105.63376, 40.095425 ], [ -105.633532, 40.09541 ], [ -105.633266, 40.095454 ], [ -105.632426, 40.096168 ], [ -105.632081, 40.096738 ], [ -105.632022, 40.097191 ], [ -105.632077, 40.09741 ], [ -105.632248, 40.097571 ], [ -105.632967, 40.098041 ], [ -105.633725, 40.098524 ], [ -105.633911, 40.099227 ], [ -105.6341, 40.099388 ], [ -105.635386, 40.100443 ], [ -105.636047, 40.101351 ], [ -105.636007, 40.101541 ], [ -105.636196, 40.101907 ], [ -105.63661, 40.102536 ], [ -105.636169, 40.103208 ], [ -105.636104, 40.104741 ], [ -105.636681, 40.106994 ], [ -105.63645, 40.107651 ], [ -105.636296, 40.107856 ], [ -105.635705, 40.108308 ], [ -105.635704, 40.108498 ], [ -105.636025, 40.108893 ], [ -105.636042, 40.109288 ], [ -105.63566, 40.109682 ], [ -105.635423, 40.111172 ], [ -105.635095, 40.112224 ], [ -105.634652, 40.113232 ], [ -105.634309, 40.113436 ], [ -105.633586, 40.113581 ], [ -105.632294, 40.113564 ], [ -105.63163, 40.113489 ], [ -105.630507, 40.113867 ], [ -105.629973, 40.114158 ], [ -105.629781, 40.114582 ], [ -105.62989, 40.115518 ], [ -105.629121, 40.117036 ], [ -105.62853, 40.117613 ], [ -105.627689, 40.118437 ], [ -105.627213, 40.118655 ], [ -105.626566, 40.118654 ], [ -105.62821, 40.120353 ], [ -105.628246, 40.120806 ], [ -105.627957, 40.121449 ], [ -105.627595, 40.121711 ], [ -105.627574, 40.122062 ], [ -105.628782, 40.123512 ], [ -105.628185, 40.124987 ], [ -105.627593, 40.125597 ], [ -105.627341, 40.12602 ], [ -105.626956, 40.126443 ], [ -105.626706, 40.126749 ], [ -105.626226, 40.127069 ], [ -105.62609, 40.127346 ], [ -105.626318, 40.127537 ], [ -105.626413, 40.127669 ], [ -105.626571, 40.127858 ], [ -105.613766, 40.127828 ], [ -105.603426, 40.127816 ], [ -105.594095, 40.127783 ], [ -105.523853, 40.127428 ], [ -105.478789, 40.12729 ], [ -105.475158, 40.127321 ], [ -105.471895, 40.127325 ], [ -105.460608, 40.12734 ], [ -105.448384, 40.131308 ], [ -105.448268, 40.141521 ], [ -105.44824, 40.142996 ], [ -105.440319, 40.142629 ], [ -105.412183, 40.141307 ], [ -105.396597, 40.142281 ], [ -105.376916, 40.143631 ], [ -105.376454, 40.143663 ], [ -105.375991, 40.143694 ], [ -105.375459, 40.143731 ], [ -105.367293, 40.143274 ], [ -105.357031, 40.1427 ], [ -105.357033, 40.136192 ], [ -105.357034, 40.130417 ], [ -105.357035, 40.127094 ], [ -105.357037, 40.121927 ], [ -105.357037, 40.121433 ], [ -105.331017, 40.12164 ], [ -105.33091, 40.12164 ], [ -105.327838, 40.121633 ], [ -105.327819, 40.120067 ], [ -105.327818, 40.119963 ], [ -105.327746, 40.114053 ], [ -105.327718, 40.111823 ], [ -105.327641, 40.105738 ], [ -105.327634, 40.105545 ], [ -105.327612, 40.102869 ], [ -105.32758, 40.100862 ], [ -105.321227, 40.100905 ], [ -105.318187, 40.100926 ], [ -105.316563, 40.100938 ], [ -105.316024, 40.100942 ], [ -105.312812, 40.100964 ], [ -105.311547, 40.100973 ], [ -105.307736, 40.101 ], [ -105.306389, 40.101009 ], [ -105.306365, 40.102922 ], [ -105.306298, 40.108465 ], [ -105.306129, 40.108464 ], [ -105.302788, 40.108464 ], [ -105.302612, 40.108473 ], [ -105.300542, 40.108432 ], [ -105.300416, 40.100804 ], [ -105.285469, 40.10088 ], [ -105.283291, 40.100925 ], [ -105.281985, 40.100941 ], [ -105.281977, 40.100723 ], [ -105.281976, 40.100381 ], [ -105.282013, 40.099752 ], [ -105.28205, 40.099261 ], [ -105.282057, 40.099095 ], [ -105.282077, 40.098602 ], [ -105.282105, 40.097943 ], [ -105.282132, 40.097108 ], [ -105.282122, 40.095298 ], [ -105.282138, 40.09438 ], [ -105.282141, 40.094228 ], [ -105.282134, 40.093114 ], [ -105.28214, 40.091528 ], [ -105.282136, 40.091347 ], [ -105.282138, 40.089934 ], [ -105.282143, 40.087808 ], [ -105.282143, 40.087741 ], [ -105.282144, 40.087211 ], [ -105.282139, 40.087028 ], [ -105.268666, 40.086983 ], [ -105.267285, 40.086981 ], [ -105.262572, 40.086973 ], [ -105.261773, 40.086972 ], [ -105.258146, 40.08704 ], [ -105.257241, 40.08687 ], [ -105.257121, 40.086981 ], [ -105.256962, 40.087063 ], [ -105.257089, 40.087395 ], [ -105.256519, 40.087383 ], [ -105.253778, 40.087324 ], [ -105.244688, 40.087126 ], [ -105.234436, 40.086904 ], [ -105.234164, 40.086907 ], [ -105.233758, 40.086905 ], [ -105.23197, 40.086903 ], [ -105.230976, 40.086929 ], [ -105.228806, 40.086913 ], [ -105.226056, 40.086893 ], [ -105.225838, 40.086892 ], [ -105.222381, 40.086884 ], [ -105.219971, 40.086878 ], [ -105.219079, 40.086876 ], [ -105.21824, 40.086901 ], [ -105.217307, 40.086928 ], [ -105.217231, 40.086873 ], [ -105.210219, 40.086948 ], [ -105.207383, 40.086978 ], [ -105.207066, 40.086982 ], [ -105.206912, 40.086984 ], [ -105.206913, 40.0872 ], [ -105.206911, 40.087508 ], [ -105.206907, 40.088188 ], [ -105.206903, 40.088806 ], [ -105.206902, 40.088883 ], [ -105.206902, 40.088899 ], [ -105.206901, 40.08899 ], [ -105.206899, 40.089261 ], [ -105.206897, 40.089882 ], [ -105.206892, 40.091516 ], [ -105.206894, 40.092467 ], [ -105.206895, 40.093073 ], [ -105.206898, 40.09423 ], [ -105.206898, 40.094401 ], [ -105.205751, 40.094412 ], [ -105.204604, 40.094398 ], [ -105.203433, 40.094404 ], [ -105.202659, 40.094396 ], [ -105.201716, 40.094406 ], [ -105.201299, 40.094411 ], [ -105.199939, 40.094393 ], [ -105.19615, 40.094384 ], [ -105.196151, 40.094265 ], [ -105.196152, 40.094202 ], [ -105.196152, 40.09414 ], [ -105.196154, 40.094009 ], [ -105.196185, 40.090858 ], [ -105.196238, 40.08539 ], [ -105.19624, 40.08524 ], [ -105.196232, 40.085148 ], [ -105.196245, 40.084544 ], [ -105.196252, 40.084258 ], [ -105.196282, 40.083465 ], [ -105.196284, 40.083398 ], [ -105.196315, 40.082859 ], [ -105.196311, 40.082715 ], [ -105.196307, 40.082591 ], [ -105.196306, 40.082564 ], [ -105.1963, 40.082367 ], [ -105.196295, 40.082172 ], [ -105.196236, 40.080121 ], [ -105.19661, 40.077065 ], [ -105.196626, 40.07662 ], [ -105.196658, 40.076151 ], [ -105.196674, 40.076023 ], [ -105.197251, 40.074496 ], [ -105.197258, 40.074366 ], [ -105.197412, 40.074079 ], [ -105.1974, 40.074041 ], [ -105.19723, 40.073457 ], [ -105.197243, 40.073241 ], [ -105.197133, 40.073132 ], [ -105.196647, 40.072773 ], [ -105.19633, 40.072774 ], [ -105.196192, 40.072774 ], [ -105.195922, 40.072775 ], [ -105.195591, 40.072784 ], [ -105.194004, 40.072773 ], [ -105.193852, 40.072772 ], [ -105.193202, 40.072764 ], [ -105.192773, 40.072768 ], [ -105.188085, 40.072773 ], [ -105.185505, 40.072759 ], [ -105.18326, 40.07274 ], [ -105.182979, 40.072739 ], [ -105.181291, 40.072735 ], [ -105.17961, 40.072714 ], [ -105.179012, 40.072718 ], [ -105.17862, 40.072721 ], [ -105.178496, 40.072722 ], [ -105.178458, 40.072723 ], [ -105.178363, 40.072724 ], [ -105.178142, 40.072727 ], [ -105.178021, 40.072729 ], [ -105.177615, 40.072734 ], [ -105.177285, 40.072739 ], [ -105.174346, 40.072731 ], [ -105.173926, 40.072724 ], [ -105.173415, 40.072716 ], [ -105.172307, 40.072716 ], [ -105.169138, 40.0727 ], [ -105.163962, 40.072712 ], [ -105.161155, 40.072699 ], [ -105.15976, 40.072706 ], [ -105.15782, 40.072692 ], [ -105.155695, 40.072687 ], [ -105.154548, 40.072675 ], [ -105.153048, 40.072681 ], [ -105.151566, 40.072669 ], [ -105.150471, 40.072678 ], [ -105.150049, 40.07268 ], [ -105.149995, 40.075005 ], [ -105.149948, 40.077015 ], [ -105.149709, 40.087312 ], [ -105.149045, 40.087303 ], [ -105.146584, 40.087295 ], [ -105.144292, 40.087296 ], [ -105.142199, 40.087294 ], [ -105.141994, 40.087301 ], [ -105.141366, 40.087303 ], [ -105.141224, 40.087304 ], [ -105.140978, 40.087305 ], [ -105.138254, 40.087317 ], [ -105.137297, 40.087318 ], [ -105.134898, 40.087328 ], [ -105.131459, 40.087359 ], [ -105.131414, 40.083724 ], [ -105.131405, 40.083251 ], [ -105.12098, 40.083279 ], [ -105.120983, 40.082748 ], [ -105.121004, 40.07933 ], [ -105.113282, 40.079341 ], [ -105.102562, 40.079357 ], [ -105.09649, 40.079425 ], [ -105.087978, 40.079372 ], [ -105.08404, 40.079562 ], [ -105.083842, 40.07959 ], [ -105.083004, 40.079597 ], [ -105.074421, 40.079637 ], [ -105.074418, 40.073434 ], [ -105.074421, 40.073206 ], [ -105.07447, 40.069526 ], [ -105.074478, 40.067988 ], [ -105.074488, 40.066168 ], [ -105.074489, 40.065677 ], [ -105.076216, 40.065676 ], [ -105.077594, 40.065675 ], [ -105.084091, 40.065673 ], [ -105.086925, 40.065671 ], [ -105.087334, 40.065672 ], [ -105.087475, 40.065672 ], [ -105.08868, 40.065671 ], [ -105.088925, 40.065671 ], [ -105.089302, 40.065671 ], [ -105.093384, 40.065692 ], [ -105.093384, 40.065651 ], [ -105.093385, 40.065293 ], [ -105.093386, 40.065103 ], [ -105.093384, 40.063867 ], [ -105.093379, 40.061281 ], [ -105.093383, 40.061142 ], [ -105.093213, 40.059409 ], [ -105.093336, 40.058411 ], [ -105.093381, 40.05575 ], [ -105.093379, 40.054621 ], [ -105.093385, 40.051254 ], [ -105.09338, 40.051141 ], [ -105.09338, 40.051003 ], [ -105.09338, 40.050784 ], [ -105.093386, 40.05012 ], [ -105.093431, 40.048616 ], [ -105.093434, 40.048524 ], [ -105.09338, 40.044617 ], [ -105.093388, 40.044202 ], [ -105.093379, 40.043615 ], [ -105.093262, 40.043615 ], [ -105.093261, 40.043701 ], [ -105.09323, 40.043701 ], [ -105.092745, 40.043707 ], [ -105.092289, 40.043713 ], [ -105.091846, 40.043719 ], [ -105.091425, 40.043724 ], [ -105.090966, 40.04373 ], [ -105.090508, 40.043741 ], [ -105.090054, 40.043752 ], [ -105.089609, 40.043763 ], [ -105.089177, 40.043773 ], [ -105.088785, 40.043783 ], [ -105.088648, 40.043786 ], [ -105.088015, 40.043801 ], [ -105.087497, 40.043814 ], [ -105.086974, 40.043827 ], [ -105.086457, 40.043839 ], [ -105.085947, 40.043852 ], [ -105.085412, 40.043865 ], [ -105.084633, 40.043884 ], [ -105.084569, 40.043886 ], [ -105.084454, 40.043888 ], [ -105.084315, 40.043891 ], [ -105.084238, 40.043893 ], [ -105.08382, 40.043905 ], [ -105.083393, 40.043911 ], [ -105.082631, 40.043925 ], [ -105.081838, 40.043938 ], [ -105.081282, 40.043946 ], [ -105.081067, 40.04395 ], [ -105.080853, 40.043954 ], [ -105.080095, 40.043967 ], [ -105.079319, 40.04398 ], [ -105.079003, 40.043985 ], [ -105.078579, 40.043995 ], [ -105.077829, 40.044014 ], [ -105.077075, 40.04403 ], [ -105.076321, 40.044048 ], [ -105.075562, 40.044065 ], [ -105.075061, 40.044077 ], [ -105.074713, 40.044086 ], [ -105.07462, 40.044088 ], [ -105.074519, 40.044088 ], [ -105.074524, 40.043433 ], [ -105.07453, 40.042961 ], [ -105.074531, 40.042915 ], [ -105.074533, 40.042388 ], [ -105.074506, 40.041252 ], [ -105.074515, 40.038416 ], [ -105.074511, 40.037523 ], [ -105.074521, 40.0368 ], [ -105.074527, 40.03615 ], [ -105.074552, 40.034706 ], [ -105.074555, 40.034561 ], [ -105.074534, 40.034108 ], [ -105.07453, 40.034034 ], [ -105.074527, 40.033946 ], [ -105.074523, 40.032774 ], [ -105.074533, 40.029456 ], [ -105.074533, 40.029433 ], [ -105.074533, 40.029373 ], [ -105.074533, 40.029197 ], [ -105.074534, 40.028246 ], [ -105.074536, 40.02747 ], [ -105.074536, 40.027294 ], [ -105.074537, 40.02706 ], [ -105.074532, 40.026495 ], [ -105.074531, 40.026405 ], [ -105.074528, 40.025865 ], [ -105.074527, 40.025779 ], [ -105.074526, 40.025634 ], [ -105.074517, 40.024852 ], [ -105.07451, 40.023925 ], [ -105.0745, 40.022117 ], [ -105.074405, 40.022117 ], [ -105.065004, 40.021998 ], [ -105.065, 40.02144 ], [ -105.063935, 40.021449 ], [ -105.06298, 40.021457 ], [ -105.061935, 40.021466 ], [ -105.059741, 40.021486 ], [ -105.059222, 40.021491 ], [ -105.0584, 40.021498 ], [ -105.057939, 40.021502 ], [ -105.057472, 40.021507 ], [ -105.05665, 40.021514 ], [ -105.055569, 40.021524 ], [ -105.055395, 40.021532 ], [ -105.055408, 40.018176 ], [ -105.055408, 40.018148 ], [ -105.05541, 40.01771 ], [ -105.055439, 40.015455 ], [ -105.055448, 40.014774 ], [ -105.055451, 40.014461 ], [ -105.055453, 40.014184 ], [ -105.055478, 40.011133 ], [ -105.055509, 40.009899 ], [ -105.055515, 40.00948 ], [ -105.055521, 40.009049 ], [ -105.055528, 40.008517 ], [ -105.055537, 40.007986 ], [ -105.05554, 40.007712 ], [ -105.055543, 40.007504 ], [ -105.055561, 40.006162 ], [ -105.055565, 40.005845 ], [ -105.055568, 40.005703 ], [ -105.055569, 40.005659 ], [ -105.05553, 40.005634 ], [ -105.055549, 40.004599 ], [ -105.055563, 40.003859 ], [ -105.055546, 40.002008 ], [ -105.055536, 40.00086 ], [ -105.055531, 40.000416 ], [ -105.055518, 40.000251 ], [ -105.055432, 40.000251 ], [ -105.054348, 40.000255 ], [ -105.052823, 40.00026 ], [ -105.052822, 40.000122 ], [ -105.052774, 39.98654 ], [ -105.052774, 39.986398 ], [ -105.052792, 39.979489 ], [ -105.052792, 39.97938 ], [ -105.052793, 39.97879 ], [ -105.052794, 39.978581 ], [ -105.052797, 39.977674 ], [ -105.052797, 39.977574 ], [ -105.052798, 39.977391 ], [ -105.052798, 39.977114 ], [ -105.052803, 39.975627 ], [ -105.052804, 39.975089 ], [ -105.052813, 39.972059 ], [ -105.052817, 39.970295 ], [ -105.052822, 39.968533 ], [ -105.052825, 39.966985 ], [ -105.052826, 39.96648 ], [ -105.052828, 39.965892 ], [ -105.052833, 39.964319 ], [ -105.052837, 39.962784 ], [ -105.052839, 39.962521 ], [ -105.052846, 39.962028 ], [ -105.052875, 39.959771 ], [ -105.052889, 39.957826 ], [ -105.05289, 39.957693 ], [ -105.052839, 39.957692 ], [ -105.052824, 39.957692 ], [ -105.052739, 39.957691 ], [ -105.052797, 39.957451 ], [ -105.052814, 39.956882 ], [ -105.05288, 39.956713 ], [ -105.052911, 39.956559 ], [ -105.052918, 39.955363 ], [ -105.05292, 39.955288 ], [ -105.052929, 39.954176 ], [ -105.052942, 39.952639 ], [ -105.052958, 39.950733 ], [ -105.052959, 39.95043 ], [ -105.052962, 39.950127 ], [ -105.052965, 39.949256 ], [ -105.052979, 39.947038 ], [ -105.05296, 39.945362 ], [ -105.052959, 39.945213 ], [ -105.052951, 39.944547 ], [ -105.052898, 39.943187 ], [ -105.052908, 39.940855 ], [ -105.052908, 39.938577 ], [ -105.052913, 39.936338 ], [ -105.052919, 39.936204 ], [ -105.052947, 39.934021 ], [ -105.053005, 39.933466 ], [ -105.053047, 39.933101 ], [ -105.053094, 39.931986 ], [ -105.053094, 39.931944 ], [ -105.053095, 39.931442 ], [ -105.053095, 39.931334 ], [ -105.053095, 39.931262 ], [ -105.053096, 39.930287 ], [ -105.053098, 39.928805 ], [ -105.053089, 39.928719 ], [ -105.053091, 39.928186 ], [ -105.05304, 39.927737 ], [ -105.053041, 39.926787 ], [ -105.053043, 39.925159 ], [ -105.053041, 39.925046 ], [ -105.053037, 39.924746 ], [ -105.053029, 39.924033 ], [ -105.053025, 39.923546 ], [ -105.05302, 39.922755 ], [ -105.053016, 39.922268 ], [ -105.053015, 39.922 ], [ -105.053013, 39.921516 ], [ -105.053013, 39.920945 ], [ -105.053016, 39.919658 ], [ -105.053011, 39.919613 ], [ -105.053011, 39.918234 ], [ -105.053012, 39.91805 ], [ -105.053012, 39.917862 ], [ -105.053012, 39.917578 ], [ -105.053012, 39.917495 ], [ -105.053016, 39.917158 ], [ -105.053028, 39.917005 ], [ -105.053024, 39.916875 ], [ -105.052971, 39.91667 ], [ -105.052958, 39.916494 ], [ -105.052937, 39.916212 ], [ -105.052942, 39.916196 ], [ -105.052892, 39.914224 ], [ -105.052957, 39.914224 ], [ -105.052971, 39.914224 ], [ -105.053245, 39.91423 ], [ -105.054141, 39.914236 ], [ -105.054996, 39.914245 ], [ -105.055388, 39.914259 ], [ -105.056501, 39.914262 ], [ -105.057647, 39.914271 ], [ -105.057796, 39.914271 ], [ -105.059077, 39.91425 ], [ -105.060338, 39.914257 ], [ -105.060553, 39.914256 ], [ -105.062242, 39.914286 ], [ -105.062446, 39.914293 ], [ -105.064838, 39.914299 ], [ -105.06502, 39.914299 ], [ -105.065163, 39.914296 ], [ -105.065907, 39.914285 ], [ -105.066476, 39.914286 ], [ -105.066613, 39.914287 ], [ -105.066974, 39.914296 ], [ -105.067132, 39.9143 ], [ -105.067345, 39.914306 ], [ -105.067541, 39.914311 ], [ -105.068333, 39.914291 ], [ -105.068689, 39.91427 ], [ -105.069093, 39.914272 ], [ -105.06929, 39.914281 ], [ -105.069499, 39.914297 ], [ -105.071024, 39.914347 ], [ -105.071506, 39.914354 ], [ -105.071815, 39.914363 ], [ -105.072036, 39.914371 ], [ -105.07233, 39.914366 ], [ -105.07261, 39.914362 ], [ -105.072837, 39.914355 ], [ -105.073002, 39.914356 ], [ -105.073477, 39.914357 ], [ -105.073723, 39.914351 ], [ -105.074185, 39.914359 ], [ -105.074379, 39.914362 ], [ -105.074706, 39.914348 ], [ -105.074957, 39.914342 ], [ -105.075177, 39.914342 ], [ -105.075348, 39.914351 ], [ -105.075511, 39.914361 ], [ -105.075594, 39.914358 ], [ -105.075696, 39.914355 ], [ -105.075851, 39.914349 ], [ -105.076072, 39.914342 ], [ -105.076531, 39.914342 ], [ -105.077092, 39.914343 ], [ -105.077227, 39.914349 ], [ -105.077483, 39.914362 ], [ -105.077629, 39.914361 ], [ -105.078198, 39.914371 ], [ -105.07933, 39.914377 ], [ -105.079494, 39.914377 ], [ -105.079494, 39.914323 ], [ -105.079498, 39.914248 ], [ -105.080049, 39.914248 ], [ -105.080324, 39.914261 ], [ -105.080459, 39.914265 ], [ -105.080869, 39.914269 ], [ -105.080962, 39.914274 ], [ -105.081145, 39.914292 ], [ -105.081218, 39.914298 ], [ -105.081618, 39.914301 ], [ -105.082354, 39.914291 ], [ -105.082428, 39.91429 ], [ -105.082779, 39.914285 ], [ -105.082966, 39.914286 ], [ -105.083406, 39.914288 ], [ -105.084372, 39.914293 ], [ -105.084855, 39.914295 ], [ -105.085899, 39.91429 ], [ -105.086116, 39.914289 ], [ -105.087621, 39.914283 ], [ -105.088226, 39.914282 ], [ -105.08876, 39.914282 ], [ -105.090367, 39.914282 ], [ -105.090453, 39.914298 ], [ -105.090479, 39.914308 ], [ -105.090517, 39.914331 ], [ -105.09055, 39.91436 ], [ -105.090817, 39.914349 ], [ -105.090919, 39.914348 ], [ -105.091172, 39.914368 ], [ -105.091356, 39.914337 ], [ -105.091438, 39.914324 ], [ -105.091886, 39.914249 ], [ -105.091922, 39.914256 ], [ -105.092069, 39.914277 ], [ -105.092194, 39.914285 ], [ -105.092326, 39.914288 ], [ -105.092615, 39.914286 ], [ -105.094405, 39.914244 ], [ -105.094859, 39.914255 ], [ -105.095374, 39.914277 ], [ -105.095562, 39.914279 ], [ -105.096268, 39.914261 ], [ -105.096506, 39.91426 ], [ -105.096751, 39.914259 ], [ -105.096934, 39.914257 ], [ -105.097111, 39.914263 ], [ -105.097252, 39.914263 ], [ -105.097379, 39.914265 ], [ -105.098312, 39.914261 ], [ -105.098598, 39.914265 ], [ -105.099053, 39.914291 ], [ -105.099506, 39.914335 ], [ -105.099862, 39.914255 ], [ -105.100033, 39.914234 ], [ -105.100254, 39.914225 ], [ -105.101592, 39.914212 ], [ -105.10165, 39.914217 ], [ -105.101715, 39.914215 ], [ -105.101742, 39.9142 ], [ -105.101801, 39.914205 ], [ -105.101883, 39.914205 ], [ -105.105135, 39.914287 ], [ -105.105239, 39.914285 ], [ -105.106222, 39.914285 ], [ -105.106587, 39.914286 ], [ -105.106788, 39.914287 ], [ -105.107814, 39.914336 ], [ -105.108747, 39.91438 ], [ -105.108609, 39.914137 ], [ -105.109031, 39.914139 ], [ -105.112344, 39.914118 ], [ -105.113691, 39.914109 ], [ -105.114544, 39.914104 ], [ -105.115465, 39.914099 ], [ -105.115553, 39.914098 ], [ -105.116017, 39.914095 ], [ -105.116226, 39.914094 ], [ -105.116338, 39.914093 ], [ -105.116515, 39.914091 ], [ -105.116712, 39.91409 ], [ -105.117353, 39.914086 ], [ -105.118536, 39.914078 ], [ -105.118871, 39.914076 ], [ -105.120649, 39.914064 ], [ -105.121094, 39.914061 ], [ -105.121281, 39.91406 ], [ -105.124033, 39.914041 ], [ -105.125579, 39.914043 ], [ -105.125972, 39.914038 ], [ -105.126024, 39.914037 ], [ -105.127911, 39.914015 ], [ -105.128346, 39.914015 ], [ -105.131204, 39.914018 ], [ -105.132576, 39.914019 ], [ -105.135483, 39.914024 ], [ -105.138184, 39.914028 ], [ -105.139594, 39.914029 ], [ -105.139971, 39.914029 ], [ -105.140276, 39.914029 ], [ -105.140289, 39.914029 ], [ -105.140573, 39.914029 ], [ -105.143462, 39.91403 ], [ -105.144734, 39.914031 ], [ -105.145561, 39.914031 ], [ -105.146069, 39.914031 ], [ -105.146271, 39.914031 ], [ -105.146531, 39.914032 ], [ -105.147117, 39.914002 ], [ -105.147121, 39.91389 ], [ -105.147143, 39.913889 ], [ -105.147161, 39.913889 ], [ -105.147183, 39.913888 ], [ -105.147342, 39.913886 ], [ -105.148342, 39.913885 ], [ -105.148431, 39.913885 ], [ -105.148491, 39.913885 ], [ -105.148472, 39.914049 ], [ -105.156413, 39.91405 ], [ -105.159672, 39.914053 ], [ -105.159796, 39.914054 ], [ -105.164281, 39.914118 ], [ -105.165349, 39.914133 ], [ -105.165823, 39.914082 ], [ -105.16599, 39.914064 ], [ -105.16615, 39.914047 ], [ -105.166565, 39.913893 ], [ -105.16699, 39.913893 ], [ -105.167072, 39.913893 ], [ -105.167722, 39.9139 ], [ -105.181976, 39.914012 ], [ -105.190804, 39.914081 ], [ -105.190929, 39.914082 ], [ -105.191895, 39.914097 ], [ -105.191995, 39.914099 ], [ -105.192184, 39.914102 ], [ -105.192439, 39.914107 ], [ -105.192668, 39.914111 ], [ -105.192776, 39.914113 ], [ -105.192899, 39.914115 ], [ -105.196647, 39.914186 ], [ -105.196817, 39.914176 ], [ -105.196961, 39.914168 ], [ -105.196979, 39.914167 ], [ -105.198407, 39.914088 ], [ -105.199001, 39.914055 ], [ -105.199494, 39.914028 ], [ -105.199728, 39.914015 ], [ -105.200081, 39.913995 ], [ -105.200241, 39.913986 ], [ -105.200621, 39.913991 ], [ -105.200796, 39.913994 ], [ -105.200992, 39.913999 ], [ -105.201025, 39.914005 ], [ -105.201078, 39.914 ], [ -105.201091, 39.914 ], [ -105.201121, 39.914 ], [ -105.201254, 39.914002 ], [ -105.201429, 39.914005 ], [ -105.20345, 39.91404 ], [ -105.206219, 39.914085 ], [ -105.206273, 39.914086 ], [ -105.212475, 39.914236 ], [ -105.214702, 39.914224 ], [ -105.214955, 39.914223 ], [ -105.222344, 39.914185 ], [ -105.231343, 39.914085 ], [ -105.231395, 39.914087 ], [ -105.23293, 39.914152 ], [ -105.232976, 39.914154 ], [ -105.232999, 39.914155 ], [ -105.233071, 39.914158 ], [ -105.233157, 39.914162 ], [ -105.238544, 39.914386 ], [ -105.238882, 39.914369 ], [ -105.238933, 39.914367 ], [ -105.24527, 39.914084 ], [ -105.245382, 39.914083 ], [ -105.263182, 39.91399 ], [ -105.263407, 39.913989 ], [ -105.263945, 39.913986 ], [ -105.264773, 39.914152 ], [ -105.264945, 39.914186 ], [ -105.265477, 39.914166 ], [ -105.269445, 39.913986 ], [ -105.282656, 39.913687 ], [ -105.282977, 39.913689 ], [ -105.283072, 39.91369 ], [ -105.283392, 39.913694 ], [ -105.306845, 39.913986 ], [ -105.307088, 39.913982 ], [ -105.307326, 39.913979 ], [ -105.308926, 39.913958 ], [ -105.308946, 39.913958 ], [ -105.309298, 39.913953 ], [ -105.3094, 39.913952 ], [ -105.309662, 39.913948 ], [ -105.309686, 39.913948 ], [ -105.309847, 39.913945 ], [ -105.311509, 39.913922 ], [ -105.311741, 39.913919 ], [ -105.311812, 39.913918 ], [ -105.311828, 39.913918 ], [ -105.311858, 39.913918 ], [ -105.311924, 39.913917 ], [ -105.311977, 39.913916 ], [ -105.312205, 39.913913 ], [ -105.312644, 39.913907 ], [ -105.31322, 39.913899 ], [ -105.314147, 39.913886 ], [ -105.314431, 39.913884 ], [ -105.314702, 39.913883 ], [ -105.316445, 39.913876 ], [ -105.322384, 39.913854 ], [ -105.339547, 39.913786 ], [ -105.342281, 39.913737 ], [ -105.350741, 39.913578 ], [ -105.35106, 39.913572 ], [ -105.357346, 39.913486 ], [ -105.357666, 39.913485 ], [ -105.357839, 39.913482 ], [ -105.366402, 39.913327 ], [ -105.368239, 39.913293 ], [ -105.368683, 39.913291 ], [ -105.370226, 39.913284 ], [ -105.370352, 39.913283 ], [ -105.372692, 39.913293 ], [ -105.372753, 39.913269 ], [ -105.373092, 39.913214 ], [ -105.373294, 39.913198 ], [ -105.373498, 39.913202 ], [ -105.373622, 39.913217 ], [ -105.373705, 39.913219 ], [ -105.373806, 39.913217 ], [ -105.373858, 39.913211 ], [ -105.373886, 39.913206 ], [ -105.373924, 39.913193 ], [ -105.373943, 39.913181 ], [ -105.376919, 39.913141 ], [ -105.383365, 39.913055 ], [ -105.395241, 39.912896 ], [ -105.395849, 39.912886 ], [ -105.396421, 39.912886 ], [ -105.396465, 39.912886 ], [ -105.397849, 39.912886 ], [ -105.397849, 39.910637 ], [ -105.397848, 39.910153 ], [ -105.397849, 39.908786 ], [ -105.397849, 39.908486 ], [ -105.397822, 39.908349 ], [ -105.397751, 39.907985 ], [ -105.397749, 39.907643 ], [ -105.397747, 39.907545 ], [ -105.397747, 39.907234 ], [ -105.397749, 39.906792 ], [ -105.397749, 39.906685 ], [ -105.397749, 39.906653 ], [ -105.397749, 39.906186 ], [ -105.397749, 39.905586 ], [ -105.397749, 39.904086 ], [ -105.397817, 39.90033 ], [ -105.397819, 39.900205 ], [ -105.397821, 39.900081 ], [ -105.397821, 39.900033 ], [ -105.397823, 39.899952 ], [ -105.397824, 39.899889 ], [ -105.397825, 39.899842 ], [ -105.397826, 39.899727 ], [ -105.397833, 39.899383 ], [ -105.397835, 39.899281 ], [ -105.397835, 39.899269 ], [ -105.397849, 39.898486 ], [ -105.39789, 39.897995 ], [ -105.397949, 39.897286 ], [ -105.397852, 39.895446 ], [ -105.397848, 39.895341 ], [ -105.397649, 39.883187 ], [ -105.397749, 39.882487 ], [ -105.397759, 39.882455 ], [ -105.397772, 39.882418 ], [ -105.397783, 39.88238 ], [ -105.397848, 39.882187 ], [ -105.397849, 39.881699 ], [ -105.397849, 39.881686 ], [ -105.397937, 39.88116 ], [ -105.397949, 39.881087 ], [ -105.397949, 39.880912 ], [ -105.39795, 39.880287 ], [ -105.397951, 39.8797 ], [ -105.39795, 39.879587 ], [ -105.397949, 39.877701 ], [ -105.397948, 39.877586 ], [ -105.397949, 39.876905 ], [ -105.397947, 39.876587 ], [ -105.397955, 39.87641 ], [ -105.398045, 39.873886 ], [ -105.398045, 39.873443 ], [ -105.398044, 39.872686 ], [ -105.398043, 39.872186 ], [ -105.398, 39.871539 ], [ -105.397999, 39.871433 ], [ -105.397877, 39.866849 ], [ -105.397755, 39.866598 ], [ -105.39758, 39.866356 ], [ -105.397568, 39.866061 ], [ -105.397952, 39.861587 ], [ -105.397952, 39.861387 ], [ -105.397948, 39.861244 ], [ -105.397949, 39.861073 ], [ -105.397949, 39.860387 ], [ -105.397549, 39.854887 ], [ -105.397503, 39.854334 ], [ -105.39775, 39.85433 ], [ -105.398493, 39.854322 ], [ -105.398741, 39.85432 ], [ -105.400871, 39.854295 ], [ -105.407264, 39.854223 ], [ -105.409395, 39.854199 ], [ -105.411581, 39.854173 ], [ -105.418142, 39.854099 ], [ -105.420329, 39.854075 ], [ -105.422048, 39.854053 ], [ -105.427208, 39.85399 ], [ -105.428928, 39.85397 ], [ -105.43011, 39.853958 ], [ -105.433656, 39.853922 ], [ -105.434838, 39.85391 ], [ -105.43666, 39.853894 ], [ -105.442127, 39.853849 ], [ -105.44395, 39.853835 ], [ -105.444267, 39.853829 ], [ -105.445221, 39.853814 ], [ -105.445539, 39.853809 ], [ -105.448285, 39.853813 ], [ -105.449939, 39.853816 ], [ -105.456523, 39.853827 ], [ -105.45927, 39.853832 ], [ -105.462544, 39.853833 ], [ -105.472368, 39.853837 ], [ -105.475643, 39.853839 ], [ -105.475722, 39.853839 ], [ -105.475959, 39.853842 ], [ -105.476039, 39.853843 ], [ -105.476246, 39.853841 ], [ -105.476868, 39.853836 ], [ -105.477076, 39.853835 ], [ -105.477223, 39.853837 ], [ -105.477666, 39.853846 ], [ -105.477814, 39.853849 ], [ -105.478219, 39.853837 ], [ -105.479437, 39.853805 ], [ -105.479843, 39.853795 ], [ -105.482133, 39.853762 ], [ -105.482839, 39.853752 ], [ -105.489006, 39.853664 ], [ -105.491297, 39.853632 ], [ -105.491803, 39.853622 ], [ -105.493322, 39.853595 ], [ -105.493829, 39.853586 ], [ -105.494701, 39.853569 ], [ -105.495271, 39.853558 ], [ -105.497317, 39.853521 ], [ -105.49819, 39.853505 ], [ -105.499589, 39.853478 ], [ -105.502492, 39.853425 ], [ -105.503064, 39.853424 ], [ -105.517689, 39.853419 ], [ -105.522564, 39.853418 ], [ -105.522619, 39.853418 ], [ -105.522787, 39.853419 ], [ -105.522843, 39.85342 ], [ -105.523228, 39.853421 ], [ -105.524382, 39.853427 ], [ -105.524768, 39.853429 ], [ -105.525882, 39.853439 ], [ -105.529226, 39.853469 ], [ -105.530341, 39.853479 ], [ -105.531489, 39.853479 ], [ -105.532272, 39.853478 ], [ -105.537695, 39.853476 ], [ -105.537688, 39.853847 ], [ -105.537658, 39.855529 ], [ -105.537653, 39.855778 ], [ -105.537652, 39.857682 ], [ -105.53765, 39.863398 ], [ -105.53765, 39.865303 ], [ -105.537651, 39.86782 ], [ -105.537648, 39.869177 ], [ -105.537653, 39.87015 ], [ -105.537668, 39.873069 ], [ -105.537673, 39.874042 ], [ -105.537667, 39.87852 ], [ -105.537664, 39.881973 ], [ -105.547648, 39.881999 ], [ -105.548168, 39.882001 ], [ -105.552126, 39.881912 ], [ -105.553473, 39.881894 ], [ -105.555155, 39.881873 ], [ -105.557517, 39.881844 ], [ -105.558865, 39.881828 ], [ -105.560014, 39.881806 ], [ -105.563465, 39.881743 ], [ -105.564615, 39.881722 ], [ -105.567917, 39.881664 ], [ -105.577824, 39.881493 ], [ -105.581127, 39.881436 ], [ -105.58122, 39.881434 ], [ -105.581503, 39.881429 ], [ -105.581597, 39.881428 ], [ -105.584273, 39.881382 ], [ -105.592301, 39.881244 ], [ -105.594977, 39.881198 ], [ -105.597522, 39.881136 ], [ -105.605159, 39.880951 ], [ -105.607705, 39.88089 ], [ -105.608681, 39.880866 ], [ -105.611612, 39.880795 ], [ -105.612589, 39.880772 ], [ -105.613136, 39.880759 ], [ -105.614779, 39.880721 ], [ -105.615327, 39.880709 ], [ -105.615786, 39.880698 ], [ -105.617166, 39.880666 ], [ -105.617627, 39.880656 ], [ -105.617944, 39.880649 ], [ -105.617962, 39.880649 ], [ -105.618297, 39.880642 ], [ -105.618756, 39.880633 ], [ -105.618898, 39.880629 ], [ -105.619216, 39.880623 ], [ -105.619481, 39.880617 ], [ -105.620278, 39.8806 ], [ -105.620544, 39.880595 ], [ -105.627909, 39.880438 ], [ -105.650006, 39.879969 ], [ -105.657372, 39.879813 ], [ -105.660563, 39.879751 ], [ -105.67014, 39.879565 ], [ -105.673332, 39.879504 ], [ -105.67882, 39.879391 ], [ -105.695284, 39.879054 ], [ -105.700773, 39.878942 ], [ -105.700731, 39.879153 ] ] ] } }
]
}
