{
"type": "FeatureCollection",
"name": "dw-07-attendance-areas",
"xy_coordinate_resolution": 1e-05,
"features": [
{ "type": "Feature", "properties": { "area_name": "Bear Creek", "children_5_10": 202.0, "status": "takes a closing area", "sends_to": "", "receives_from": "Mesa", "capacity": 475.0, "enrolment_2024": 318.0, "utilisation_2024": 66.9, "pupils_2027_no_change": 295.0, "pupils_2027_approved": 508.0, "utilisation_2027_approved": 107.0, "over_capacity_2027": "yes" }, "geometry": { "type": "Polygon", "coordinates": [ [ [ -105.25541, 39.98593 ], [ -105.26733, 39.98571 ], [ -105.26737, 39.97511 ], [ -105.26582, 39.9752 ], [ -105.26555, 39.9749 ], [ -105.25607, 39.97513 ], [ -105.2561, 39.97903 ], [ -105.25674, 39.98084 ], [ -105.25557, 39.98128 ], [ -105.25462, 39.98227 ], [ -105.25543, 39.98229 ], [ -105.25541, 39.98593 ] ] ] } },
{ "type": "Feature", "properties": { "area_name": "Aspen Creek (K-5)", "children_5_10": 471.0, "status": "stays open", "sends_to": "", "receives_from": "", "capacity": 475.0, "enrolment_2024": 443.0, "utilisation_2024": 93.3, "pupils_2027_no_change": 411.0, "pupils_2027_approved": 411.0, "utilisation_2027_approved": 86.5, "over_capacity_2027": "no" }, "geometry": { "type": "Polygon", "coordinates": [ [ [ -105.05301, 39.97715 ], [ -105.06741, 39.97085 ], [ -105.07691, 39.9628 ], [ -105.08148, 39.96034 ], [ -105.08414, 39.95952 ], [ -105.08775, 39.95894 ], [ -105.10338, 39.9581 ], [ -105.10946, 39.95664 ], [ -105.11736, 39.95395 ], [ -105.12489, 39.94945 ], [ -105.12646, 39.94803 ], [ -105.12735, 39.94668 ], [ -105.12782, 39.94328 ], [ -105.12808, 39.93511 ], [ -105.12011, 39.93141 ], [ -105.11647, 39.92867 ], [ -105.09071, 39.92866 ], [ -105.09066, 39.94329 ], [ -105.05303, 39.94315 ], [ -105.05301, 39.97715 ] ] ] } },
{ "type": "Feature", "properties": { "area_name": "BC-Mesa", "children_5_10": 180.0, "status": "not modelled", "sends_to": null, "receives_from": null, "capacity": null, "enrolment_2024": null, "utilisation_2024": null, "pupils_2027_no_change": null, "pupils_2027_approved": null, "utilisation_2027_approved": null, "over_capacity_2027": null }, "geometry": { "type": "Polygon", "coordinates": [ [ [ -105.25528, 39.98597 ], [ -105.25541, 39.98231 ], [ -105.25459, 39.98227 ], [ -105.25563, 39.98121 ], [ -105.25673, 39.98085 ], [ -105.25607, 39.97894 ], [ -105.25606, 39.97513 ], [ -105.25081, 39.97512 ], [ -105.24971, 39.97482 ], [ -105.25212, 39.97241 ], [ -105.25201, 39.97102 ], [ -105.24909, 39.97012 ], [ -105.24773, 39.97052 ], [ -105.24703, 39.9703 ], [ -105.24669, 39.97089 ], [ -105.24631, 39.97059 ], [ -105.23695, 39.97062 ], [ -105.23756, 39.97212 ], [ -105.24991, 39.98554 ], [ -105.25205, 39.98435 ], [ -105.25285, 39.98521 ], [ -105.25469, 39.98532 ], [ -105.25528, 39.98597 ] ] ] } },
{ "type": "Feature", "properties": { "area_name": "Birch", "children_5_10": 379.0, "status": "closes", "sends_to": "Kohl", "receives_from": "", "capacity": 436.0, "enrolment_2024": 277.0, "utilisation_2024": 63.5, "pupils_2027_no_change": 257.0, "pupils_2027_approved": null, "utilisation_2027_approved": null, "over_capacity_2027": "" }, "geometry": { "type": "Polygon", "coordinates": [ [ [ -105.05302, 39.94346 ], [ -105.05303, 39.94315 ], [ -105.07191, 39.94326 ], [ -105.07186, 39.9251 ], [ -105.06819, 39.92429 ], [ -105.06351, 39.92516 ], [ -105.05303, 39.92514 ], [ -105.05302, 39.94346 ] ] ] } },
{ "type": "Feature", "properties": { "area_name": "Coal Creek", "children_5_10": 456.0, "status": "takes a closing area", "sends_to": "", "receives_from": "Douglass", "capacity": 496.0, "enrolment_2024": 283.0, "utilisation_2024": 57.1, "pupils_2027_no_change": 262.0, "pupils_2027_approved": 329.0, "utilisation_2027_approved": 66.2, "over_capacity_2027": "no" }, "geometry": { "type": "Polygon", "coordinates": [ [ [ -105.14207, 40.00011 ], [ -105.16163, 40.00012 ], [ -105.16266, 39.99585 ], [ -105.16476, 39.99214 ], [ -105.16607, 39.99048 ], [ -105.16581, 39.97434 ], [ -105.1653, 39.97336 ], [ -105.1643, 39.97248 ], [ -105.16189, 39.974 ], [ -105.15041, 39.97798 ], [ -105.14675, 39.97997 ], [ -105.14676, 39.98702 ], [ -105.13213, 39.98701 ], [ -105.13253, 39.98823 ], [ -105.14207, 40.00011 ] ] ] } },
{ "type": "Feature", "properties": { "area_name": "Columbine", "children_5_10": 737.0, "status": "stays open", "sends_to": "", "receives_from": "", "capacity": 579.0, "enrolment_2024": 343.0, "utilisation_2024": 59.2, "pupils_2027_no_change": 318.0, "pupils_2027_approved": 318.0, "utilisation_2027_approved": 54.9, "over_capacity_2027": "no" }, "geometry": { "type": "Polygon", "coordinates": [ [ [ -105.25366, 40.02334 ], [ -105.22544, 40.02748 ], [ -105.22536, 40.02916 ], [ -105.22599, 40.02928 ], [ -105.22594, 40.03346 ], [ -105.22262, 40.03462 ], [ -105.22235, 40.03435 ], [ -105.22269, 40.03423 ], [ -105.2227, 40.03234 ], [ -105.22325, 40.03193 ], [ -105.22419, 40.02956 ], [ -105.22393, 40.02918 ], [ -105.2209, 40.0292 ], [ -105.22096, 40.03976 ], [ -105.25849, 40.04012 ], [ -105.25848, 40.04361 ], [ -105.27277, 40.04369 ], [ -105.27276, 40.04011 ], [ -105.27425, 40.04014 ], [ -105.27417, 40.03964 ], [ -105.27479, 40.0388 ], [ -105.27482, 40.0377 ], [ -105.27557, 40.03691 ], [ -105.27531, 40.03635 ], [ -105.2762, 40.03636 ], [ -105.27659, 40.03495 ], [ -105.27961, 40.0317 ], [ -105.28013, 40.03134 ], [ -105.28207, 40.03133 ], [ -105.28204, 40.02554 ], [ -105.27262, 40.02552 ], [ -105.27262, 40.02617 ], [ -105.26915, 40.02754 ], [ -105.26914, 40.02722 ], [ -105.2688, 40.02722 ], [ -105.26195, 40.02758 ], [ -105.26041, 40.02709 ], [ -105.25377, 40.0277 ], [ -105.25366, 40.02334 ] ], [ [ -105.2371, 40.02971 ], [ -105.23717, 40.03354 ], [ -105.23948, 40.03353 ], [ -105.23949, 40.03639 ], [ -105.23714, 40.03487 ], [ -105.23577, 40.03498 ], [ -105.23481, 40.03552 ], [ -105.23479, 40.0298 ], [ -105.2371, 40.02971 ] ] ] } },
{ "type": "Feature", "properties": { "area_name": "BC-Creekside", "children_5_10": 61.0, "status": "not modelled", "sends_to": null, "receives_from": null, "capacity": null, "enrolment_2024": null, "utilisation_2024": null, "pupils_2027_no_change": null, "pupils_2027_approved": null, "utilisation_2027_approved": null, "over_capacity_2027": null }, "geometry": { "type": "Polygon", "coordinates": [ [ [ -105.27049, 39.98986 ], [ -105.27152, 39.98928 ], [ -105.27727, 39.98929 ], [ -105.27705, 39.98574 ], [ -105.25528, 39.98597 ], [ -105.25469, 39.98532 ], [ -105.25464, 39.98657 ], [ -105.25397, 39.9869 ], [ -105.25503, 39.98741 ], [ -105.25445, 39.98821 ], [ -105.25633, 39.98927 ], [ -105.26985, 39.98929 ], [ -105.27049, 39.98986 ] ] ] } },
{ "type": "Feature", "properties": { "area_name": "Creekside", "children_5_10": 614.0, "status": "stays open", "sends_to": "", "receives_from": "", "capacity": 484.0, "enrolment_2024": 328.0, "utilisation_2024": 67.8, "pupils_2027_no_change": 304.0, "pupils_2027_approved": 304.0, "utilisation_2027_approved": 62.9, "over_capacity_2027": "no" }, "geometry": { "type": "MultiPolygon", "coordinates": [ [ [ [ -105.26993, 40.01158 ], [ -105.26994, 40.01199 ], [ -105.26746, 40.01199 ], [ -105.26729, 40.01363 ], [ -105.26795, 40.01363 ], [ -105.26805, 40.01461 ], [ -105.27255, 40.01459 ], [ -105.27255, 40.01186 ], [ -105.26993, 40.01158 ] ] ], [ [ [ -105.2319, 39.97145 ], [ -105.2257, 39.98244 ], [ -105.23684, 39.98755 ], [ -105.25827, 40.00019 ], [ -105.2328, 40.00007 ], [ -105.23975, 40.00859 ], [ -105.24037, 40.01021 ], [ -105.24061, 40.01458 ], [ -105.24426, 40.01457 ], [ -105.24446, 40.02459 ], [ -105.2518, 40.02375 ], [ -105.25839, 40.02229 ], [ -105.25873, 40.002 ], [ -105.25841, 40.0003 ], [ -105.27679, 40.00008 ], [ -105.27675, 39.99826 ], [ -105.27757, 39.99832 ], [ -105.27778, 39.99793 ], [ -105.2778, 39.99404 ], [ -105.2775, 39.99405 ], [ -105.27727, 39.98929 ], [ -105.27152, 39.98928 ], [ -105.27055, 39.98991 ], [ -105.26985, 39.98929 ], [ -105.25633, 39.98927 ], [ -105.25445, 39.98821 ], [ -105.25503, 39.98741 ], [ -105.25397, 39.98691 ], [ -105.25464, 39.98657 ], [ -105.25456, 39.98538 ], [ -105.25315, 39.98534 ], [ -105.25205, 39.98437 ], [ -105.24991, 39.98554 ], [ -105.23711, 39.97151 ], [ -105.2319, 39.97145 ] ] ] ] } },
{ "type": "Feature", "properties": { "area_name": "Crest View", "children_5_10": 1033.0, "status": "stays open", "sends_to": "", "receives_from": "", "capacity": 685.0, "enrolment_2024": 390.0, "utilisation_2024": 56.9, "pupils_2027_no_change": 362.0, "pupils_2027_approved": 362.0, "utilisation_2027_approved": 52.8, "over_capacity_2027": "no" }, "geometry": { "type": "Polygon", "coordinates": [ [ [ -105.19734, 40.09456 ], [ -105.20685, 40.09451 ], [ -105.20681, 40.08719 ], [ -105.28208, 40.08724 ], [ -105.28208, 40.07992 ], [ -105.28464, 40.07444 ], [ -105.28384, 40.07072 ], [ -105.28195, 40.06589 ], [ -105.28204, 40.03906 ], [ -105.27631, 40.03911 ], [ -105.2753, 40.04014 ], [ -105.27276, 40.04011 ], [ -105.27271, 40.04369 ], [ -105.25848, 40.04361 ], [ -105.25849, 40.04012 ], [ -105.22096, 40.03976 ], [ -105.20673, 40.04012 ], [ -105.20689, 40.07449 ], [ -105.19741, 40.08263 ], [ -105.19734, 40.09456 ] ] ] } },
{ "type": "Feature", "properties": { "area_name": "Douglass", "children_5_10": 425.0, "status": "closes", "sends_to": "Coal Creek, Eisenhower, Heatherwood", "receives_from": "", "capacity": 491.0, "enrolment_2024": 282.0, "utilisation_2024": 57.4, "pupils_2027_no_change": 262.0, "pupils_2027_approved": null, "utilisation_2027_approved": null, "over_capacity_2027": "" }, "geometry": { "type": "Polygon", "coordinates": [ [ [ -105.13146, 40.08719 ], [ -105.14998, 40.08715 ], [ -105.1501, 40.04362 ], [ -105.16884, 40.04368 ], [ -105.16897, 40.04005 ], [ -105.20673, 40.04012 ], [ -105.22096, 40.03976 ], [ -105.2209, 40.0292 ], [ -105.22536, 40.02916 ], [ -105.22544, 40.02748 ], [ -105.24447, 40.02472 ], [ -105.24426, 40.01457 ], [ -105.21298, 40.01464 ], [ -105.21312, 40.00892 ], [ -105.2124, 40.00719 ], [ -105.2125, 40.00132 ], [ -105.21284, 40.00003 ], [ -105.21269, 39.99638 ], [ -105.21211, 39.99574 ], [ -105.21299, 39.99159 ], [ -105.21285, 39.98609 ], [ -105.20364, 39.97279 ], [ -105.18441, 39.9655 ], [ -105.18442, 39.96811 ], [ -105.18277, 39.96816 ], [ -105.18269, 39.97231 ], [ -105.17532, 39.9723 ], [ -105.17531, 39.97868 ], [ -105.16586, 39.97868 ], [ -105.16607, 39.99048 ], [ -105.16476, 39.99214 ], [ -105.16266, 39.99585 ], [ -105.16163, 40.00012 ], [ -105.13103, 40.00012 ], [ -105.13123, 40.0401 ], [ -105.11226, 40.0401 ], [ -105.11226, 40.07305 ], [ -105.11192, 40.07953 ], [ -105.11223, 40.07986 ], [ -105.11307, 40.07985 ], [ -105.113, 40.08019 ], [ -105.12177, 40.08013 ], [ -105.12183, 40.08369 ], [ -105.1314, 40.08356 ], [ -105.13146, 40.08719 ] ] ] } },
{ "type": "Feature", "properties": { "area_name": "Eisenhower", "children_5_10": 541.0, "status": "takes a closing area", "sends_to": "", "receives_from": "Douglass", "capacity": 613.0, "enrolment_2024": 277.0, "utilisation_2024": 45.2, "pupils_2027_no_change": 257.0, "pupils_2027_approved": 358.0, "utilisation_2027_approved": 58.3, "over_capacity_2027": "no" }, "geometry": { "type": "Polygon", "coordinates": [ [ [ -105.21284, 40.00003 ], [ -105.2125, 40.00132 ], [ -105.2124, 40.00719 ], [ -105.21312, 40.00892 ], [ -105.21298, 40.01464 ], [ -105.24061, 40.01458 ], [ -105.24037, 40.01021 ], [ -105.23975, 40.00859 ], [ -105.2328, 40.00007 ], [ -105.25827, 40.00019 ], [ -105.23684, 39.98755 ], [ -105.22724, 39.98312 ], [ -105.22721, 39.98604 ], [ -105.22085, 39.98582 ], [ -105.21274, 39.98613 ], [ -105.21299, 39.99159 ], [ -105.21211, 39.99574 ], [ -105.21269, 39.99638 ], [ -105.21284, 40.00003 ] ] ] } },
{ "type": "Feature", "properties": { "area_name": "Eldorado (K-5)", "children_5_10": 378.0, "status": "stays open", "sends_to": "", "receives_from": "", "capacity": 470.0, "enrolment_2024": 256.0, "utilisation_2024": 54.5, "pupils_2027_no_change": 237.0, "pupils_2027_approved": 237.0, "utilisation_2027_approved": 50.5, "over_capacity_2027": "no" }, "geometry": { "type": "Polygon", "coordinates": [ [ [ -105.15984, 39.92934 ], [ -105.1622, 39.92872 ], [ -105.2174, 39.92855 ], [ -105.21743, 39.91419 ], [ -105.14694, 39.91423 ], [ -105.14699, 39.92897 ], [ -105.15984, 39.92934 ] ] ] } },
{ "type": "Feature", "properties": { "area_name": "Emerald", "children_5_10": 473.0, "status": "stays open", "sends_to": "", "receives_from": "", "capacity": 454.0, "enrolment_2024": 347.0, "utilisation_2024": 76.4, "pupils_2027_no_change": 322.0, "pupils_2027_approved": 322.0, "utilisation_2027_approved": 70.9, "over_capacity_2027": "no" }, "geometry": { "type": "Polygon", "coordinates": [ [ [ -105.11858, 39.93042 ], [ -105.12249, 39.93267 ], [ -105.13758, 39.93954 ], [ -105.13756, 39.9289 ], [ -105.14707, 39.92884 ], [ -105.14691, 39.91423 ], [ -105.05304, 39.91447 ], [ -105.05304, 39.92516 ], [ -105.06351, 39.92516 ], [ -105.06819, 39.92429 ], [ -105.07112, 39.92507 ], [ -105.07252, 39.92511 ], [ -105.07597, 39.92458 ], [ -105.08223, 39.9228 ], [ -105.08615, 39.92225 ], [ -105.09074, 39.9221 ], [ -105.09076, 39.92866 ], [ -105.11647, 39.92867 ], [ -105.11858, 39.93042 ] ] ] } },
{ "type": "Feature", "properties": { "area_name": "Fireside", "children_5_10": 380.0, "status": "takes a closing area", "sends_to": "", "receives_from": "Monarch", "capacity": 475.0, "enrolment_2024": 398.0, "utilisation_2024": 83.8, "pupils_2027_no_change": 369.0, "pupils_2027_approved": 478.0, "utilisation_2027_approved": 100.7, "over_capacity_2027": "yes" }, "geometry": { "type": "Polygon", "coordinates": [ [ [ -105.14682, 39.97244 ], [ -105.14744, 39.97248 ], [ -105.14744, 39.97294 ], [ -105.14678, 39.97384 ], [ -105.14653, 39.97527 ], [ -105.14685, 39.97626 ], [ -105.14675, 39.97997 ], [ -105.15041, 39.97798 ], [ -105.16189, 39.974 ], [ -105.1643, 39.97248 ], [ -105.1653, 39.97336 ], [ -105.16581, 39.97434 ], [ -105.16583, 39.97868 ], [ -105.17531, 39.97868 ], [ -105.17532, 39.9723 ], [ -105.18269, 39.97231 ], [ -105.18277, 39.96816 ], [ -105.18442, 39.96811 ], [ -105.18452, 39.96526 ], [ -105.16589, 39.95834 ], [ -105.16545, 39.96038 ], [ -105.16347, 39.96294 ], [ -105.16346, 39.96416 ], [ -105.16168, 39.96415 ], [ -105.15929, 39.96506 ], [ -105.1581, 39.96517 ], [ -105.14686, 39.96529 ], [ -105.14682, 39.97244 ] ] ] } },
{ "type": "Feature", "properties": { "area_name": "Flatirons", "children_5_10": 404.0, "status": "closes", "sends_to": "Whittier, Foothill", "receives_from": "", "capacity": 337.0, "enrolment_2024": 163.0, "utilisation_2024": 48.4, "pupils_2027_no_change": 151.0, "pupils_2027_approved": null, "utilisation_2027_approved": null, "over_capacity_2027": "" }, "geometry": { "type": "Polygon", "coordinates": [ [ [ -105.35652, 40.07144 ], [ -105.36274, 40.07776 ], [ -105.38352, 40.07366 ], [ -105.38352, 40.06577 ], [ -105.39231, 40.05745 ], [ -105.40029, 40.04805 ], [ -105.41133, 40.04627 ], [ -105.4152, 40.04596 ], [ -105.46703, 40.04227 ], [ -105.48928, 40.04111 ], [ -105.46983, 40.02119 ], [ -105.44934, 40.02133 ], [ -105.43244, 40.01194 ], [ -105.42575, 40.00889 ], [ -105.40647, 40.00874 ], [ -105.37021, 39.98546 ], [ -105.37017, 39.95617 ], [ -105.35159, 39.94104 ], [ -105.33591, 39.93301 ], [ -105.28226, 39.98579 ], [ -105.27705, 39.98574 ], [ -105.27781, 39.99664 ], [ -105.27771, 39.99816 ], [ -105.27675, 39.99826 ], [ -105.27679, 40.00008 ], [ -105.25842, 40.0003 ], [ -105.25873, 40.002 ], [ -105.25869, 40.00816 ], [ -105.26955, 40.00814 ], [ -105.27208, 40.01053 ], [ -105.27685, 40.01046 ], [ -105.27828, 40.01291 ], [ -105.27902, 40.01503 ], [ -105.28308, 40.01422 ], [ -105.28351, 40.01389 ], [ -105.29033, 40.01348 ], [ -105.29143, 40.01378 ], [ -105.29529, 40.01359 ], [ -105.29529, 40.01413 ], [ -105.29413, 40.0151 ], [ -105.29403, 40.0167 ], [ -105.29361, 40.01693 ], [ -105.29303, 40.01674 ], [ -105.29216, 40.01777 ], [ -105.29215, 40.01955 ], [ -105.29327, 40.02055 ], [ -105.29148, 40.02046 ], [ -105.29154, 40.02459 ], [ -105.29259, 40.02459 ], [ -105.29272, 40.02553 ], [ -105.29613, 40.02541 ], [ -105.30071, 40.02456 ], [ -105.31595, 40.03646 ], [ -105.3376, 40.05765 ], [ -105.34707, 40.05749 ], [ -105.35652, 40.07144 ] ] ] } },
{ "type": "Feature", "properties": { "area_name": "Foothill", "children_5_10": 686.0, "status": "takes a closing area", "sends_to": "", "receives_from": "Flatirons", "capacity": 644.0, "enrolment_2024": 419.0, "utilisation_2024": 65.1, "pupils_2027_no_change": 389.0, "pupils_2027_approved": 491.0, "utilisation_2027_approved": 76.3, "over_capacity_2027": "no" }, "geometry": { "type": "Polygon", "coordinates": [ [ [ -105.2822, 40.10182 ], [ -105.30122, 40.10191 ], [ -105.30119, 40.11417 ], [ -105.30607, 40.10925 ], [ -105.30574, 40.10206 ], [ -105.33467, 40.10198 ], [ -105.33782, 40.09955 ], [ -105.35094, 40.08714 ], [ -105.35678, 40.08721 ], [ -105.36274, 40.07776 ], [ -105.35652, 40.07144 ], [ -105.34707, 40.05749 ], [ -105.3376, 40.05765 ], [ -105.31595, 40.03646 ], [ -105.30071, 40.02456 ], [ -105.29613, 40.02541 ], [ -105.28206, 40.02554 ], [ -105.28207, 40.03133 ], [ -105.28013, 40.03134 ], [ -105.27871, 40.03241 ], [ -105.27659, 40.03495 ], [ -105.2762, 40.03636 ], [ -105.27531, 40.03635 ], [ -105.27557, 40.03691 ], [ -105.27482, 40.0377 ], [ -105.27479, 40.0388 ], [ -105.27417, 40.03964 ], [ -105.27426, 40.04014 ], [ -105.2753, 40.04014 ], [ -105.27631, 40.03911 ], [ -105.28204, 40.03906 ], [ -105.28195, 40.06589 ], [ -105.28384, 40.07072 ], [ -105.28464, 40.07444 ], [ -105.28208, 40.07992 ], [ -105.28188, 40.08735 ], [ -105.2822, 40.10182 ] ] ] } },
{ "type": "Feature", "properties": { "area_name": "Gold Hill", "children_5_10": 8.0, "status": "mountain school", "sends_to": "", "receives_from": "", "capacity": 37.0, "enrolment_2024": 10.0, "utilisation_2024": 27.0, "pupils_2027_no_change": 9.0, "pupils_2027_approved": 9.0, "utilisation_2027_approved": 25.1, "over_capacity_2027": "no" }, "geometry": { "type": "Polygon", "coordinates": [ [ [ -105.48917, 40.04112 ], [ -105.46703, 40.04227 ], [ -105.4152, 40.04596 ], [ -105.41133, 40.04627 ], [ -105.40029, 40.04805 ], [ -105.39231, 40.05745 ], [ -105.38352, 40.06577 ], [ -105.38352, 40.07366 ], [ -105.41106, 40.07052 ], [ -105.42989, 40.06791 ], [ -105.44736, 40.06442 ], [ -105.46683, 40.05948 ], [ -105.49136, 40.05484 ], [ -105.49922, 40.05136 ], [ -105.48917, 40.04112 ] ] ] } },
{ "type": "Feature", "properties": { "area_name": "Heatherwood", "children_5_10": 437.0, "status": "takes a closing area", "sends_to": "", "receives_from": "Douglass", "capacity": 552.0, "enrolment_2024": 234.0, "utilisation_2024": 42.4, "pupils_2027_no_change": 217.0, "pupils_2027_approved": 312.0, "utilisation_2027_approved": 56.5, "over_capacity_2027": "no" }, "geometry": { "type": "Polygon", "coordinates": [ [ [ -105.19785, 40.07372 ], [ -105.19738, 40.0745 ], [ -105.19801, 40.07481 ], [ -105.19719, 40.07611 ], [ -105.19746, 40.07625 ], [ -105.19741, 40.08263 ], [ -105.20689, 40.07449 ], [ -105.20673, 40.04012 ], [ -105.16897, 40.04005 ], [ -105.16886, 40.04367 ], [ -105.1501, 40.04362 ], [ -105.15018, 40.07273 ], [ -105.19786, 40.07281 ], [ -105.19785, 40.07372 ] ] ] } },
{ "type": "Feature", "properties": { "area_name": "Jamestown", "children_5_10": 26.0, "status": "mountain school", "sends_to": "", "receives_from": "", "capacity": 19.0, "enrolment_2024": 17.0, "utilisation_2024": 89.5, "pupils_2027_no_change": 16.0, "pupils_2027_approved": 16.0, "utilisation_2027_approved": 83.0, "over_capacity_2027": "no" }, "geometry": { "type": "Polygon", "coordinates": [ [ [ -105.35675, 40.14515 ], [ -105.37491, 40.14507 ], [ -105.39232, 40.14345 ], [ -105.40613, 40.1431 ], [ -105.41083, 40.13197 ], [ -105.41334, 40.12702 ], [ -105.42865, 40.10101 ], [ -105.43569, 40.08714 ], [ -105.44805, 40.08223 ], [ -105.46714, 40.07301 ], [ -105.47608, 40.07114 ], [ -105.49464, 40.06537 ], [ -105.51298, 40.06577 ], [ -105.50399, 40.05707 ], [ -105.49922, 40.05136 ], [ -105.49136, 40.05484 ], [ -105.46683, 40.05948 ], [ -105.44736, 40.06442 ], [ -105.42989, 40.06791 ], [ -105.41106, 40.07052 ], [ -105.38352, 40.07366 ], [ -105.36276, 40.07772 ], [ -105.35678, 40.08721 ], [ -105.35094, 40.08714 ], [ -105.33782, 40.09955 ], [ -105.33467, 40.10198 ], [ -105.3286, 40.10199 ], [ -105.32856, 40.12381 ], [ -105.3567, 40.12355 ], [ -105.35675, 40.14515 ] ] ] } },
{ "type": "Feature", "properties": { "area_name": "Kohl", "children_5_10": 323.0, "status": "takes a closing area", "sends_to": "", "receives_from": "Birch", "capacity": 521.0, "enrolment_2024": 254.0, "utilisation_2024": 48.8, "pupils_2027_no_change": 236.0, "pupils_2027_approved": 492.0, "utilisation_2027_approved": 94.5, "over_capacity_2027": "no" }, "geometry": { "type": "Polygon", "coordinates": [ [ [ -105.08223, 39.9228 ], [ -105.07597, 39.92458 ], [ -105.07186, 39.92512 ], [ -105.07191, 39.94322 ], [ -105.09066, 39.94329 ], [ -105.09074, 39.9221 ], [ -105.08223, 39.9228 ] ] ] } },
{ "type": "Feature", "properties": { "area_name": "Meadowlark", "children_5_10": 680.0, "status": "not modelled", "sends_to": null, "receives_from": null, "capacity": null, "enrolment_2024": null, "utilisation_2024": null, "pupils_2027_no_change": null, "pupils_2027_approved": null, "utilisation_2027_approved": null, "over_capacity_2027": null }, "geometry": { "type": "Polygon", "coordinates": [ [ [ -105.10282, 40.01474 ], [ -105.05533, 40.01478 ], [ -105.0555, 40.02951 ], [ -105.07453, 40.02969 ], [ -105.07453, 40.04429 ], [ -105.09324, 40.04389 ], [ -105.09319, 40.04875 ], [ -105.09373, 40.0494 ], [ -105.09333, 40.04964 ], [ -105.09395, 40.05023 ], [ -105.0932, 40.05031 ], [ -105.09343, 40.05136 ], [ -105.09114, 40.05162 ], [ -105.09082, 40.06582 ], [ -105.07447, 40.06611 ], [ -105.0744, 40.07924 ], [ -105.07981, 40.07925 ], [ -105.07981, 40.08036 ], [ -105.11191, 40.07987 ], [ -105.11226, 40.07305 ], [ -105.11226, 40.04014 ], [ -105.10276, 40.04005 ], [ -105.10311, 40.03491 ], [ -105.10266, 40.02844 ], [ -105.10293, 40.01951 ], [ -105.10282, 40.01474 ] ] ] } },
{ "type": "Feature", "properties": { "area_name": "Louisville", "children_5_10": 723.0, "status": "stays open", "sends_to": "", "receives_from": "", "capacity": 572.0, "enrolment_2024": 417.0, "utilisation_2024": 72.9, "pupils_2027_no_change": 387.0, "pupils_2027_approved": 387.0, "utilisation_2027_approved": 67.6, "over_capacity_2027": "no" }, "geometry": { "type": "Polygon", "coordinates": [ [ [ -105.14212, 40.00016 ], [ -105.13253, 39.98823 ], [ -105.13213, 39.987 ], [ -105.14676, 39.98702 ], [ -105.14685, 39.97626 ], [ -105.14653, 39.97527 ], [ -105.14678, 39.97384 ], [ -105.14744, 39.97294 ], [ -105.14744, 39.97248 ], [ -105.14682, 39.97247 ], [ -105.14687, 39.96522 ], [ -105.12583, 39.96512 ], [ -105.12729, 39.96881 ], [ -105.12847, 39.97036 ], [ -105.12891, 39.97254 ], [ -105.1142, 39.97254 ], [ -105.11405, 39.98327 ], [ -105.1174, 39.98325 ], [ -105.11737, 39.9869 ], [ -105.11857, 39.98689 ], [ -105.11853, 39.99241 ], [ -105.12236, 39.99243 ], [ -105.12239, 39.99415 ], [ -105.12477, 39.99418 ], [ -105.12477, 39.9975 ], [ -105.12792, 39.99751 ], [ -105.12794, 39.99417 ], [ -105.13715, 39.99417 ], [ -105.13729, 39.99863 ], [ -105.13614, 39.99819 ], [ -105.13437, 39.99941 ], [ -105.13386, 40.00015 ], [ -105.14212, 40.00016 ] ] ] } },
{ "type": "Feature", "properties": { "area_name": "Monarch (K-5)", "children_5_10": 347.0, "status": "elementary programme closes", "sends_to": "Fireside, Superior", "receives_from": "", "capacity": 423.0, "enrolment_2024": 266.0, "utilisation_2024": 62.9, "pupils_2027_no_change": 247.0, "pupils_2027_approved": null, "utilisation_2027_approved": null, "over_capacity_2027": "" }, "geometry": { "type": "Polygon", "coordinates": [ [ [ -105.12891, 39.97254 ], [ -105.12847, 39.97036 ], [ -105.12729, 39.96881 ], [ -105.12583, 39.96512 ], [ -105.15651, 39.96525 ], [ -105.15929, 39.96506 ], [ -105.16168, 39.96415 ], [ -105.16346, 39.96416 ], [ -105.16347, 39.96294 ], [ -105.16545, 39.96038 ], [ -105.16589, 39.95834 ], [ -105.17497, 39.96155 ], [ -105.18452, 39.96526 ], [ -105.18441, 39.9655 ], [ -105.19404, 39.96901 ], [ -105.19409, 39.95752 ], [ -105.20347, 39.95722 ], [ -105.2035, 39.9432 ], [ -105.16314, 39.94316 ], [ -105.16385, 39.94494 ], [ -105.16414, 39.94689 ], [ -105.14906, 39.94703 ], [ -105.14703, 39.9457 ], [ -105.14716, 39.93991 ], [ -105.14686, 39.93934 ], [ -105.14501, 39.93928 ], [ -105.14502, 39.93728 ], [ -105.14658, 39.93659 ], [ -105.14555, 39.93447 ], [ -105.14556, 39.93335 ], [ -105.1472, 39.93031 ], [ -105.14729, 39.92895 ], [ -105.13756, 39.9289 ], [ -105.13758, 39.93954 ], [ -105.12807, 39.93525 ], [ -105.12767, 39.94529 ], [ -105.12735, 39.94668 ], [ -105.12646, 39.94803 ], [ -105.12489, 39.94945 ], [ -105.11736, 39.95395 ], [ -105.10946, 39.95655 ], [ -105.10937, 39.97245 ], [ -105.12891, 39.97254 ] ] ] } },
{ "type": "Feature", "properties": { "area_name": "Nederland", "children_5_10": 249.0, "status": "mountain school", "sends_to": "", "receives_from": "", "capacity": 405.0, "enrolment_2024": 172.0, "utilisation_2024": 42.5, "pupils_2027_no_change": 160.0, "pupils_2027_approved": 160.0, "utilisation_2027_approved": 39.4, "over_capacity_2027": "no" }, "geometry": { "type": "Polygon", "coordinates": [ [ [ -105.42054, 40.14366 ], [ -105.44571, 40.14417 ], [ -105.44635, 40.12986 ], [ -105.44699, 40.12712 ], [ -105.47678, 40.12594 ], [ -105.49527, 40.12616 ], [ -105.50416, 40.12684 ], [ -105.52311, 40.12678 ], [ -105.6282, 40.12517 ], [ -105.6287, 40.12367 ], [ -105.62748, 40.12195 ], [ -105.6282, 40.12101 ], [ -105.62815, 40.12055 ], [ -105.62651, 40.11878 ], [ -105.62755, 40.11856 ], [ -105.6291, 40.11702 ], [ -105.6299, 40.11554 ], [ -105.62988, 40.11432 ], [ -105.63025, 40.11406 ], [ -105.63172, 40.11362 ], [ -105.63452, 40.1135 ], [ -105.63491, 40.11301 ], [ -105.63599, 40.1094 ], [ -105.63563, 40.10855 ], [ -105.63663, 40.10735 ], [ -105.63608, 40.10483 ], [ -105.63651, 40.10254 ], [ -105.63595, 40.10117 ], [ -105.6319, 40.09725 ], [ -105.63238, 40.0961 ], [ -105.63342, 40.09559 ], [ -105.63465, 40.09548 ], [ -105.63453, 40.09115 ], [ -105.63361, 40.08871 ], [ -105.63396, 40.08809 ], [ -105.63532, 40.08732 ], [ -105.6354, 40.08672 ], [ -105.63484, 40.08526 ], [ -105.63603, 40.08484 ], [ -105.63559, 40.08302 ], [ -105.63424, 40.08171 ], [ -105.63254, 40.08159 ], [ -105.63378, 40.08102 ], [ -105.63473, 40.07973 ], [ -105.63469, 40.07719 ], [ -105.63531, 40.07518 ], [ -105.63874, 40.0744 ], [ -105.63912, 40.07352 ], [ -105.6411, 40.0731 ], [ -105.64079, 40.07022 ], [ -105.63896, 40.06725 ], [ -105.64164, 40.06793 ], [ -105.64646, 40.06561 ], [ -105.64747, 40.06454 ], [ -105.64945, 40.06019 ], [ -105.65098, 40.05849 ], [ -105.65073, 40.0576 ], [ -105.64927, 40.05585 ], [ -105.64868, 40.05444 ], [ -105.6459, 40.05336 ], [ -105.6452, 40.05092 ], [ -105.64316, 40.04954 ], [ -105.6425, 40.04839 ], [ -105.63911, 40.04707 ], [ -105.63743, 40.04583 ], [ -105.63752, 40.04505 ], [ -105.63851, 40.04414 ], [ -105.63841, 40.04271 ], [ -105.63899, 40.04207 ], [ -105.63888, 40.03985 ], [ -105.6406, 40.03665 ], [ -105.64079, 40.03427 ], [ -105.64517, 40.03256 ], [ -105.64975, 40.02798 ], [ -105.6502, 40.0268 ], [ -105.65132, 40.02618 ], [ -105.65249, 40.0243 ], [ -105.65281, 40.02224 ], [ -105.65191, 40.02112 ], [ -105.65907, 40.0191 ], [ -105.66007, 40.01849 ], [ -105.66053, 40.01756 ], [ -105.66154, 40.01666 ], [ -105.66717, 40.01642 ], [ -105.66994, 40.01693 ], [ -105.67516, 40.01612 ], [ -105.67783, 40.01463 ], [ -105.68035, 40.01414 ], [ -105.68261, 40.01416 ], [ -105.68556, 40.01473 ], [ -105.68744, 40.01562 ], [ -105.68873, 40.01507 ], [ -105.68951, 40.01402 ], [ -105.68963, 40.01198 ], [ -105.68928, 40.01091 ], [ -105.68971, 40.00876 ], [ -105.68822, 40.00707 ], [ -105.68933, 40.00618 ], [ -105.69091, 40.00363 ], [ -105.69034, 40.00287 ], [ -105.69015, 40.00156 ], [ -105.69107, 39.99983 ], [ -105.69138, 39.99817 ], [ -105.69118, 39.99748 ], [ -105.69064, 39.99654 ], [ -105.68912, 39.99572 ], [ -105.6874, 39.99517 ], [ -105.68291, 39.99477 ], [ -105.68283, 39.99335 ], [ -105.684, 39.99166 ], [ -105.68611, 39.98976 ], [ -105.68624, 39.98724 ], [ -105.68742, 39.98565 ], [ -105.68519, 39.98333 ], [ -105.68552, 39.98081 ], [ -105.68502, 39.97965 ], [ -105.68617, 39.97869 ], [ -105.68851, 39.97558 ], [ -105.69041, 39.96999 ], [ -105.68879, 39.96755 ], [ -105.6887, 39.96701 ], [ -105.6894, 39.96484 ], [ -105.68928, 39.96398 ], [ -105.68853, 39.96305 ], [ -105.68843, 39.96005 ], [ -105.68523, 39.95899 ], [ -105.6886, 39.95666 ], [ -105.68899, 39.95413 ], [ -105.6917, 39.95301 ], [ -105.69364, 39.95159 ], [ -105.69434, 39.9506 ], [ -105.69446, 39.9499 ], [ -105.69408, 39.94905 ], [ -105.69359, 39.94855 ], [ -105.69302, 39.94847 ], [ -105.69188, 39.94666 ], [ -105.69351, 39.94443 ], [ -105.69393, 39.94261 ], [ -105.69332, 39.9416 ], [ -105.69075, 39.94021 ], [ -105.6901, 39.93914 ], [ -105.68647, 39.9376 ], [ -105.68305, 39.9341 ], [ -105.67948, 39.93324 ], [ -105.67517, 39.93339 ], [ -105.67833, 39.92997 ], [ -105.67691, 39.92888 ], [ -105.6801, 39.92724 ], [ -105.68115, 39.92369 ], [ -105.68256, 39.92206 ], [ -105.68326, 39.91797 ], [ -105.68608, 39.91633 ], [ -105.68643, 39.9136 ], [ -105.6889, 39.91223 ], [ -105.6889, 39.90924 ], [ -105.68817, 39.90433 ], [ -105.69065, 39.90242 ], [ -105.69135, 39.89942 ], [ -105.6924, 39.89751 ], [ -105.6977, 39.89505 ], [ -105.70017, 39.89123 ], [ -105.6998, 39.88551 ], [ -105.69802, 39.88442 ], [ -105.69872, 39.88142 ], [ -105.70084, 39.87897 ], [ -105.53777, 39.8824 ], [ -105.5374, 39.85352 ], [ -105.39808, 39.85457 ], [ -105.39853, 39.91321 ], [ -105.32394, 39.91401 ], [ -105.3242, 39.92846 ], [ -105.33591, 39.93301 ], [ -105.35159, 39.94104 ], [ -105.37017, 39.95617 ], [ -105.37021, 39.98546 ], [ -105.40647, 40.00874 ], [ -105.42575, 40.00889 ], [ -105.43244, 40.01194 ], [ -105.44934, 40.02133 ], [ -105.46983, 40.02119 ], [ -105.49381, 40.04559 ], [ -105.49909, 40.05121 ], [ -105.50399, 40.05707 ], [ -105.51298, 40.06577 ], [ -105.49464, 40.06536 ], [ -105.47608, 40.07114 ], [ -105.46714, 40.07301 ], [ -105.44805, 40.08223 ], [ -105.43569, 40.08714 ], [ -105.42865, 40.10101 ], [ -105.41334, 40.12702 ], [ -105.41083, 40.13197 ], [ -105.40613, 40.1431 ], [ -105.41073, 40.14302 ], [ -105.42054, 40.14366 ] ] ] } },
{ "type": "Feature", "properties": { "area_name": "Ryan", "children_5_10": 783.0, "status": "stays open", "sends_to": "", "receives_from": "", "capacity": 512.0, "enrolment_2024": 411.0, "utilisation_2024": 80.3, "pupils_2027_no_change": 381.0, "pupils_2027_approved": 381.0, "utilisation_2027_approved": 74.5, "over_capacity_2027": "no" }, "geometry": { "type": "Polygon", "coordinates": [ [ [ -105.11855, 39.99065 ], [ -105.11857, 39.98689 ], [ -105.11737, 39.9869 ], [ -105.1174, 39.98325 ], [ -105.11405, 39.98327 ], [ -105.1142, 39.97254 ], [ -105.10937, 39.97245 ], [ -105.10939, 39.95657 ], [ -105.10338, 39.9581 ], [ -105.08775, 39.95894 ], [ -105.08414, 39.95952 ], [ -105.08148, 39.96034 ], [ -105.07691, 39.9628 ], [ -105.06741, 39.97085 ], [ -105.05301, 39.97715 ], [ -105.05301, 39.98713 ], [ -105.0618, 39.98661 ], [ -105.09047, 39.98692 ], [ -105.09048, 39.99026 ], [ -105.11855, 39.99065 ] ] ] } },
{ "type": "Feature", "properties": { "area_name": "Sanchez", "children_5_10": 663.0, "status": "stays open", "sends_to": "", "receives_from": "", "capacity": 301.0, "enrolment_2024": 290.0, "utilisation_2024": 96.3, "pupils_2027_no_change": 269.0, "pupils_2027_approved": 269.0, "utilisation_2027_approved": 89.4, "over_capacity_2027": "no" }, "geometry": { "type": "Polygon", "coordinates": [ [ [ -105.10282, 40.01474 ], [ -105.10282, 40.00023 ], [ -105.0905, 40.00024 ], [ -105.09047, 39.98692 ], [ -105.0618, 39.98661 ], [ -105.05301, 39.98713 ], [ -105.053, 40.00048 ], [ -105.05516, 40.00045 ], [ -105.05533, 40.01478 ], [ -105.10282, 40.01474 ] ] ] } },
{ "type": "Feature", "properties": { "area_name": "Superior", "children_5_10": 506.0, "status": "takes a closing area", "sends_to": "", "receives_from": "Monarch", "capacity": 521.0, "enrolment_2024": 418.0, "utilisation_2024": 80.2, "pupils_2027_no_change": 388.0, "pupils_2027_approved": 525.0, "utilisation_2027_approved": 100.8, "over_capacity_2027": "yes" }, "geometry": { "type": "Polygon", "coordinates": [ [ [ -105.14703, 39.9457 ], [ -105.14906, 39.94703 ], [ -105.16414, 39.94689 ], [ -105.16385, 39.94494 ], [ -105.16314, 39.94316 ], [ -105.2035, 39.9432 ], [ -105.20347, 39.93597 ], [ -105.21753, 39.936 ], [ -105.2175, 39.92859 ], [ -105.1622, 39.92872 ], [ -105.15984, 39.92934 ], [ -105.14729, 39.92895 ], [ -105.1472, 39.93031 ], [ -105.14556, 39.93335 ], [ -105.14555, 39.93447 ], [ -105.14658, 39.93659 ], [ -105.14502, 39.93728 ], [ -105.14501, 39.93928 ], [ -105.14686, 39.93934 ], [ -105.14716, 39.93991 ], [ -105.14703, 39.9457 ] ] ] } },
{ "type": "Feature", "properties": { "area_name": "Whittier", "children_5_10": 447.0, "status": "takes a closing area", "sends_to": "", "receives_from": "Flatirons", "capacity": 371.0, "enrolment_2024": 269.0, "utilisation_2024": 72.5, "pupils_2027_no_change": 249.0, "pupils_2027_approved": 298.0, "utilisation_2027_approved": 80.4, "over_capacity_2027": "no" }, "geometry": { "type": "MultiPolygon", "coordinates": [ [ [ [ -105.23479, 40.0298 ], [ -105.23481, 40.03552 ], [ -105.23577, 40.03498 ], [ -105.23714, 40.03487 ], [ -105.23949, 40.03639 ], [ -105.23948, 40.03353 ], [ -105.23717, 40.03354 ], [ -105.2371, 40.02971 ], [ -105.23479, 40.0298 ] ] ], [ [ [ -105.22393, 40.02918 ], [ -105.22413, 40.02998 ], [ -105.22325, 40.03193 ], [ -105.2227, 40.03234 ], [ -105.22269, 40.03423 ], [ -105.22235, 40.03435 ], [ -105.22262, 40.03462 ], [ -105.22594, 40.03346 ], [ -105.22599, 40.02928 ], [ -105.22393, 40.02918 ] ] ], [ [ [ -105.25869, 40.00816 ], [ -105.25839, 40.02229 ], [ -105.25365, 40.02334 ], [ -105.25377, 40.0277 ], [ -105.26041, 40.02709 ], [ -105.26195, 40.02758 ], [ -105.26881, 40.02722 ], [ -105.26946, 40.02752 ], [ -105.27262, 40.02617 ], [ -105.27262, 40.02552 ], [ -105.29263, 40.02554 ], [ -105.29259, 40.02459 ], [ -105.29154, 40.02459 ], [ -105.29148, 40.02046 ], [ -105.29327, 40.02055 ], [ -105.29215, 40.01955 ], [ -105.29216, 40.01777 ], [ -105.29303, 40.01674 ], [ -105.29361, 40.01693 ], [ -105.29406, 40.01669 ], [ -105.29413, 40.0151 ], [ -105.29529, 40.01413 ], [ -105.29529, 40.01359 ], [ -105.29143, 40.01378 ], [ -105.29035, 40.01347 ], [ -105.28351, 40.01389 ], [ -105.28305, 40.01424 ], [ -105.27902, 40.01503 ], [ -105.27828, 40.01291 ], [ -105.27685, 40.01046 ], [ -105.27208, 40.01053 ], [ -105.26955, 40.00814 ], [ -105.25869, 40.00816 ] ] ], [ [ [ -105.27255, 40.01186 ], [ -105.26993, 40.01158 ], [ -105.26994, 40.01199 ], [ -105.26746, 40.01199 ], [ -105.26729, 40.0136 ], [ -105.26795, 40.01363 ], [ -105.26805, 40.01461 ], [ -105.27255, 40.01459 ], [ -105.27255, 40.01186 ] ] ] ] } },
{ "type": "Feature", "properties": { "area_name": "Mesa", "children_5_10": 301.0, "status": "closes", "sends_to": "Bear Creek", "receives_from": "", "capacity": 485.0, "enrolment_2024": 230.0, "utilisation_2024": 47.4, "pupils_2027_no_change": 213.0, "pupils_2027_approved": null, "utilisation_2027_approved": null, "over_capacity_2027": "" }, "geometry": { "type": "Polygon", "coordinates": [ [ [ -105.26733, 39.98571 ], [ -105.28226, 39.98579 ], [ -105.33591, 39.93301 ], [ -105.3242, 39.92846 ], [ -105.32394, 39.91401 ], [ -105.21743, 39.91419 ], [ -105.21753, 39.936 ], [ -105.20347, 39.93597 ], [ -105.20347, 39.95722 ], [ -105.19409, 39.95752 ], [ -105.19404, 39.96901 ], [ -105.20364, 39.97279 ], [ -105.21285, 39.98609 ], [ -105.22085, 39.98582 ], [ -105.22721, 39.98604 ], [ -105.22724, 39.98312 ], [ -105.2257, 39.98244 ], [ -105.23169, 39.97145 ], [ -105.23711, 39.97151 ], [ -105.23695, 39.97062 ], [ -105.24631, 39.97059 ], [ -105.24669, 39.97089 ], [ -105.24703, 39.9703 ], [ -105.24773, 39.97052 ], [ -105.24909, 39.97012 ], [ -105.25221, 39.97122 ], [ -105.2519, 39.97273 ], [ -105.24973, 39.97477 ], [ -105.25037, 39.97507 ], [ -105.26555, 39.9749 ], [ -105.26582, 39.9752 ], [ -105.26737, 39.97511 ], [ -105.26733, 39.98571 ] ] ] } },
{ "type": "Feature", "properties": { "area_name": "Lafayette", "children_5_10": 808.0, "status": "stays open", "sends_to": "", "receives_from": "", "capacity": 623.0, "enrolment_2024": 465.0, "utilisation_2024": 74.6, "pupils_2027_no_change": 431.0, "pupils_2027_approved": 431.0, "utilisation_2027_approved": 69.2, "over_capacity_2027": "no" }, "geometry": { "type": "Polygon", "coordinates": [ [ [ -105.13123, 40.0401 ], [ -105.13103, 40.00013 ], [ -105.13387, 40.00014 ], [ -105.13437, 39.99941 ], [ -105.13614, 39.99819 ], [ -105.13729, 39.99863 ], [ -105.13733, 39.99441 ], [ -105.13715, 39.99417 ], [ -105.12794, 39.99417 ], [ -105.12792, 39.99751 ], [ -105.12477, 39.9975 ], [ -105.12477, 39.99418 ], [ -105.12239, 39.99415 ], [ -105.12236, 39.99243 ], [ -105.11853, 39.99241 ], [ -105.11855, 39.99065 ], [ -105.09048, 39.99026 ], [ -105.0905, 40.00024 ], [ -105.10282, 40.00023 ], [ -105.10293, 40.01951 ], [ -105.10266, 40.02844 ], [ -105.10311, 40.03491 ], [ -105.10276, 40.04005 ], [ -105.13123, 40.0401 ] ] ] } }
]
}
