{
"type": "FeatureCollection",
"name": "dw-14-tract-change",
"xy_coordinate_resolution": 1e-05,
"features": [
{ "type": "Feature", "properties": { "tract2000": "08013012907", "children_2000": 608, "children_2020": 577.0, "change": -31.0, "pct_change": -5.1, "people_per_sq_mi_2000": 1105.0 }, "geometry": { "type": "Polygon", "coordinates": [ [ [ -105.05543, 40.00025 ], [ -105.05545, 40.01477 ], [ -105.09707, 40.01465 ], [ -105.10028, 40.01529 ], [ -105.10292, 40.015 ], [ -105.10282, 40.00021 ], [ -105.05543, 40.00025 ] ] ] } },
{ "type": "Feature", "properties": { "tract2000": "08013012906", "children_2000": 663, "children_2020": 884.0, "change": 221.0, "pct_change": 33.3, "people_per_sq_mi_2000": 1387.0 }, "geometry": { "type": "Polygon", "coordinates": [ [ [ -105.09401, 39.958 ], [ -105.09037, 39.95803 ], [ -105.09025, 39.95778 ], [ -105.0901, 39.97474 ], [ -105.09057, 39.97608 ], [ -105.09014, 39.97602 ], [ -105.09084, 39.97895 ], [ -105.09051, 39.97943 ], [ -105.09053, 39.98697 ], [ -105.1279, 39.98695 ], [ -105.12782, 39.97255 ], [ -105.12398, 39.97242 ], [ -105.12401, 39.97164 ], [ -105.12376, 39.97154 ], [ -105.12299, 39.97216 ], [ -105.12221, 39.972 ], [ -105.12252, 39.97256 ], [ -105.10926, 39.97241 ], [ -105.10933, 39.9579 ], [ -105.10703, 39.95793 ], [ -105.09827, 39.9591 ], [ -105.09401, 39.958 ] ] ] } },
{ "type": "Feature", "properties": { "tract2000": "08013012509", "children_2000": 527, "children_2020": 682.0, "change": 155.0, "pct_change": 29.4, "people_per_sq_mi_2000": 4625.0 }, "geometry": { "type": "Polygon", "coordinates": [ [ [ -105.24134, 39.97259 ], [ -105.24127, 39.97507 ], [ -105.24087, 39.97563 ], [ -105.24983, 39.98559 ], [ -105.25338, 39.98368 ], [ -105.25574, 39.98113 ], [ -105.26013, 39.97989 ], [ -105.26011, 39.97184 ], [ -105.25533, 39.97184 ], [ -105.25389, 39.97294 ], [ -105.25252, 39.97299 ], [ -105.2519, 39.9727 ], [ -105.25222, 39.97212 ], [ -105.25207, 39.97105 ], [ -105.24926, 39.97013 ], [ -105.24787, 39.97047 ], [ -105.24702, 39.9703 ], [ -105.24596, 39.97137 ], [ -105.24246, 39.97156 ], [ -105.2418, 39.97188 ], [ -105.24134, 39.97259 ] ] ] } },
{ "type": "Feature", "properties": { "tract2000": "08013012507", "children_2000": 367, "children_2020": 385.0, "change": 18.0, "pct_change": 4.9, "people_per_sq_mi_2000": 6792.0 }, "geometry": { "type": "Polygon", "coordinates": [ [ [ -105.23706, 39.98587 ], [ -105.23457, 39.9866 ], [ -105.25623, 39.99891 ], [ -105.25783, 40.00033 ], [ -105.26059, 40.00044 ], [ -105.26357, 40.00014 ], [ -105.2562, 39.98978 ], [ -105.25484, 39.98878 ], [ -105.25143, 39.98711 ], [ -105.24983, 39.98559 ], [ -105.23706, 39.98587 ] ] ] } },
{ "type": "Feature", "properties": { "tract2000": "08013012505", "children_2000": 518, "children_2020": 704.0, "change": 186.0, "pct_change": 35.9, "people_per_sq_mi_2000": 687.0 }, "geometry": { "type": "Polygon", "coordinates": [ [ [ -105.32714, 39.9815 ], [ -105.3232, 39.97999 ], [ -105.31911, 39.97973 ], [ -105.31742, 39.97905 ], [ -105.31483, 39.97713 ], [ -105.31015, 39.97646 ], [ -105.30842, 39.97536 ], [ -105.30741, 39.97243 ], [ -105.30627, 39.97227 ], [ -105.30533, 39.97267 ], [ -105.30531, 39.97153 ], [ -105.3037, 39.97085 ], [ -105.30314, 39.97005 ], [ -105.30074, 39.96996 ], [ -105.29846, 39.96902 ], [ -105.29368, 39.97014 ], [ -105.29085, 39.97155 ], [ -105.28927, 39.97159 ], [ -105.28439, 39.97261 ], [ -105.28155, 39.97502 ], [ -105.27921, 39.97506 ], [ -105.27663, 39.97451 ], [ -105.27393, 39.97301 ], [ -105.27278, 39.97269 ], [ -105.27154, 39.97324 ], [ -105.26978, 39.97312 ], [ -105.26683, 39.97494 ], [ -105.26547, 39.97709 ], [ -105.26226, 39.97936 ], [ -105.25588, 39.98105 ], [ -105.25338, 39.98368 ], [ -105.24983, 39.98559 ], [ -105.25143, 39.98711 ], [ -105.25484, 39.98878 ], [ -105.2562, 39.98978 ], [ -105.26357, 40.00014 ], [ -105.28766, 40.00006 ], [ -105.29052, 39.9992 ], [ -105.29076, 39.99942 ], [ -105.29044, 40.0008 ], [ -105.29228, 40.0029 ], [ -105.2922, 40.00426 ], [ -105.29314, 40.00467 ], [ -105.29302, 40.0061 ], [ -105.29406, 40.00695 ], [ -105.29461, 40.00662 ], [ -105.29501, 40.005 ], [ -105.29564, 40.0044 ], [ -105.29548, 40.00387 ], [ -105.29412, 40.00312 ], [ -105.29402, 40.00199 ], [ -105.29462, 40.00109 ], [ -105.29487, 40.00113 ], [ -105.29448, 40.00182 ], [ -105.29597, 40.00221 ], [ -105.2951, 40.00279 ], [ -105.29542, 40.00292 ], [ -105.29636, 40.0023 ], [ -105.29571, 40.00118 ], [ -105.29659, 40.00182 ], [ -105.29794, 40.00185 ], [ -105.29877, 40.00061 ], [ -105.30002, 39.99972 ], [ -105.29925, 40.00079 ], [ -105.29929, 40.00236 ], [ -105.29856, 40.00296 ], [ -105.29872, 40.00315 ], [ -105.29981, 40.00234 ], [ -105.29982, 40.00141 ], [ -105.30042, 40.00087 ], [ -105.30208, 40.00066 ], [ -105.30267, 40.0002 ], [ -105.30418, 39.99983 ], [ -105.30706, 39.99791 ], [ -105.30827, 39.99765 ], [ -105.31121, 39.99608 ], [ -105.31146, 39.99554 ], [ -105.31033, 39.99506 ], [ -105.30997, 39.9939 ], [ -105.31264, 39.99258 ], [ -105.31445, 39.99233 ], [ -105.31575, 39.99124 ], [ -105.31626, 39.99182 ], [ -105.31966, 39.9907 ], [ -105.32018, 39.98842 ], [ -105.31994, 39.98644 ], [ -105.32172, 39.98533 ], [ -105.32218, 39.98467 ], [ -105.32138, 39.98491 ], [ -105.3223, 39.98379 ], [ -105.32714, 39.9815 ] ], [ [ -105.29479, 40.00102 ], [ -105.29539, 40.00012 ], [ -105.29569, 40.00072 ], [ -105.29479, 40.00102 ] ] ] } },
{ "type": "Feature", "properties": { "tract2000": "08013012101", "children_2000": 672, "children_2020": 821.0, "change": 149.0, "pct_change": 22.2, "people_per_sq_mi_2000": 4294.0 }, "geometry": { "type": "Polygon", "coordinates": [ [ [ -105.29403, 40.04104 ], [ -105.29657, 40.04267 ], [ -105.29583, 40.04082 ], [ -105.29657, 40.03565 ], [ -105.29656, 40.0329 ], [ -105.29378, 40.02928 ], [ -105.29595, 40.02539 ], [ -105.296, 40.02305 ], [ -105.29673, 40.02154 ], [ -105.29529, 40.02123 ], [ -105.29452, 40.02067 ], [ -105.29617, 40.02033 ], [ -105.29529, 40.01931 ], [ -105.29519, 40.01809 ], [ -105.29406, 40.01708 ], [ -105.29393, 40.01489 ], [ -105.29045, 40.01576 ], [ -105.29083, 40.01672 ], [ -105.28863, 40.01692 ], [ -105.28803, 40.01733 ], [ -105.28408, 40.01812 ], [ -105.2849, 40.02038 ], [ -105.28486, 40.02177 ], [ -105.2856, 40.02297 ], [ -105.28567, 40.02592 ], [ -105.28556, 40.02672 ], [ -105.28209, 40.02674 ], [ -105.28206, 40.03909 ], [ -105.28208, 40.04092 ], [ -105.29403, 40.04104 ] ] ] } },
{ "type": "Feature", "properties": { "tract2000": "08013012206", "children_2000": 321, "children_2020": 315.0, "change": -6.0, "pct_change": -1.9, "people_per_sq_mi_2000": 1697.0 }, "geometry": { "type": "MultiPolygon", "coordinates": [ [ [ [ -105.29479, 40.00102 ], [ -105.29569, 40.00072 ], [ -105.29539, 40.00012 ], [ -105.29479, 40.00102 ] ] ], [ [ [ -105.32647, 40.01047 ], [ -105.32596, 40.0091 ], [ -105.32502, 40.00912 ], [ -105.32436, 40.0076 ], [ -105.32255, 40.00715 ], [ -105.32381, 40.00674 ], [ -105.32361, 40.00609 ], [ -105.32337, 40.00659 ], [ -105.32268, 40.0064 ], [ -105.32182, 40.0068 ], [ -105.32035, 40.00676 ], [ -105.32145, 40.00638 ], [ -105.32193, 40.00523 ], [ -105.32176, 40.00466 ], [ -105.32056, 40.00371 ], [ -105.31807, 40.00295 ], [ -105.31627, 40.00171 ], [ -105.31476, 40.00207 ], [ -105.31364, 40.00148 ], [ -105.31311, 40.00072 ], [ -105.31312, 40.00179 ], [ -105.31375, 40.00217 ], [ -105.31274, 40.00184 ], [ -105.31227, 40.00074 ], [ -105.31156, 40.00022 ], [ -105.31147, 39.99879 ], [ -105.3122, 39.99892 ], [ -105.31217, 39.99788 ], [ -105.31372, 39.9983 ], [ -105.31456, 39.99932 ], [ -105.31525, 39.99918 ], [ -105.31457, 39.99908 ], [ -105.31402, 39.99794 ], [ -105.31241, 39.99715 ], [ -105.31015, 39.99742 ], [ -105.30901, 39.99708 ], [ -105.30827, 39.99765 ], [ -105.30706, 39.99791 ], [ -105.30418, 39.99983 ], [ -105.30267, 40.0002 ], [ -105.30208, 40.00066 ], [ -105.30042, 40.00087 ], [ -105.29982, 40.00141 ], [ -105.29981, 40.00234 ], [ -105.29872, 40.00315 ], [ -105.29856, 40.00296 ], [ -105.29929, 40.00236 ], [ -105.29925, 40.00079 ], [ -105.30002, 39.99972 ], [ -105.29877, 40.00061 ], [ -105.29794, 40.00185 ], [ -105.29659, 40.00182 ], [ -105.29571, 40.00118 ], [ -105.29636, 40.0023 ], [ -105.29542, 40.00292 ], [ -105.2951, 40.00279 ], [ -105.29597, 40.00221 ], [ -105.29448, 40.00182 ], [ -105.29487, 40.00113 ], [ -105.29467, 40.00106 ], [ -105.29402, 40.00199 ], [ -105.29412, 40.00312 ], [ -105.29548, 40.00387 ], [ -105.29564, 40.0044 ], [ -105.29501, 40.005 ], [ -105.29461, 40.00662 ], [ -105.29406, 40.00695 ], [ -105.29302, 40.0061 ], [ -105.29314, 40.00467 ], [ -105.2922, 40.00426 ], [ -105.29228, 40.0029 ], [ -105.29044, 40.0008 ], [ -105.29066, 39.99925 ], [ -105.28777, 40.00006 ], [ -105.28194, 40.00007 ], [ -105.282, 40.00984 ], [ -105.28346, 40.01342 ], [ -105.28323, 40.01505 ], [ -105.28408, 40.01812 ], [ -105.28803, 40.01733 ], [ -105.28863, 40.01692 ], [ -105.29083, 40.01672 ], [ -105.29045, 40.01576 ], [ -105.29404, 40.01487 ], [ -105.29597, 40.01363 ], [ -105.29789, 40.01342 ], [ -105.30084, 40.01416 ], [ -105.30159, 40.01376 ], [ -105.30209, 40.01251 ], [ -105.30277, 40.01204 ], [ -105.30593, 40.01217 ], [ -105.30809, 40.01149 ], [ -105.30885, 40.01167 ], [ -105.30997, 40.01322 ], [ -105.31296, 40.01508 ], [ -105.31393, 40.01481 ], [ -105.31475, 40.0134 ], [ -105.31612, 40.01263 ], [ -105.31873, 40.0134 ], [ -105.32012, 40.01476 ], [ -105.32196, 40.01454 ], [ -105.32405, 40.0153 ], [ -105.32585, 40.01522 ], [ -105.32672, 40.01485 ], [ -105.32688, 40.01413 ], [ -105.32637, 40.01359 ], [ -105.32489, 40.01307 ], [ -105.32465, 40.0125 ], [ -105.32498, 40.01193 ], [ -105.32623, 40.01112 ], [ -105.32647, 40.01047 ] ] ] ] } },
{ "type": "Feature", "properties": { "tract2000": "08013012705", "children_2000": 472, "children_2020": 362.0, "change": -110.0, "pct_change": -23.3, "people_per_sq_mi_2000": 2016.0 }, "geometry": { "type": "Polygon", "coordinates": [ [ [ -105.20431, 40.05832 ], [ -105.20185, 40.05893 ], [ -105.20095, 40.06007 ], [ -105.19478, 40.06183 ], [ -105.19329, 40.06296 ], [ -105.19345, 40.0621 ], [ -105.19291, 40.06312 ], [ -105.19293, 40.06438 ], [ -105.19468, 40.0663 ], [ -105.19529, 40.06744 ], [ -105.19592, 40.07236 ], [ -105.20096, 40.07536 ], [ -105.20182, 40.07625 ], [ -105.20268, 40.07631 ], [ -105.20311, 40.07718 ], [ -105.22377, 40.0584 ], [ -105.23286, 40.0511 ], [ -105.20415, 40.05096 ], [ -105.20504, 40.05355 ], [ -105.20687, 40.05448 ], [ -105.20687, 40.05822 ], [ -105.20431, 40.05832 ] ] ] } },
{ "type": "Feature", "properties": { "tract2000": "08013013107", "children_2000": 842, "children_2020": 714.0, "change": -128.0, "pct_change": -15.2, "people_per_sq_mi_2000": 461.0 }, "geometry": { "type": "Polygon", "coordinates": [ [ [ -105.13685, 39.93926 ], [ -105.12716, 39.93483 ], [ -105.1277, 39.93284 ], [ -105.12781, 39.92444 ], [ -105.12997, 39.92088 ], [ -105.1309, 39.91861 ], [ -105.13071, 39.91721 ], [ -105.13543, 39.91546 ], [ -105.13294, 39.91419 ], [ -105.09055, 39.91436 ], [ -105.09088, 39.91836 ], [ -105.09062, 39.9194 ], [ -105.09061, 39.93836 ], [ -105.0902, 39.94578 ], [ -105.09037, 39.95803 ], [ -105.09449, 39.95804 ], [ -105.09827, 39.9591 ], [ -105.10718, 39.95792 ], [ -105.14486, 39.95794 ], [ -105.14615, 39.95755 ], [ -105.14825, 39.95618 ], [ -105.14913, 39.95601 ], [ -105.15034, 39.95629 ], [ -105.1523, 39.95776 ], [ -105.1534, 39.95742 ], [ -105.15377, 39.95681 ], [ -105.15486, 39.95665 ], [ -105.15514, 39.95607 ], [ -105.15618, 39.95608 ], [ -105.15901, 39.95515 ], [ -105.1595, 39.95553 ], [ -105.1603, 39.95535 ], [ -105.15203, 39.94908 ], [ -105.13685, 39.93926 ] ] ] } },
{ "type": "Feature", "properties": { "tract2000": "08013013005", "children_2000": 635, "children_2020": 668.0, "change": 33.0, "pct_change": 5.2, "people_per_sq_mi_2000": 4182.0 }, "geometry": { "type": "Polygon", "coordinates": [ [ [ -105.1504, 39.97803 ], [ -105.15394, 39.97679 ], [ -105.15226, 39.9746 ], [ -105.15111, 39.97436 ], [ -105.14704, 39.97448 ], [ -105.14119, 39.97686 ], [ -105.1302, 39.97685 ], [ -105.12788, 39.97724 ], [ -105.1279, 39.98695 ], [ -105.14219, 39.98702 ], [ -105.14288, 39.98532 ], [ -105.14462, 39.98385 ], [ -105.14445, 39.98221 ], [ -105.14501, 39.9812 ], [ -105.1504, 39.97803 ] ] ] } },
{ "type": "Feature", "properties": { "tract2000": "08013012508", "children_2000": 296, "children_2020": 321.0, "change": 25.0, "pct_change": 8.4, "people_per_sq_mi_2000": 2053.0 }, "geometry": { "type": "Polygon", "coordinates": [ [ [ -105.24983, 39.98559 ], [ -105.23728, 39.97176 ], [ -105.23686, 39.97027 ], [ -105.23774, 39.96626 ], [ -105.23747, 39.96334 ], [ -105.23683, 39.96195 ], [ -105.23552, 39.96035 ], [ -105.23345, 39.95875 ], [ -105.23268, 39.95894 ], [ -105.23147, 39.96193 ], [ -105.23171, 39.96286 ], [ -105.23032, 39.96306 ], [ -105.2303, 39.96368 ], [ -105.22955, 39.9645 ], [ -105.22967, 39.96504 ], [ -105.23004, 39.96511 ], [ -105.22988, 39.96535 ], [ -105.22815, 39.96548 ], [ -105.22731, 39.96641 ], [ -105.22714, 39.96775 ], [ -105.22642, 39.96866 ], [ -105.22681, 39.9699 ], [ -105.22357, 39.97207 ], [ -105.22278, 39.97703 ], [ -105.22115, 39.98041 ], [ -105.23457, 39.9866 ], [ -105.23706, 39.98587 ], [ -105.24983, 39.98559 ] ] ] } },
{ "type": "Feature", "properties": { "tract2000": "08013012605", "children_2000": 120, "children_2020": 56.0, "change": -64.0, "pct_change": -53.3, "people_per_sq_mi_2000": 3317.0 }, "geometry": { "type": "Polygon", "coordinates": [ [ [ -105.25859, 40.00816 ], [ -105.25392, 40.00745 ], [ -105.24655, 40.00713 ], [ -105.24571, 40.00765 ], [ -105.24571, 40.0074 ], [ -105.24254, 40.00765 ], [ -105.23964, 40.00858 ], [ -105.24035, 40.0104 ], [ -105.24033, 40.01326 ], [ -105.2407, 40.01469 ], [ -105.25831, 40.01469 ], [ -105.25859, 40.00816 ] ] ] } },
{ "type": "Feature", "properties": { "tract2000": "08013013004", "children_2000": 985, "children_2020": 763.0, "change": -222.0, "pct_change": -22.5, "people_per_sq_mi_2000": 4428.0 }, "geometry": { "type": "Polygon", "coordinates": [ [ [ -105.16576, 39.98164 ], [ -105.1657, 39.97444 ], [ -105.16438, 39.97257 ], [ -105.16221, 39.97396 ], [ -105.15097, 39.97778 ], [ -105.14574, 39.98057 ], [ -105.14447, 39.98211 ], [ -105.14462, 39.98385 ], [ -105.14288, 39.98532 ], [ -105.14219, 39.98702 ], [ -105.16543, 39.98688 ], [ -105.16576, 39.98164 ] ] ] } },
{ "type": "Feature", "properties": { "tract2000": "08013012710", "children_2000": 783, "children_2020": 581.0, "change": -202.0, "pct_change": -25.8, "people_per_sq_mi_2000": 487.0 }, "geometry": { "type": "Polygon", "coordinates": [ [ [ -105.21283, 39.97656 ], [ -105.20705, 39.97399 ], [ -105.16555, 39.95786 ], [ -105.16497, 39.96051 ], [ -105.16349, 39.96291 ], [ -105.16329, 39.96416 ], [ -105.1634, 39.97111 ], [ -105.16379, 39.97197 ], [ -105.16532, 39.97355 ], [ -105.16573, 39.97463 ], [ -105.16576, 39.98309 ], [ -105.16547, 39.98385 ], [ -105.16543, 39.98688 ], [ -105.17538, 39.98681 ], [ -105.17494, 40.00017 ], [ -105.17816, 40.00014 ], [ -105.17827, 40.01463 ], [ -105.22541, 40.01474 ], [ -105.22535, 40.00011 ], [ -105.2128, 40.00009 ], [ -105.21245, 39.99408 ], [ -105.21282, 39.98973 ], [ -105.21283, 39.97656 ] ] ] } },
{ "type": "Feature", "properties": { "tract2000": "08013013106", "children_2000": 1874, "children_2020": 2849.0, "change": 975.0, "pct_change": 52.0, "people_per_sq_mi_2000": 540.0 }, "geometry": { "type": "Polygon", "coordinates": [ [ [ -105.15203, 39.94908 ], [ -105.15962, 39.95488 ], [ -105.16267, 39.95667 ], [ -105.20705, 39.97399 ], [ -105.22115, 39.98041 ], [ -105.22278, 39.97703 ], [ -105.22357, 39.97207 ], [ -105.22681, 39.9699 ], [ -105.22642, 39.96866 ], [ -105.22714, 39.96775 ], [ -105.22731, 39.96641 ], [ -105.22815, 39.96548 ], [ -105.23004, 39.9652 ], [ -105.22967, 39.96504 ], [ -105.22962, 39.96433 ], [ -105.2303, 39.96368 ], [ -105.23044, 39.96296 ], [ -105.23171, 39.96286 ], [ -105.23147, 39.96193 ], [ -105.23193, 39.96031 ], [ -105.2324, 39.95997 ], [ -105.23232, 39.95932 ], [ -105.23345, 39.95875 ], [ -105.23152, 39.95684 ], [ -105.2313, 39.95485 ], [ -105.2339, 39.95028 ], [ -105.23618, 39.94767 ], [ -105.23659, 39.94627 ], [ -105.23559, 39.94191 ], [ -105.23672, 39.93555 ], [ -105.23457, 39.92819 ], [ -105.23446, 39.92573 ], [ -105.23893, 39.91437 ], [ -105.22234, 39.91419 ], [ -105.21816, 39.9137 ], [ -105.21538, 39.91405 ], [ -105.21362, 39.91366 ], [ -105.21247, 39.91424 ], [ -105.16699, 39.91389 ], [ -105.16535, 39.91413 ], [ -105.15933, 39.91389 ], [ -105.13294, 39.91419 ], [ -105.13543, 39.91546 ], [ -105.13071, 39.91721 ], [ -105.1309, 39.91861 ], [ -105.12997, 39.92088 ], [ -105.12781, 39.92444 ], [ -105.1277, 39.93284 ], [ -105.12716, 39.93483 ], [ -105.13685, 39.93926 ], [ -105.15203, 39.94908 ] ] ] } },
{ "type": "Feature", "properties": { "tract2000": "08013013701", "children_2000": 879, "children_2020": 766.0, "change": -113.0, "pct_change": -12.9, "people_per_sq_mi_2000": 57.0 }, "geometry": { "type": "Polygon", "coordinates": [ [ [ -105.36398, 40.04438 ], [ -105.36403, 40.04342 ], [ -105.3647, 40.04201 ], [ -105.36373, 40.04081 ], [ -105.36212, 40.041 ], [ -105.36073, 40.04034 ], [ -105.35901, 40.04046 ], [ -105.35829, 40.03972 ], [ -105.35367, 40.03895 ], [ -105.35206, 40.03666 ], [ -105.35046, 40.0373 ], [ -105.35039, 40.03774 ], [ -105.35099, 40.03887 ], [ -105.35058, 40.03905 ], [ -105.34985, 40.03853 ], [ -105.34893, 40.03845 ], [ -105.3486, 40.03721 ], [ -105.34581, 40.03678 ], [ -105.34588, 40.03597 ], [ -105.34544, 40.03531 ], [ -105.34232, 40.03466 ], [ -105.34097, 40.03338 ], [ -105.33987, 40.03321 ], [ -105.33992, 40.03216 ], [ -105.34213, 40.03063 ], [ -105.34191, 40.02992 ], [ -105.33981, 40.02948 ], [ -105.33944, 40.02847 ], [ -105.33831, 40.02799 ], [ -105.33832, 40.02693 ], [ -105.33552, 40.02513 ], [ -105.33429, 40.02544 ], [ -105.33285, 40.025 ], [ -105.33169, 40.0253 ], [ -105.32971, 40.0247 ], [ -105.32901, 40.02316 ], [ -105.32811, 40.02235 ], [ -105.32756, 40.02098 ], [ -105.32655, 40.01994 ], [ -105.32405, 40.0153 ], [ -105.32196, 40.01454 ], [ -105.32012, 40.01476 ], [ -105.31873, 40.0134 ], [ -105.31629, 40.01264 ], [ -105.31525, 40.01294 ], [ -105.31381, 40.01489 ], [ -105.31274, 40.01503 ], [ -105.30997, 40.01322 ], [ -105.30885, 40.01167 ], [ -105.30809, 40.01149 ], [ -105.30593, 40.01217 ], [ -105.30251, 40.01214 ], [ -105.30159, 40.01376 ], [ -105.30098, 40.01413 ], [ -105.29816, 40.01345 ], [ -105.29687, 40.01344 ], [ -105.29558, 40.01378 ], [ -105.29393, 40.01489 ], [ -105.29406, 40.01708 ], [ -105.29519, 40.01809 ], [ -105.29529, 40.01931 ], [ -105.29617, 40.02033 ], [ -105.29452, 40.02067 ], [ -105.29529, 40.02123 ], [ -105.29673, 40.02154 ], [ -105.296, 40.02305 ], [ -105.29595, 40.02539 ], [ -105.29378, 40.02928 ], [ -105.29656, 40.0329 ], [ -105.29657, 40.03565 ], [ -105.29583, 40.04082 ], [ -105.29652, 40.043 ], [ -105.297, 40.04343 ], [ -105.29532, 40.04787 ], [ -105.29445, 40.05152 ], [ -105.29543, 40.05345 ], [ -105.29567, 40.05514 ], [ -105.2956, 40.05977 ], [ -105.29501, 40.06374 ], [ -105.29297, 40.06418 ], [ -105.2912, 40.06407 ], [ -105.28632, 40.06186 ], [ -105.28212, 40.06183 ], [ -105.28199, 40.06463 ], [ -105.28468, 40.07408 ], [ -105.28251, 40.07892 ], [ -105.28215, 40.08044 ], [ -105.28217, 40.10538 ], [ -105.28182, 40.1096 ], [ -105.28229, 40.11343 ], [ -105.28227, 40.13369 ], [ -105.28523, 40.13348 ], [ -105.29226, 40.1322 ], [ -105.29549, 40.13252 ], [ -105.29807, 40.1319 ], [ -105.29957, 40.1312 ], [ -105.30046, 40.13041 ], [ -105.30259, 40.12735 ], [ -105.30447, 40.12672 ], [ -105.3047, 40.12537 ], [ -105.30602, 40.12379 ], [ -105.3065, 40.12268 ], [ -105.30693, 40.12002 ], [ -105.30687, 40.11674 ], [ -105.30792, 40.11472 ], [ -105.30785, 40.11413 ], [ -105.30605, 40.11129 ], [ -105.30613, 40.1106 ], [ -105.30681, 40.11001 ], [ -105.30801, 40.1096 ], [ -105.30979, 40.10967 ], [ -105.31128, 40.10933 ], [ -105.31383, 40.10969 ], [ -105.31525, 40.10942 ], [ -105.31847, 40.10953 ], [ -105.31886, 40.10928 ], [ -105.3195, 40.10778 ], [ -105.31881, 40.10624 ], [ -105.32271, 40.10644 ], [ -105.32464, 40.10517 ], [ -105.32644, 40.10584 ], [ -105.32908, 40.10585 ], [ -105.33044, 40.10706 ], [ -105.33222, 40.10712 ], [ -105.33247, 40.1081 ], [ -105.33581, 40.10903 ], [ -105.33691, 40.10744 ], [ -105.33657, 40.10636 ], [ -105.33671, 40.10516 ], [ -105.33852, 40.10427 ], [ -105.33996, 40.10291 ], [ -105.34221, 40.10234 ], [ -105.34332, 40.10281 ], [ -105.34338, 40.1041 ], [ -105.34576, 40.10439 ], [ -105.3463, 40.10499 ], [ -105.35051, 40.10727 ], [ -105.35321, 40.10727 ], [ -105.35442, 40.1076 ], [ -105.3553, 40.10814 ], [ -105.35565, 40.10923 ], [ -105.35682, 40.10982 ], [ -105.359, 40.10977 ], [ -105.36234, 40.10796 ], [ -105.36367, 40.10863 ], [ -105.37201, 40.10853 ], [ -105.37284, 40.10829 ], [ -105.37343, 40.11092 ], [ -105.37407, 40.11126 ], [ -105.38843, 40.1185 ], [ -105.39172, 40.11787 ], [ -105.39593, 40.12557 ], [ -105.39481, 40.12626 ], [ -105.39496, 40.12727 ], [ -105.3943, 40.12755 ], [ -105.39448, 40.12796 ], [ -105.3964, 40.12708 ], [ -105.39675, 40.12764 ], [ -105.39637, 40.12791 ], [ -105.39636, 40.12848 ], [ -105.39962, 40.12717 ], [ -105.40157, 40.12884 ], [ -105.40617, 40.13098 ], [ -105.40923, 40.13355 ], [ -105.40951, 40.13516 ], [ -105.4099, 40.13602 ], [ -105.41058, 40.13659 ], [ -105.41131, 40.13851 ], [ -105.41427, 40.13853 ], [ -105.41532, 40.13905 ], [ -105.41618, 40.13827 ], [ -105.41798, 40.13798 ], [ -105.42312, 40.13964 ], [ -105.4235, 40.13873 ], [ -105.42441, 40.1384 ], [ -105.42653, 40.13871 ], [ -105.42654, 40.13805 ], [ -105.42866, 40.13687 ], [ -105.42941, 40.13527 ], [ -105.43144, 40.13388 ], [ -105.43142, 40.1326 ], [ -105.43268, 40.13123 ], [ -105.43311, 40.12969 ], [ -105.43444, 40.12776 ], [ -105.43483, 40.12664 ], [ -105.43789, 40.12512 ], [ -105.43808, 40.12384 ], [ -105.44232, 40.12361 ], [ -105.44368, 40.12287 ], [ -105.44609, 40.12273 ], [ -105.44774, 40.12212 ], [ -105.44962, 40.12192 ], [ -105.45268, 40.12268 ], [ -105.45427, 40.12383 ], [ -105.45561, 40.12436 ], [ -105.45648, 40.12354 ], [ -105.46246, 40.12523 ], [ -105.46932, 40.12605 ], [ -105.47422, 40.12567 ], [ -105.47476, 40.12528 ], [ -105.47283, 40.124 ], [ -105.47247, 40.12318 ], [ -105.47263, 40.12213 ], [ -105.47341, 40.12123 ], [ -105.47725, 40.11886 ], [ -105.4798, 40.11659 ], [ -105.48013, 40.11565 ], [ -105.48002, 40.11302 ], [ -105.48236, 40.10894 ], [ -105.48763, 40.10495 ], [ -105.48816, 40.10396 ], [ -105.49041, 40.10345 ], [ -105.49067, 40.1019 ], [ -105.49126, 40.1012 ], [ -105.49348, 40.10072 ], [ -105.49419, 40.10027 ], [ -105.49573, 40.09762 ], [ -105.49721, 40.09647 ], [ -105.49759, 40.09519 ], [ -105.49922, 40.09474 ], [ -105.50001, 40.09387 ], [ -105.50154, 40.09414 ], [ -105.5019, 40.09311 ], [ -105.50332, 40.09229 ], [ -105.50641, 40.09135 ], [ -105.50811, 40.09133 ], [ -105.51123, 40.09049 ], [ -105.51411, 40.0908 ], [ -105.51614, 40.08978 ], [ -105.51912, 40.08962 ], [ -105.5202, 40.08924 ], [ -105.52561, 40.09 ], [ -105.52774, 40.09098 ], [ -105.53132, 40.09063 ], [ -105.53354, 40.0897 ], [ -105.53549, 40.09011 ], [ -105.54064, 40.08893 ], [ -105.54263, 40.08896 ], [ -105.54455, 40.08823 ], [ -105.54615, 40.08808 ], [ -105.54708, 40.08725 ], [ -105.55081, 40.08591 ], [ -105.55512, 40.08514 ], [ -105.55872, 40.08316 ], [ -105.56174, 40.08412 ], [ -105.56283, 40.08389 ], [ -105.56607, 40.08431 ], [ -105.56646, 40.08377 ], [ -105.56766, 40.08331 ], [ -105.56878, 40.08131 ], [ -105.56946, 40.08095 ], [ -105.56937, 40.08053 ], [ -105.57134, 40.08035 ], [ -105.57185, 40.07928 ], [ -105.57372, 40.07808 ], [ -105.57578, 40.07773 ], [ -105.57833, 40.07881 ], [ -105.58288, 40.07768 ], [ -105.58319, 40.07677 ], [ -105.58488, 40.07615 ], [ -105.58586, 40.07615 ], [ -105.59017, 40.07392 ], [ -105.59475, 40.07035 ], [ -105.59888, 40.06883 ], [ -105.60156, 40.06868 ], [ -105.60369, 40.06898 ], [ -105.60444, 40.06845 ], [ -105.60598, 40.06854 ], [ -105.6071, 40.06805 ], [ -105.60919, 40.06876 ], [ -105.61002, 40.06826 ], [ -105.61134, 40.06812 ], [ -105.61256, 40.06923 ], [ -105.61452, 40.0695 ], [ -105.61392, 40.07001 ], [ -105.61567, 40.0697 ], [ -105.61733, 40.07032 ], [ -105.61827, 40.07031 ], [ -105.62043, 40.06972 ], [ -105.62363, 40.06835 ], [ -105.62371, 40.06802 ], [ -105.62617, 40.06721 ], [ -105.62712, 40.06629 ], [ -105.62868, 40.06641 ], [ -105.62937, 40.06555 ], [ -105.6308, 40.06516 ], [ -105.63251, 40.06323 ], [ -105.63515, 40.06242 ], [ -105.63702, 40.06123 ], [ -105.63956, 40.06089 ], [ -105.64093, 40.06245 ], [ -105.64118, 40.06354 ], [ -105.64252, 40.0639 ], [ -105.64419, 40.06381 ], [ -105.64858, 40.06198 ], [ -105.64942, 40.05999 ], [ -105.65106, 40.05844 ], [ -105.65074, 40.05755 ], [ -105.64882, 40.0549 ], [ -105.64876, 40.05429 ], [ -105.64843, 40.05394 ], [ -105.64645, 40.05347 ], [ -105.64558, 40.05266 ], [ -105.6451, 40.05067 ], [ -105.64446, 40.04985 ], [ -105.64339, 40.04945 ], [ -105.64234, 40.04812 ], [ -105.64126, 40.04772 ], [ -105.64071, 40.04714 ], [ -105.63851, 40.04674 ], [ -105.63749, 40.04584 ], [ -105.63741, 40.04523 ], [ -105.63858, 40.0438 ], [ -105.63838, 40.04291 ], [ -105.63915, 40.04047 ], [ -105.63866, 40.03961 ], [ -105.6388, 40.03879 ], [ -105.64019, 40.03726 ], [ -105.64064, 40.03502 ], [ -105.6412, 40.03417 ], [ -105.64394, 40.0333 ], [ -105.64957, 40.02774 ], [ -105.65279, 40.02377 ], [ -105.64795, 40.02323 ], [ -105.64066, 40.02155 ], [ -105.63861, 40.02151 ], [ -105.638, 40.02176 ], [ -105.63681, 40.02363 ], [ -105.63539, 40.0247 ], [ -105.62983, 40.02689 ], [ -105.6269, 40.02747 ], [ -105.62423, 40.02959 ], [ -105.62119, 40.03072 ], [ -105.61749, 40.02957 ], [ -105.61544, 40.0296 ], [ -105.61356, 40.02904 ], [ -105.60915, 40.0306 ], [ -105.6052, 40.0288 ], [ -105.60022, 40.02902 ], [ -105.59936, 40.02832 ], [ -105.59658, 40.02878 ], [ -105.59135, 40.02831 ], [ -105.5903, 40.02862 ], [ -105.58299, 40.02832 ], [ -105.5796, 40.02851 ], [ -105.57746, 40.028 ], [ -105.57576, 40.02877 ], [ -105.57431, 40.02803 ], [ -105.57113, 40.02758 ], [ -105.56992, 40.02891 ], [ -105.56925, 40.02904 ], [ -105.56556, 40.02674 ], [ -105.56428, 40.02526 ], [ -105.56276, 40.02448 ], [ -105.56119, 40.02292 ], [ -105.56046, 40.02137 ], [ -105.56066, 40.01955 ], [ -105.56036, 40.01802 ], [ -105.56061, 40.01646 ], [ -105.56029, 40.01455 ], [ -105.55748, 40.01332 ], [ -105.5556, 40.01166 ], [ -105.55307, 40.01094 ], [ -105.552, 40.0099 ], [ -105.55114, 40.00975 ], [ -105.55026, 40.0104 ], [ -105.55038, 40.01133 ], [ -105.55012, 40.01166 ], [ -105.54751, 40.01186 ], [ -105.54569, 40.01275 ], [ -105.53984, 40.0129 ], [ -105.53791, 40.01325 ], [ -105.53587, 40.01229 ], [ -105.53283, 40.01325 ], [ -105.53223, 40.01414 ], [ -105.53219, 40.01676 ], [ -105.53114, 40.01876 ], [ -105.53198, 40.02226 ], [ -105.53296, 40.02344 ], [ -105.53257, 40.02418 ], [ -105.53289, 40.02549 ], [ -105.53267, 40.02792 ], [ -105.53082, 40.02893 ], [ -105.52699, 40.02745 ], [ -105.52157, 40.02857 ], [ -105.52122, 40.02925 ], [ -105.52197, 40.03164 ], [ -105.52138, 40.03244 ], [ -105.51769, 40.03066 ], [ -105.51666, 40.02973 ], [ -105.51593, 40.02826 ], [ -105.51611, 40.02598 ], [ -105.51567, 40.02438 ], [ -105.51394, 40.02183 ], [ -105.51178, 40.02037 ], [ -105.50986, 40.02097 ], [ -105.5084, 40.02105 ], [ -105.50481, 40.01921 ], [ -105.49921, 40.01853 ], [ -105.49355, 40.01935 ], [ -105.49001, 40.02076 ], [ -105.48951, 40.02192 ], [ -105.48715, 40.02393 ], [ -105.48251, 40.02481 ], [ -105.47914, 40.02619 ], [ -105.47779, 40.02718 ], [ -105.47626, 40.0273 ], [ -105.47275, 40.0265 ], [ -105.47193, 40.02554 ], [ -105.47148, 40.02364 ], [ -105.4691, 40.0231 ], [ -105.46769, 40.02182 ], [ -105.46207, 40.0224 ], [ -105.45875, 40.02189 ], [ -105.45691, 40.02209 ], [ -105.45546, 40.02105 ], [ -105.45435, 40.02073 ], [ -105.45309, 40.02088 ], [ -105.45195, 40.02151 ], [ -105.45086, 40.02156 ], [ -105.44967, 40.02115 ], [ -105.44843, 40.02136 ], [ -105.44786, 40.02099 ], [ -105.44747, 40.01976 ], [ -105.44622, 40.01931 ], [ -105.44531, 40.01973 ], [ -105.4438, 40.02137 ], [ -105.43716, 40.02526 ], [ -105.43491, 40.02506 ], [ -105.43392, 40.02426 ], [ -105.43345, 40.02424 ], [ -105.43176, 40.02477 ], [ -105.4275, 40.02499 ], [ -105.42675, 40.02498 ], [ -105.42572, 40.02434 ], [ -105.42521, 40.02446 ], [ -105.42489, 40.02501 ], [ -105.42565, 40.02552 ], [ -105.43292, 40.02531 ], [ -105.43456, 40.02605 ], [ -105.43657, 40.02644 ], [ -105.43787, 40.02625 ], [ -105.4405, 40.02495 ], [ -105.44176, 40.02558 ], [ -105.44285, 40.02729 ], [ -105.44078, 40.02922 ], [ -105.44055, 40.02979 ], [ -105.44172, 40.03015 ], [ -105.44436, 40.02977 ], [ -105.44473, 40.03008 ], [ -105.44414, 40.03225 ], [ -105.44555, 40.03259 ], [ -105.4464, 40.03358 ], [ -105.44779, 40.03359 ], [ -105.44848, 40.03478 ], [ -105.45203, 40.03482 ], [ -105.45373, 40.03366 ], [ -105.45606, 40.03444 ], [ -105.45666, 40.03416 ], [ -105.45704, 40.03303 ], [ -105.45882, 40.03234 ], [ -105.45911, 40.03259 ], [ -105.45898, 40.03359 ], [ -105.45945, 40.0339 ], [ -105.46323, 40.03308 ], [ -105.46246, 40.03415 ], [ -105.46051, 40.03518 ], [ -105.46097, 40.0359 ], [ -105.46362, 40.03565 ], [ -105.46692, 40.03628 ], [ -105.46878, 40.0355 ], [ -105.46881, 40.03652 ], [ -105.4658, 40.03722 ], [ -105.46212, 40.0372 ], [ -105.45795, 40.03818 ], [ -105.45512, 40.03711 ], [ -105.45026, 40.03764 ], [ -105.44642, 40.03744 ], [ -105.44406, 40.03673 ], [ -105.4396, 40.03632 ], [ -105.43604, 40.03497 ], [ -105.43187, 40.0346 ], [ -105.4283, 40.03519 ], [ -105.42395, 40.03793 ], [ -105.41927, 40.04005 ], [ -105.4066, 40.03745 ], [ -105.40499, 40.03666 ], [ -105.4024, 40.03715 ], [ -105.40053, 40.03794 ], [ -105.38544, 40.04061 ], [ -105.38307, 40.04163 ], [ -105.38103, 40.04184 ], [ -105.37982, 40.04266 ], [ -105.38008, 40.04367 ], [ -105.37989, 40.04414 ], [ -105.37879, 40.04501 ], [ -105.37838, 40.0458 ], [ -105.37727, 40.04609 ], [ -105.37688, 40.04725 ], [ -105.37523, 40.04788 ], [ -105.3729, 40.05022 ], [ -105.37093, 40.05098 ], [ -105.37025, 40.05081 ], [ -105.36975, 40.04994 ], [ -105.36795, 40.04999 ], [ -105.368, 40.04793 ], [ -105.36726, 40.04716 ], [ -105.36755, 40.04598 ], [ -105.36635, 40.04548 ], [ -105.36499, 40.04551 ], [ -105.36398, 40.04438 ] ] ] } },
{ "type": "Feature", "properties": { "tract2000": "08013013702", "children_2000": 856, "children_2020": 621.0, "change": -235.0, "pct_change": -27.5, "people_per_sq_mi_2000": 44.0 }, "geometry": { "type": "Polygon", "coordinates": [ [ [ -105.39853, 39.93481 ], [ -105.39795, 39.93299 ], [ -105.39848, 39.92651 ], [ -105.39892, 39.92504 ], [ -105.39805, 39.92378 ], [ -105.39785, 39.91289 ], [ -105.33955, 39.91379 ], [ -105.3147, 39.91388 ], [ -105.32182, 39.92009 ], [ -105.32204, 39.92105 ], [ -105.32274, 39.92203 ], [ -105.32254, 39.92272 ], [ -105.32296, 39.92424 ], [ -105.32255, 39.92588 ], [ -105.32221, 39.92627 ], [ -105.3209, 39.92655 ], [ -105.32097, 39.92739 ], [ -105.32032, 39.92809 ], [ -105.31906, 39.92819 ], [ -105.3193, 39.93003 ], [ -105.31782, 39.93096 ], [ -105.3171, 39.93211 ], [ -105.31566, 39.93291 ], [ -105.31414, 39.93464 ], [ -105.31318, 39.93488 ], [ -105.3129, 39.93534 ], [ -105.31019, 39.93444 ], [ -105.30872, 39.93249 ], [ -105.30829, 39.93278 ], [ -105.30803, 39.93359 ], [ -105.31071, 39.9353 ], [ -105.31297, 39.93578 ], [ -105.31427, 39.93538 ], [ -105.31534, 39.93581 ], [ -105.31484, 39.93684 ], [ -105.31362, 39.93698 ], [ -105.31346, 39.93725 ], [ -105.3143, 39.94047 ], [ -105.31567, 39.94274 ], [ -105.31455, 39.9436 ], [ -105.31593, 39.94491 ], [ -105.31563, 39.94579 ], [ -105.31577, 39.94652 ], [ -105.31748, 39.94724 ], [ -105.31738, 39.94844 ], [ -105.31836, 39.94931 ], [ -105.31804, 39.95029 ], [ -105.31972, 39.95178 ], [ -105.32011, 39.95272 ], [ -105.32369, 39.95264 ], [ -105.32582, 39.95573 ], [ -105.32705, 39.95559 ], [ -105.33134, 39.95663 ], [ -105.3314, 39.95636 ], [ -105.33048, 39.95585 ], [ -105.33084, 39.95564 ], [ -105.33173, 39.95591 ], [ -105.3323, 39.95655 ], [ -105.33405, 39.95676 ], [ -105.33484, 39.95721 ], [ -105.33514, 39.95703 ], [ -105.33461, 39.95642 ], [ -105.33468, 39.95598 ], [ -105.33581, 39.95639 ], [ -105.33705, 39.956 ], [ -105.33749, 39.95752 ], [ -105.33816, 39.95807 ], [ -105.33816, 39.96005 ], [ -105.33894, 39.96122 ], [ -105.33802, 39.96404 ], [ -105.33835, 39.9658 ], [ -105.33733, 39.96627 ], [ -105.33845, 39.96738 ], [ -105.33804, 39.96835 ], [ -105.33895, 39.96889 ], [ -105.33932, 39.96952 ], [ -105.33832, 39.96944 ], [ -105.3375, 39.96999 ], [ -105.33749, 39.97166 ], [ -105.33607, 39.97337 ], [ -105.33606, 39.97557 ], [ -105.33493, 39.97611 ], [ -105.33316, 39.98009 ], [ -105.32931, 39.98067 ], [ -105.32564, 39.98206 ], [ -105.3223, 39.98379 ], [ -105.32138, 39.98491 ], [ -105.32218, 39.98467 ], [ -105.32172, 39.98533 ], [ -105.31994, 39.98644 ], [ -105.32018, 39.98842 ], [ -105.31975, 39.99061 ], [ -105.31626, 39.99182 ], [ -105.31575, 39.99124 ], [ -105.31445, 39.99233 ], [ -105.31287, 39.99251 ], [ -105.31031, 39.9936 ], [ -105.30994, 39.99399 ], [ -105.31033, 39.99506 ], [ -105.31146, 39.99554 ], [ -105.31146, 39.9958 ], [ -105.30923, 39.99714 ], [ -105.31015, 39.99742 ], [ -105.31234, 39.99714 ], [ -105.31402, 39.99794 ], [ -105.31452, 39.99904 ], [ -105.31523, 39.99922 ], [ -105.31448, 39.99928 ], [ -105.31372, 39.9983 ], [ -105.31248, 39.99782 ], [ -105.31214, 39.99792 ], [ -105.31217, 39.99896 ], [ -105.31147, 39.99879 ], [ -105.31157, 40.00029 ], [ -105.31227, 40.00074 ], [ -105.31274, 40.00184 ], [ -105.31375, 40.00217 ], [ -105.31312, 40.00179 ], [ -105.31311, 40.00072 ], [ -105.31364, 40.00148 ], [ -105.31476, 40.00207 ], [ -105.31627, 40.00171 ], [ -105.31807, 40.00295 ], [ -105.32056, 40.00371 ], [ -105.32176, 40.00466 ], [ -105.32193, 40.00523 ], [ -105.32145, 40.00638 ], [ -105.32035, 40.00676 ], [ -105.32182, 40.0068 ], [ -105.32268, 40.0064 ], [ -105.32337, 40.00659 ], [ -105.32361, 40.00609 ], [ -105.32381, 40.00674 ], [ -105.32255, 40.00715 ], [ -105.32403, 40.00739 ], [ -105.32477, 40.00817 ], [ -105.32502, 40.00912 ], [ -105.32596, 40.0091 ], [ -105.32645, 40.01075 ], [ -105.32486, 40.01205 ], [ -105.32466, 40.01268 ], [ -105.32506, 40.01319 ], [ -105.32662, 40.01376 ], [ -105.32689, 40.01454 ], [ -105.32621, 40.01515 ], [ -105.32405, 40.0153 ], [ -105.32655, 40.01994 ], [ -105.32756, 40.02098 ], [ -105.32811, 40.02235 ], [ -105.32901, 40.02316 ], [ -105.32966, 40.02466 ], [ -105.33169, 40.0253 ], [ -105.33285, 40.025 ], [ -105.33429, 40.02544 ], [ -105.33542, 40.0251 ], [ -105.33709, 40.02597 ], [ -105.3376, 40.02667 ], [ -105.33832, 40.02693 ], [ -105.33831, 40.02799 ], [ -105.33944, 40.02847 ], [ -105.33967, 40.02937 ], [ -105.34033, 40.02972 ], [ -105.3415, 40.02966 ], [ -105.34214, 40.0303 ], [ -105.34185, 40.0309 ], [ -105.33992, 40.03216 ], [ -105.33987, 40.03321 ], [ -105.34097, 40.03338 ], [ -105.34232, 40.03466 ], [ -105.34544, 40.03531 ], [ -105.34588, 40.03597 ], [ -105.34581, 40.03678 ], [ -105.3486, 40.03721 ], [ -105.34902, 40.0385 ], [ -105.34969, 40.03848 ], [ -105.35088, 40.03903 ], [ -105.35046, 40.0373 ], [ -105.35206, 40.03666 ], [ -105.35367, 40.03895 ], [ -105.35829, 40.03972 ], [ -105.35901, 40.04046 ], [ -105.36073, 40.04034 ], [ -105.36212, 40.041 ], [ -105.36373, 40.04081 ], [ -105.3647, 40.04201 ], [ -105.36403, 40.04342 ], [ -105.36398, 40.04438 ], [ -105.36499, 40.04551 ], [ -105.36635, 40.04548 ], [ -105.36755, 40.04598 ], [ -105.36726, 40.04716 ], [ -105.368, 40.04793 ], [ -105.36795, 40.04999 ], [ -105.36975, 40.04994 ], [ -105.37048, 40.05095 ], [ -105.37117, 40.05092 ], [ -105.37204, 40.05038 ], [ -105.37242, 40.05051 ], [ -105.37523, 40.04788 ], [ -105.37688, 40.04725 ], [ -105.37727, 40.04609 ], [ -105.37838, 40.0458 ], [ -105.37879, 40.04501 ], [ -105.37989, 40.04414 ], [ -105.38008, 40.04367 ], [ -105.37982, 40.04266 ], [ -105.38103, 40.04184 ], [ -105.38307, 40.04163 ], [ -105.38544, 40.04061 ], [ -105.40053, 40.03794 ], [ -105.4024, 40.03715 ], [ -105.40499, 40.03666 ], [ -105.4066, 40.03745 ], [ -105.41927, 40.04005 ], [ -105.42395, 40.03793 ], [ -105.4283, 40.03519 ], [ -105.43187, 40.0346 ], [ -105.43604, 40.03497 ], [ -105.4396, 40.03632 ], [ -105.44406, 40.03673 ], [ -105.44642, 40.03744 ], [ -105.45026, 40.03764 ], [ -105.45512, 40.03711 ], [ -105.45795, 40.03818 ], [ -105.46212, 40.0372 ], [ -105.4658, 40.03722 ], [ -105.46881, 40.03652 ], [ -105.46878, 40.0355 ], [ -105.46692, 40.03628 ], [ -105.46362, 40.03565 ], [ -105.46097, 40.0359 ], [ -105.46051, 40.03518 ], [ -105.46246, 40.03415 ], [ -105.46323, 40.03308 ], [ -105.45945, 40.0339 ], [ -105.45898, 40.03359 ], [ -105.45911, 40.03259 ], [ -105.45882, 40.03234 ], [ -105.45704, 40.03303 ], [ -105.45666, 40.03416 ], [ -105.45606, 40.03444 ], [ -105.45373, 40.03366 ], [ -105.45203, 40.03482 ], [ -105.44848, 40.03478 ], [ -105.44779, 40.03359 ], [ -105.4464, 40.03358 ], [ -105.44555, 40.03259 ], [ -105.44414, 40.03225 ], [ -105.44473, 40.03008 ], [ -105.44436, 40.02977 ], [ -105.44172, 40.03015 ], [ -105.44055, 40.02979 ], [ -105.44078, 40.02922 ], [ -105.44285, 40.02729 ], [ -105.44176, 40.02558 ], [ -105.4405, 40.02495 ], [ -105.43787, 40.02625 ], [ -105.43657, 40.02644 ], [ -105.43456, 40.02605 ], [ -105.43292, 40.02531 ], [ -105.42565, 40.02552 ], [ -105.42489, 40.02501 ], [ -105.42521, 40.02446 ], [ -105.42572, 40.02434 ], [ -105.42675, 40.02498 ], [ -105.4275, 40.02499 ], [ -105.43176, 40.02477 ], [ -105.43345, 40.02424 ], [ -105.43392, 40.02426 ], [ -105.43491, 40.02506 ], [ -105.43716, 40.02526 ], [ -105.4438, 40.02137 ], [ -105.44531, 40.01973 ], [ -105.44622, 40.01931 ], [ -105.44747, 40.01976 ], [ -105.44786, 40.02099 ], [ -105.44843, 40.02136 ], [ -105.44967, 40.02115 ], [ -105.45086, 40.02156 ], [ -105.45195, 40.02151 ], [ -105.45309, 40.02088 ], [ -105.45435, 40.02073 ], [ -105.45546, 40.02105 ], [ -105.45691, 40.02209 ], [ -105.45875, 40.02189 ], [ -105.46207, 40.0224 ], [ -105.46769, 40.02182 ], [ -105.4691, 40.0231 ], [ -105.47148, 40.02364 ], [ -105.47193, 40.02554 ], [ -105.47275, 40.0265 ], [ -105.47626, 40.0273 ], [ -105.47779, 40.02718 ], [ -105.47914, 40.02619 ], [ -105.48251, 40.02481 ], [ -105.48715, 40.02393 ], [ -105.48951, 40.02192 ], [ -105.49001, 40.02076 ], [ -105.49355, 40.01935 ], [ -105.49921, 40.01853 ], [ -105.50481, 40.01921 ], [ -105.5084, 40.02105 ], [ -105.50986, 40.02097 ], [ -105.51178, 40.02037 ], [ -105.51394, 40.02183 ], [ -105.51567, 40.02438 ], [ -105.51611, 40.02598 ], [ -105.51593, 40.02826 ], [ -105.51666, 40.02973 ], [ -105.51769, 40.03066 ], [ -105.52138, 40.03244 ], [ -105.52197, 40.03164 ], [ -105.52122, 40.02925 ], [ -105.52157, 40.02857 ], [ -105.52699, 40.02745 ], [ -105.53082, 40.02893 ], [ -105.53267, 40.02792 ], [ -105.53289, 40.02549 ], [ -105.53257, 40.02418 ], [ -105.53296, 40.02344 ], [ -105.53198, 40.02226 ], [ -105.53114, 40.01876 ], [ -105.53219, 40.01676 ], [ -105.53223, 40.01414 ], [ -105.53283, 40.01325 ], [ -105.53587, 40.01229 ], [ -105.53791, 40.01325 ], [ -105.53984, 40.0129 ], [ -105.54569, 40.01275 ], [ -105.54751, 40.01186 ], [ -105.55012, 40.01166 ], [ -105.55038, 40.01133 ], [ -105.55031, 40.01032 ], [ -105.55131, 40.00975 ], [ -105.55219, 40.01003 ], [ -105.55307, 40.01094 ], [ -105.5556, 40.01166 ], [ -105.55748, 40.01332 ], [ -105.56029, 40.01455 ], [ -105.56061, 40.01646 ], [ -105.56036, 40.01802 ], [ -105.56066, 40.01955 ], [ -105.56046, 40.02137 ], [ -105.56119, 40.02292 ], [ -105.56276, 40.02448 ], [ -105.56428, 40.02526 ], [ -105.56556, 40.02674 ], [ -105.56925, 40.02904 ], [ -105.56992, 40.02891 ], [ -105.57113, 40.02758 ], [ -105.57431, 40.02803 ], [ -105.57576, 40.02877 ], [ -105.57746, 40.028 ], [ -105.5796, 40.02851 ], [ -105.58299, 40.02832 ], [ -105.5903, 40.02862 ], [ -105.59135, 40.02831 ], [ -105.59658, 40.02878 ], [ -105.59936, 40.02832 ], [ -105.60022, 40.02902 ], [ -105.6052, 40.0288 ], [ -105.60915, 40.0306 ], [ -105.61356, 40.02904 ], [ -105.61544, 40.0296 ], [ -105.61749, 40.02957 ], [ -105.62119, 40.03072 ], [ -105.62423, 40.02959 ], [ -105.6269, 40.02747 ], [ -105.62983, 40.02689 ], [ -105.63539, 40.0247 ], [ -105.63681, 40.02363 ], [ -105.638, 40.02176 ], [ -105.63861, 40.02151 ], [ -105.64066, 40.02155 ], [ -105.64795, 40.02323 ], [ -105.65279, 40.02377 ], [ -105.65287, 40.02195 ], [ -105.65191, 40.0209 ], [ -105.6588, 40.01911 ], [ -105.66019, 40.01835 ], [ -105.66161, 40.01647 ], [ -105.6671, 40.01632 ], [ -105.67014, 40.01688 ], [ -105.67531, 40.01598 ], [ -105.67798, 40.01454 ], [ -105.68072, 40.01401 ], [ -105.68305, 40.01414 ], [ -105.68491, 40.01461 ], [ -105.68783, 40.01598 ], [ -105.68889, 40.01598 ], [ -105.68967, 40.01554 ], [ -105.68982, 40.01511 ], [ -105.68963, 40.01388 ], [ -105.68985, 40.01166 ], [ -105.68934, 40.01103 ], [ -105.69002, 40.00911 ], [ -105.68979, 40.00844 ], [ -105.68847, 40.00695 ], [ -105.68977, 40.00596 ], [ -105.69105, 40.00376 ], [ -105.69044, 40.00138 ], [ -105.69117, 39.99952 ], [ -105.69119, 39.99731 ], [ -105.69059, 39.99628 ], [ -105.68904, 39.99537 ], [ -105.68501, 39.99452 ], [ -105.68321, 39.99465 ], [ -105.68316, 39.99288 ], [ -105.68391, 39.99163 ], [ -105.68597, 39.98974 ], [ -105.6862, 39.98904 ], [ -105.68605, 39.98748 ], [ -105.68748, 39.98542 ], [ -105.68497, 39.98287 ], [ -105.68549, 39.98063 ], [ -105.6849, 39.97945 ], [ -105.68625, 39.97837 ], [ -105.68638, 39.97772 ], [ -105.68841, 39.97543 ], [ -105.68968, 39.971 ], [ -105.69034, 39.96986 ], [ -105.68857, 39.96709 ], [ -105.68928, 39.96414 ], [ -105.68833, 39.96288 ], [ -105.68824, 39.95976 ], [ -105.68511, 39.95874 ], [ -105.68838, 39.95653 ], [ -105.68864, 39.95587 ], [ -105.68851, 39.95483 ], [ -105.68914, 39.9537 ], [ -105.6912, 39.95299 ], [ -105.69366, 39.95115 ], [ -105.69435, 39.95015 ], [ -105.69376, 39.94868 ], [ -105.69281, 39.94816 ], [ -105.69176, 39.94642 ], [ -105.69345, 39.94402 ], [ -105.69369, 39.94241 ], [ -105.6932, 39.94124 ], [ -105.6903, 39.93953 ], [ -105.68995, 39.93881 ], [ -105.68662, 39.93747 ], [ -105.6834, 39.93411 ], [ -105.68171, 39.93341 ], [ -105.67894, 39.93286 ], [ -105.67513, 39.93332 ], [ -105.6758, 39.93245 ], [ -105.62877, 39.93209 ], [ -105.62567, 39.93239 ], [ -105.45735, 39.93219 ], [ -105.45539, 39.93237 ], [ -105.45387, 39.93403 ], [ -105.44948, 39.93521 ], [ -105.44707, 39.93691 ], [ -105.44494, 39.93715 ], [ -105.44317, 39.93802 ], [ -105.44003, 39.93839 ], [ -105.43847, 39.93753 ], [ -105.43813, 39.93673 ], [ -105.43729, 39.93609 ], [ -105.43611, 39.93575 ], [ -105.43557, 39.93502 ], [ -105.43255, 39.93341 ], [ -105.4307, 39.93169 ], [ -105.42755, 39.93105 ], [ -105.42206, 39.93163 ], [ -105.42081, 39.9309 ], [ -105.41884, 39.92867 ], [ -105.41733, 39.93067 ], [ -105.41537, 39.93171 ], [ -105.41506, 39.93217 ], [ -105.41503, 39.93324 ], [ -105.41372, 39.93449 ], [ -105.41302, 39.9344 ], [ -105.41259, 39.93353 ], [ -105.41134, 39.93261 ], [ -105.40642, 39.9317 ], [ -105.40466, 39.93242 ], [ -105.40084, 39.93503 ], [ -105.39853, 39.93481 ] ] ] } },
{ "type": "Feature", "properties": { "tract2000": "08013012205", "children_2000": 125, "children_2020": 146.0, "change": 21.0, "pct_change": 16.8, "people_per_sq_mi_2000": 6380.0 }, "geometry": { "type": "Polygon", "coordinates": [ [ [ -105.28339, 40.01317 ], [ -105.28228, 40.01049 ], [ -105.27363, 40.01052 ], [ -105.27256, 40.01107 ], [ -105.27256, 40.01615 ], [ -105.27448, 40.02224 ], [ -105.27971, 40.0212 ], [ -105.28054, 40.02377 ], [ -105.28028, 40.02675 ], [ -105.28556, 40.02672 ], [ -105.28563, 40.02315 ], [ -105.28486, 40.02177 ], [ -105.2849, 40.02038 ], [ -105.28323, 40.01505 ], [ -105.28339, 40.01317 ] ] ] } },
{ "type": "Feature", "properties": { "tract2000": "08013012903", "children_2000": 254, "children_2020": 378.0, "change": 124.0, "pct_change": 48.8, "people_per_sq_mi_2000": 1037.0 }, "geometry": { "type": "Polygon", "coordinates": [ [ [ -105.13105, 40.00016 ], [ -105.10282, 40.00021 ], [ -105.10292, 40.015 ], [ -105.10442, 40.01475 ], [ -105.13111, 40.0147 ], [ -105.13105, 40.00016 ] ] ] } },
{ "type": "Feature", "properties": { "tract2000": "08013012501", "children_2000": 356, "children_2020": 294.0, "change": -62.0, "pct_change": -17.4, "people_per_sq_mi_2000": 1890.0 }, "geometry": { "type": "Polygon", "coordinates": [ [ [ -105.21282, 39.98973 ], [ -105.21245, 39.99408 ], [ -105.2128, 40.00009 ], [ -105.23157, 40.00014 ], [ -105.23229, 39.99987 ], [ -105.23158, 39.99734 ], [ -105.23158, 39.98668 ], [ -105.23124, 39.98582 ], [ -105.23061, 39.98546 ], [ -105.23049, 39.98473 ], [ -105.21283, 39.97656 ], [ -105.21282, 39.98973 ] ] ] } },
{ "type": "Feature", "properties": { "tract2000": "08013012603", "children_2000": 597, "children_2020": 480.0, "change": -117.0, "pct_change": -19.6, "people_per_sq_mi_2000": 5301.0 }, "geometry": { "type": "Polygon", "coordinates": [ [ [ -105.22541, 40.01474 ], [ -105.2407, 40.01469 ], [ -105.24033, 40.01326 ], [ -105.24035, 40.0104 ], [ -105.23986, 40.00895 ], [ -105.23272, 40.00016 ], [ -105.22535, 40.00011 ], [ -105.22541, 40.01474 ] ] ] } },
{ "type": "Feature", "properties": { "tract2000": "08013012401", "children_2000": 180, "children_2020": 267.0, "change": 87.0, "pct_change": 48.3, "people_per_sq_mi_2000": 12112.0 }, "geometry": { "type": "Polygon", "coordinates": [ [ [ -105.26357, 40.00014 ], [ -105.26556, 40.00265 ], [ -105.26826, 40.00366 ], [ -105.27465, 40.00723 ], [ -105.27692, 40.01049 ], [ -105.28228, 40.01049 ], [ -105.282, 40.00984 ], [ -105.28194, 40.00007 ], [ -105.26357, 40.00014 ] ] ] } },
{ "type": "Feature", "properties": { "tract2000": "08013012300", "children_2000": 187, "children_2020": 66.0, "change": -121.0, "pct_change": -64.7, "people_per_sq_mi_2000": 13505.0 }, "geometry": { "type": "Polygon", "coordinates": [ [ [ -105.26413, 40.00955 ], [ -105.26317, 40.01179 ], [ -105.26303, 40.01453 ], [ -105.27255, 40.01459 ], [ -105.27263, 40.01096 ], [ -105.27363, 40.01052 ], [ -105.27692, 40.01049 ], [ -105.27463, 40.00721 ], [ -105.26826, 40.00366 ], [ -105.26556, 40.00265 ], [ -105.26357, 40.00014 ], [ -105.26059, 40.00044 ], [ -105.25783, 40.00033 ], [ -105.25855, 40.00206 ], [ -105.25859, 40.00816 ], [ -105.26394, 40.00822 ], [ -105.26413, 40.00955 ] ] ] } },
{ "type": "Feature", "properties": { "tract2000": "08013012202", "children_2000": 142, "children_2020": 195.0, "change": 53.0, "pct_change": 37.3, "people_per_sq_mi_2000": 8966.0 }, "geometry": { "type": "Polygon", "coordinates": [ [ [ -105.25826, 40.01575 ], [ -105.25838, 40.02551 ], [ -105.27448, 40.02224 ], [ -105.27274, 40.01717 ], [ -105.27255, 40.01459 ], [ -105.26303, 40.01453 ], [ -105.26317, 40.01179 ], [ -105.26412, 40.00984 ], [ -105.26394, 40.00822 ], [ -105.25859, 40.00816 ], [ -105.25826, 40.01575 ] ] ] } },
{ "type": "Feature", "properties": { "tract2000": "08013012102", "children_2000": 846, "children_2020": 994.0, "change": 148.0, "pct_change": 17.5, "people_per_sq_mi_2000": 6263.0 }, "geometry": { "type": "Polygon", "coordinates": [ [ [ -105.28207, 40.03642 ], [ -105.28209, 40.02674 ], [ -105.28028, 40.02675 ], [ -105.28054, 40.02377 ], [ -105.27971, 40.0212 ], [ -105.25838, 40.02551 ], [ -105.25845, 40.03647 ], [ -105.28207, 40.03642 ] ] ] } },
{ "type": "Feature", "properties": { "tract2000": "08013012105", "children_2000": 757, "children_2020": 1204.0, "change": 447.0, "pct_change": 59.0, "people_per_sq_mi_2000": 4586.0 }, "geometry": { "type": "Polygon", "coordinates": [ [ [ -105.28207, 40.03642 ], [ -105.27269, 40.03641 ], [ -105.27273, 40.05464 ], [ -105.26511, 40.0547 ], [ -105.2808, 40.06444 ], [ -105.28235, 40.06618 ], [ -105.28199, 40.06463 ], [ -105.28207, 40.03642 ] ] ] } },
{ "type": "Feature", "properties": { "tract2000": "08013013007", "children_2000": 461, "children_2020": 380.0, "change": -81.0, "pct_change": -17.6, "people_per_sq_mi_2000": 1172.0 }, "geometry": { "type": "Polygon", "coordinates": [ [ [ -105.16555, 39.95786 ], [ -105.1603, 39.95535 ], [ -105.1595, 39.95553 ], [ -105.15901, 39.95515 ], [ -105.15618, 39.95608 ], [ -105.15514, 39.95607 ], [ -105.15486, 39.95665 ], [ -105.15377, 39.95681 ], [ -105.1534, 39.95742 ], [ -105.1523, 39.95776 ], [ -105.15034, 39.95629 ], [ -105.14913, 39.95601 ], [ -105.14825, 39.95618 ], [ -105.14615, 39.95755 ], [ -105.14486, 39.95794 ], [ -105.10933, 39.9579 ], [ -105.10926, 39.97241 ], [ -105.12252, 39.97256 ], [ -105.12221, 39.972 ], [ -105.12299, 39.97216 ], [ -105.1235, 39.97155 ], [ -105.12453, 39.97162 ], [ -105.12532, 39.97101 ], [ -105.12599, 39.97105 ], [ -105.12625, 39.97047 ], [ -105.12739, 39.97017 ], [ -105.12818, 39.96915 ], [ -105.13103, 39.96845 ], [ -105.13287, 39.96718 ], [ -105.13292, 39.96873 ], [ -105.14101, 39.96866 ], [ -105.14195, 39.96814 ], [ -105.14207, 39.96564 ], [ -105.14278, 39.96515 ], [ -105.15853, 39.96503 ], [ -105.16139, 39.96419 ], [ -105.1633, 39.96403 ], [ -105.16355, 39.96279 ], [ -105.16497, 39.96051 ], [ -105.16555, 39.95786 ] ] ] } },
{ "type": "Feature", "properties": { "tract2000": "08013012104", "children_2000": 586, "children_2020": 446.0, "change": -140.0, "pct_change": -23.9, "people_per_sq_mi_2000": 2298.0 }, "geometry": { "type": "Polygon", "coordinates": [ [ [ -105.29269, 40.04092 ], [ -105.28208, 40.04092 ], [ -105.28212, 40.06183 ], [ -105.28632, 40.06186 ], [ -105.2912, 40.06407 ], [ -105.29297, 40.06418 ], [ -105.29501, 40.06374 ], [ -105.2956, 40.05977 ], [ -105.29567, 40.05514 ], [ -105.29543, 40.05345 ], [ -105.29445, 40.05152 ], [ -105.29532, 40.04787 ], [ -105.297, 40.04343 ], [ -105.29652, 40.043 ], [ -105.29657, 40.04267 ], [ -105.29566, 40.04227 ], [ -105.29474, 40.04127 ], [ -105.29269, 40.04092 ] ] ] } },
{ "type": "Feature", "properties": { "tract2000": "08013012904", "children_2000": 973, "children_2020": 906.0, "change": -67.0, "pct_change": -6.9, "people_per_sq_mi_2000": 3824.0 }, "geometry": { "type": "Polygon", "coordinates": [ [ [ -105.13105, 40.00016 ], [ -105.13049, 39.99889 ], [ -105.12856, 39.99704 ], [ -105.12799, 39.99584 ], [ -105.1279, 39.98695 ], [ -105.09833, 39.98705 ], [ -105.09828, 39.98886 ], [ -105.09872, 39.99018 ], [ -105.10305, 39.99517 ], [ -105.10282, 40.00021 ], [ -105.13105, 40.00016 ] ] ] } },
{ "type": "Feature", "properties": { "tract2000": "08013012707", "children_2000": 362, "children_2020": 292.0, "change": -70.0, "pct_change": -19.3, "people_per_sq_mi_2000": 159.0 }, "geometry": { "type": "Polygon", "coordinates": [ [ [ -105.23485, 40.03552 ], [ -105.23522, 40.03495 ], [ -105.23456, 40.0334 ], [ -105.23461, 40.02923 ], [ -105.22538, 40.02923 ], [ -105.22565, 40.02815 ], [ -105.22474, 40.02702 ], [ -105.22542, 40.0245 ], [ -105.22541, 40.01474 ], [ -105.13111, 40.0147 ], [ -105.13118, 40.04783 ], [ -105.1368, 40.04764 ], [ -105.13795, 40.0486 ], [ -105.14002, 40.04846 ], [ -105.14248, 40.04957 ], [ -105.14398, 40.04901 ], [ -105.14441, 40.0493 ], [ -105.14438, 40.04966 ], [ -105.14334, 40.05003 ], [ -105.14445, 40.05059 ], [ -105.14637, 40.04988 ], [ -105.14855, 40.05067 ], [ -105.15084, 40.05092 ], [ -105.15123, 40.05173 ], [ -105.15025, 40.05222 ], [ -105.15084, 40.05316 ], [ -105.15399, 40.05136 ], [ -105.1572, 40.05177 ], [ -105.15901, 40.05092 ], [ -105.15989, 40.05146 ], [ -105.16084, 40.05299 ], [ -105.16142, 40.05313 ], [ -105.16419, 40.05203 ], [ -105.16624, 40.05215 ], [ -105.16784, 40.05154 ], [ -105.16986, 40.05135 ], [ -105.17056, 40.05147 ], [ -105.17182, 40.05239 ], [ -105.17282, 40.0516 ], [ -105.17607, 40.0513 ], [ -105.17826, 40.05174 ], [ -105.17831, 40.0529 ], [ -105.18085, 40.05297 ], [ -105.18375, 40.05234 ], [ -105.18607, 40.05128 ], [ -105.18744, 40.05101 ], [ -105.23286, 40.0511 ], [ -105.23813, 40.04683 ], [ -105.24273, 40.04058 ], [ -105.24177, 40.04014 ], [ -105.23354, 40.04015 ], [ -105.23476, 40.03834 ], [ -105.23485, 40.03552 ] ] ] } },
{ "type": "Feature", "properties": { "tract2000": "08013012511", "children_2000": 299, "children_2020": 329.0, "change": 30.0, "pct_change": 10.0, "people_per_sq_mi_2000": 4285.0 }, "geometry": { "type": "Polygon", "coordinates": [ [ [ -105.2316, 39.99764 ], [ -105.23232, 39.99975 ], [ -105.23157, 40.00014 ], [ -105.25383, 40.00005 ], [ -105.25783, 40.00033 ], [ -105.25623, 39.99891 ], [ -105.23777, 39.98822 ], [ -105.23049, 39.98473 ], [ -105.23061, 39.98546 ], [ -105.23124, 39.98582 ], [ -105.23158, 39.98668 ], [ -105.2316, 39.99764 ] ] ] } },
{ "type": "Feature", "properties": { "tract2000": "08013012606", "children_2000": 388, "children_2020": 348.0, "change": -40.0, "pct_change": -10.3, "people_per_sq_mi_2000": 11391.0 }, "geometry": { "type": "Polygon", "coordinates": [ [ [ -105.23272, 40.00016 ], [ -105.23964, 40.00858 ], [ -105.24254, 40.00765 ], [ -105.24571, 40.0074 ], [ -105.24571, 40.00765 ], [ -105.24655, 40.00713 ], [ -105.25392, 40.00745 ], [ -105.25859, 40.00816 ], [ -105.25855, 40.00206 ], [ -105.25783, 40.00033 ], [ -105.25383, 40.00005 ], [ -105.23272, 40.00016 ] ] ] } },
{ "type": "Feature", "properties": { "tract2000": "08013012709", "children_2000": 402, "children_2020": 311.0, "change": -91.0, "pct_change": -22.6, "people_per_sq_mi_2000": 511.0 }, "geometry": { "type": "Polygon", "coordinates": [ [ [ -105.1785, 40.07272 ], [ -105.17826, 40.05174 ], [ -105.17564, 40.05126 ], [ -105.17333, 40.05147 ], [ -105.17167, 40.05238 ], [ -105.17056, 40.05147 ], [ -105.16986, 40.05135 ], [ -105.16784, 40.05154 ], [ -105.16624, 40.05215 ], [ -105.16419, 40.05203 ], [ -105.16142, 40.05313 ], [ -105.16084, 40.05299 ], [ -105.15989, 40.05146 ], [ -105.15901, 40.05092 ], [ -105.1572, 40.05177 ], [ -105.15399, 40.05136 ], [ -105.15084, 40.05316 ], [ -105.15025, 40.05222 ], [ -105.15123, 40.05173 ], [ -105.15084, 40.05092 ], [ -105.14855, 40.05067 ], [ -105.14637, 40.04988 ], [ -105.14445, 40.05059 ], [ -105.14334, 40.05003 ], [ -105.14438, 40.04966 ], [ -105.14441, 40.0493 ], [ -105.14398, 40.04901 ], [ -105.14248, 40.04957 ], [ -105.14002, 40.04846 ], [ -105.13795, 40.0486 ], [ -105.1368, 40.04764 ], [ -105.13118, 40.04783 ], [ -105.13127, 40.07281 ], [ -105.1785, 40.07272 ] ] ] } },
{ "type": "Feature", "properties": { "tract2000": "08013012905", "children_2000": 519, "children_2020": 425.0, "change": -94.0, "pct_change": -18.1, "people_per_sq_mi_2000": 5013.0 }, "geometry": { "type": "Polygon", "coordinates": [ [ [ -105.10282, 40.00021 ], [ -105.10305, 39.99517 ], [ -105.09872, 39.99018 ], [ -105.09828, 39.98886 ], [ -105.09833, 39.98705 ], [ -105.09053, 39.98697 ], [ -105.09049, 40.00024 ], [ -105.10282, 40.00021 ] ] ] } },
{ "type": "Feature", "properties": { "tract2000": "08013012106", "children_2000": 735, "children_2020": 532.0, "change": -203.0, "pct_change": -27.6, "people_per_sq_mi_2000": 4397.0 }, "geometry": { "type": "Polygon", "coordinates": [ [ [ -105.25861, 40.03646 ], [ -105.25858, 40.04745 ], [ -105.2591, 40.0494 ], [ -105.26007, 40.05098 ], [ -105.26177, 40.05258 ], [ -105.26511, 40.0547 ], [ -105.27273, 40.05464 ], [ -105.27269, 40.03641 ], [ -105.25861, 40.03646 ] ] ] } },
{ "type": "Feature", "properties": { "tract2000": "08013012908", "children_2000": 1258, "children_2020": 1596.0, "change": 338.0, "pct_change": 26.9, "people_per_sq_mi_2000": 1085.0 }, "geometry": { "type": "Polygon", "coordinates": [ [ [ -105.0905, 39.97976 ], [ -105.09084, 39.97895 ], [ -105.09014, 39.97602 ], [ -105.09057, 39.97608 ], [ -105.0901, 39.97474 ], [ -105.09025, 39.95778 ], [ -105.05274, 39.95769 ], [ -105.05282, 40.00026 ], [ -105.09049, 40.00024 ], [ -105.0905, 39.97976 ] ] ] } },
{ "type": "Feature", "properties": { "tract2000": "08013013003", "children_2000": 919, "children_2020": 1374.0, "change": 455.0, "pct_change": 49.5, "people_per_sq_mi_2000": 981.0 }, "geometry": { "type": "Polygon", "coordinates": [ [ [ -105.13109, 40.00154 ], [ -105.13111, 40.0147 ], [ -105.17827, 40.01463 ], [ -105.17816, 40.00014 ], [ -105.17494, 40.00017 ], [ -105.17538, 39.98681 ], [ -105.1279, 39.98695 ], [ -105.12799, 39.99584 ], [ -105.12856, 39.99704 ], [ -105.1307, 39.9992 ], [ -105.13109, 40.00154 ] ] ] } },
{ "type": "Feature", "properties": { "tract2000": "08013013104", "children_2000": 1133, "children_2020": 1061.0, "change": -72.0, "pct_change": -6.4, "people_per_sq_mi_2000": 1647.0 }, "geometry": { "type": "Polygon", "coordinates": [ [ [ -105.05274, 39.95769 ], [ -105.09025, 39.95778 ], [ -105.0902, 39.94578 ], [ -105.09061, 39.93836 ], [ -105.09064, 39.92884 ], [ -105.08468, 39.92883 ], [ -105.08468, 39.9305 ], [ -105.0836, 39.93056 ], [ -105.08132, 39.93055 ], [ -105.07909, 39.93015 ], [ -105.07806, 39.92943 ], [ -105.07787, 39.92884 ], [ -105.07187, 39.92885 ], [ -105.07196, 39.94329 ], [ -105.0529, 39.94319 ], [ -105.05274, 39.95769 ] ] ] } },
{ "type": "Feature", "properties": { "tract2000": "08013013006", "children_2000": 1319, "children_2020": 1079.0, "change": -240.0, "pct_change": -18.2, "people_per_sq_mi_2000": 4558.0 }, "geometry": { "type": "Polygon", "coordinates": [ [ [ -105.12788, 39.97724 ], [ -105.1302, 39.97685 ], [ -105.14119, 39.97686 ], [ -105.14683, 39.97453 ], [ -105.14903, 39.97438 ], [ -105.15226, 39.9746 ], [ -105.15394, 39.97679 ], [ -105.16245, 39.97387 ], [ -105.16438, 39.97257 ], [ -105.16336, 39.9709 ], [ -105.1633, 39.96403 ], [ -105.16139, 39.96419 ], [ -105.15853, 39.96503 ], [ -105.14278, 39.96515 ], [ -105.14207, 39.96564 ], [ -105.14195, 39.96814 ], [ -105.14101, 39.96866 ], [ -105.13292, 39.96873 ], [ -105.13287, 39.96718 ], [ -105.13103, 39.96845 ], [ -105.12818, 39.96915 ], [ -105.12739, 39.97017 ], [ -105.12625, 39.97047 ], [ -105.12599, 39.97105 ], [ -105.12532, 39.97101 ], [ -105.12467, 39.97158 ], [ -105.12401, 39.97164 ], [ -105.12398, 39.97242 ], [ -105.12782, 39.97255 ], [ -105.12788, 39.97724 ] ] ] } },
{ "type": "Feature", "properties": { "tract2000": "08013012203", "children_2000": 741, "children_2020": 885.0, "change": 144.0, "pct_change": 19.4, "people_per_sq_mi_2000": 2379.0 }, "geometry": { "type": "Polygon", "coordinates": [ [ [ -105.23485, 40.03552 ], [ -105.23476, 40.03834 ], [ -105.23354, 40.04015 ], [ -105.24177, 40.04014 ], [ -105.2422, 40.04039 ], [ -105.24321, 40.0391 ], [ -105.24471, 40.03832 ], [ -105.25311, 40.03797 ], [ -105.25845, 40.03647 ], [ -105.25831, 40.01469 ], [ -105.22541, 40.01474 ], [ -105.22542, 40.0245 ], [ -105.22474, 40.02702 ], [ -105.22565, 40.02815 ], [ -105.22538, 40.02923 ], [ -105.23461, 40.02923 ], [ -105.23456, 40.0334 ], [ -105.23522, 40.03495 ], [ -105.23485, 40.03552 ] ] ] } },
{ "type": "Feature", "properties": { "tract2000": "08013012510", "children_2000": 657, "children_2020": 660.0, "change": 3.0, "pct_change": 0.5, "people_per_sq_mi_2000": 221.0 }, "geometry": { "type": "Polygon", "coordinates": [ [ [ -105.24134, 39.97259 ], [ -105.2418, 39.97188 ], [ -105.24246, 39.97156 ], [ -105.24596, 39.97137 ], [ -105.24702, 39.9703 ], [ -105.24787, 39.97047 ], [ -105.24926, 39.97013 ], [ -105.25207, 39.97105 ], [ -105.25222, 39.97212 ], [ -105.2519, 39.9727 ], [ -105.25252, 39.97299 ], [ -105.25389, 39.97294 ], [ -105.25533, 39.97184 ], [ -105.26011, 39.97184 ], [ -105.26013, 39.97989 ], [ -105.25989, 39.98012 ], [ -105.26226, 39.97936 ], [ -105.26412, 39.97809 ], [ -105.26547, 39.97709 ], [ -105.26683, 39.97494 ], [ -105.26861, 39.97365 ], [ -105.27016, 39.973 ], [ -105.27154, 39.97324 ], [ -105.27278, 39.97269 ], [ -105.27393, 39.97301 ], [ -105.27663, 39.97451 ], [ -105.27921, 39.97506 ], [ -105.28155, 39.97502 ], [ -105.28439, 39.97261 ], [ -105.28927, 39.97159 ], [ -105.29085, 39.97155 ], [ -105.29368, 39.97014 ], [ -105.29867, 39.96902 ], [ -105.30074, 39.96996 ], [ -105.30314, 39.97005 ], [ -105.3037, 39.97085 ], [ -105.30531, 39.97153 ], [ -105.30533, 39.97267 ], [ -105.30627, 39.97227 ], [ -105.30741, 39.97243 ], [ -105.30842, 39.97536 ], [ -105.31015, 39.97646 ], [ -105.31483, 39.97713 ], [ -105.31742, 39.97905 ], [ -105.31911, 39.97973 ], [ -105.3232, 39.97999 ], [ -105.32714, 39.9815 ], [ -105.33018, 39.9804 ], [ -105.33316, 39.98009 ], [ -105.33493, 39.97611 ], [ -105.33606, 39.97557 ], [ -105.33607, 39.97337 ], [ -105.33749, 39.97166 ], [ -105.3375, 39.96999 ], [ -105.33832, 39.96944 ], [ -105.33932, 39.96952 ], [ -105.33895, 39.96889 ], [ -105.33804, 39.96835 ], [ -105.33845, 39.96738 ], [ -105.33733, 39.96627 ], [ -105.33835, 39.9658 ], [ -105.33802, 39.96404 ], [ -105.33894, 39.96122 ], [ -105.33816, 39.96005 ], [ -105.33816, 39.95807 ], [ -105.33749, 39.95752 ], [ -105.33705, 39.956 ], [ -105.33581, 39.95639 ], [ -105.33468, 39.95598 ], [ -105.33461, 39.95642 ], [ -105.33514, 39.95703 ], [ -105.33484, 39.95721 ], [ -105.33405, 39.95676 ], [ -105.3323, 39.95655 ], [ -105.33173, 39.95591 ], [ -105.33084, 39.95564 ], [ -105.33048, 39.95585 ], [ -105.3314, 39.95636 ], [ -105.33134, 39.95663 ], [ -105.32705, 39.95559 ], [ -105.32582, 39.95573 ], [ -105.32369, 39.95264 ], [ -105.32011, 39.95272 ], [ -105.31972, 39.95178 ], [ -105.31804, 39.95029 ], [ -105.31836, 39.94931 ], [ -105.31738, 39.94844 ], [ -105.31748, 39.94724 ], [ -105.31577, 39.94652 ], [ -105.31563, 39.94579 ], [ -105.31593, 39.94491 ], [ -105.31455, 39.9436 ], [ -105.31567, 39.94274 ], [ -105.3143, 39.94047 ], [ -105.31346, 39.93725 ], [ -105.31362, 39.93698 ], [ -105.31484, 39.93684 ], [ -105.31534, 39.93581 ], [ -105.31427, 39.93538 ], [ -105.31297, 39.93578 ], [ -105.31071, 39.9353 ], [ -105.30803, 39.93359 ], [ -105.30829, 39.93278 ], [ -105.30872, 39.93249 ], [ -105.31019, 39.93444 ], [ -105.3129, 39.93534 ], [ -105.31318, 39.93488 ], [ -105.31414, 39.93464 ], [ -105.31566, 39.93291 ], [ -105.3171, 39.93211 ], [ -105.31782, 39.93096 ], [ -105.3193, 39.93003 ], [ -105.31906, 39.92819 ], [ -105.32032, 39.92809 ], [ -105.32097, 39.92739 ], [ -105.3209, 39.92655 ], [ -105.32221, 39.92627 ], [ -105.32255, 39.92588 ], [ -105.32296, 39.92424 ], [ -105.32254, 39.92272 ], [ -105.32274, 39.92203 ], [ -105.32204, 39.92105 ], [ -105.32182, 39.92009 ], [ -105.3147, 39.91388 ], [ -105.28265, 39.91369 ], [ -105.26494, 39.91419 ], [ -105.24538, 39.91408 ], [ -105.23893, 39.91437 ], [ -105.23485, 39.92437 ], [ -105.2344, 39.92622 ], [ -105.23457, 39.92819 ], [ -105.23672, 39.93555 ], [ -105.23559, 39.94191 ], [ -105.23577, 39.94349 ], [ -105.23651, 39.94563 ], [ -105.23653, 39.94683 ], [ -105.23604, 39.94789 ], [ -105.23372, 39.95055 ], [ -105.23148, 39.95434 ], [ -105.2312, 39.95566 ], [ -105.23193, 39.95746 ], [ -105.23552, 39.96035 ], [ -105.23715, 39.96257 ], [ -105.23778, 39.96557 ], [ -105.23691, 39.96977 ], [ -105.23699, 39.97116 ], [ -105.23761, 39.9722 ], [ -105.24087, 39.97563 ], [ -105.24127, 39.97507 ], [ -105.24134, 39.97259 ] ] ] } },
{ "type": "Feature", "properties": { "tract2000": "08013013111", "children_2000": 775, "children_2020": 474.0, "change": -301.0, "pct_change": -38.8, "people_per_sq_mi_2000": 3298.0 }, "geometry": { "type": "Polygon", "coordinates": [ [ [ -105.05961, 39.92897 ], [ -105.07187, 39.92885 ], [ -105.07182, 39.91436 ], [ -105.05296, 39.91422 ], [ -105.05309, 39.93194 ], [ -105.0554, 39.93193 ], [ -105.05961, 39.92897 ] ] ] } },
{ "type": "Feature", "properties": { "tract2000": "08013013110", "children_2000": 634, "children_2020": 541.0, "change": -93.0, "pct_change": -14.7, "people_per_sq_mi_2000": 5717.0 }, "geometry": { "type": "Polygon", "coordinates": [ [ [ -105.07183, 39.92509 ], [ -105.07492, 39.92481 ], [ -105.08423, 39.9225 ], [ -105.09063, 39.92208 ], [ -105.09088, 39.91836 ], [ -105.09045, 39.9143 ], [ -105.07182, 39.91436 ], [ -105.07183, 39.92509 ] ] ] } },
{ "type": "Feature", "properties": { "tract2000": "08013013109", "children_2000": 478, "children_2020": 330.0, "change": -148.0, "pct_change": -31.0, "people_per_sq_mi_2000": 5705.0 }, "geometry": { "type": "Polygon", "coordinates": [ [ [ -105.09064, 39.92884 ], [ -105.09063, 39.92208 ], [ -105.08423, 39.9225 ], [ -105.07492, 39.92481 ], [ -105.07183, 39.92509 ], [ -105.07187, 39.92885 ], [ -105.07787, 39.92884 ], [ -105.07806, 39.92943 ], [ -105.07909, 39.93015 ], [ -105.08132, 39.93055 ], [ -105.08456, 39.93056 ], [ -105.08468, 39.92883 ], [ -105.09064, 39.92884 ] ] ] } },
{ "type": "Feature", "properties": { "tract2000": "08013013108", "children_2000": 908, "children_2020": 718.0, "change": -190.0, "pct_change": -20.9, "people_per_sq_mi_2000": 4052.0 }, "geometry": { "type": "Polygon", "coordinates": [ [ [ -105.0554, 39.93193 ], [ -105.05309, 39.93194 ], [ -105.05306, 39.94318 ], [ -105.07196, 39.94329 ], [ -105.07187, 39.92885 ], [ -105.05961, 39.92897 ], [ -105.0554, 39.93193 ] ] ] } }
]
}
