{"type": "FeatureCollection", "crs": {"type": "name", "properties": {"name": "EPSG:4326"}}, "features": [{"type": "Feature", "id": 1, "geometry": {"type": "Polygon", "coordinates": [[[-105.356748405183, 40.14514538846], [-105.356623481866, 40.1354629202071], [-105.356588019074, 40.1334858587486], [-105.356554354709, 40.1306571579198], [-105.356701399937, 40.1235502056329], [-105.347583440515, 40.123633280968], [-105.338347744298, 40.123862807462], [-105.32855675359, 40.1238058813259], [-105.328654981671, 40.1162629212073], [-105.328560412428, 40.1066209798836], [-105.328589805304, 40.1054348068525], [-105.32859847764, 40.1019898258529], [-105.328911565669, 40.1019894864154], [-105.328594176506, 40.1018421593767], [-105.328592069957, 40.1018439706302], [-105.328589964306, 40.1018457811965], [-105.319568094076, 40.1018725521493], [-105.313775342102, 40.1019871776905], [-105.311946589576, 40.1020076085289], [-105.311946505134, 40.102007609216], [-105.311946420693, 40.1020076105902], [-105.309521482363, 40.1020293194659], [-105.306534348685, 40.1020559920884], [-105.305744269613, 40.102063034379], [-105.306067069329, 40.1092518483205], [-105.301193814914, 40.1141724641021], [-105.301353079027, 40.1092843903006], [-105.301224749299, 40.1019133733486], [-105.282208452288, 40.1018283860151], [-105.282205769919, 40.10182599964], [-105.282205316269, 40.1018255956121], [-105.282205119538, 40.1018254210831], [-105.282205053063, 40.1018253613035], [-105.282204986588, 40.1018253028981], [-105.282204921011, 40.1018252438056], [-105.28220472428, 40.1018250685895], [-105.282204406276, 40.1018247861822], [-105.282204202359, 40.1018247868694], [-105.282199777257, 40.1018248047346], [-105.282074508089, 40.0873502073288], [-105.282074506293, 40.0873499832793], [-105.282074504496, 40.0873497578553], [-105.282074500903, 40.0873493083818], [-105.282074492818, 40.0873484087476], [-105.282074477547, 40.087346609479], [-105.281880735194, 40.0873466665223], [-105.28187963925, 40.0873472671949], [-105.281878544203, 40.0873478664929], [-105.281874164018, 40.0873502664338], [-105.279469147627, 40.087350945455], [-105.263493594853, 40.0873541824886], [-105.206813629331, 40.0871937402073], [-105.206848122842, 40.0945139372756], [-105.197342930243, 40.0945603827748], [-105.197369241897, 40.0873361403194], [-105.197405070304, 40.0826299996517], [-105.197446533843, 40.0771829930808], [-105.197411292934, 40.0770340547534], [-105.19746259572, 40.0762475318328], [-105.197188061586, 40.0761124587005], [-105.197345693461, 40.0756770422036], [-105.197375915482, 40.0755951998961], [-105.197453315225, 40.0754561338057], [-105.197745968378, 40.0750327253002], [-105.19780533534, 40.0749507736102], [-105.198012831798, 40.0748120478391], [-105.19760625969, 40.074634030202], [-105.197378667021, 40.0744958035241], [-105.197847766364, 40.0740399030921], [-105.197853455395, 40.0737187814837], [-105.197859598973, 40.0728143699379], [-105.193856530896, 40.0728038222405], [-105.188537569268, 40.0727945077645], [-105.188085446287, 40.0727916474295], [-105.182979756385, 40.0727826532874], [-105.180759622263, 40.0727765339155], [-105.17849895346, 40.0727735354093], [-105.1759525117, 40.0727680539581], [-105.159642382297, 40.072740309862], [-105.150181782068, 40.0727231615853], [-105.1501796324, 40.0727214629803], [-105.150128429327, 40.0726713200898], [-105.150127592995, 40.0726705013768], [-105.150125135205, 40.0726680947315], [-105.150117762731, 40.0726608754827], [-105.150117742968, 40.0726942254911], [-105.150177630953, 40.0727414922171], [-105.150178857154, 40.0727424594112], [-105.150179469805, 40.0727429433519], [-105.150181703017, 40.0727447051985], [-105.15016031952, 40.078589820689], [-105.15006438304, 40.0829766610134], [-105.15005188478, 40.0854092920051], [-105.150046017883, 40.0865511391324], [-105.149978320843, 40.0871466883193], [-105.131462219257, 40.0871880915358], [-105.131398666146, 40.0835606658548], [-105.121825846576, 40.0836909914286], [-105.121773237639, 40.0801257707759], [-105.112997676477, 40.080191232438], [-105.113072004881, 40.0798522187179], [-105.112231143147, 40.0798622140739], [-105.11192264461, 40.0795308062755], [-105.111922626644, 40.079531161634], [-105.111905406838, 40.0798660845073], [-105.102855334899, 40.0799732482064], [-105.102296873846, 40.0801381765971], [-105.093290438469, 40.0800623030297], [-105.083948805727, 40.0803404690384], [-105.082131396228, 40.0803561506778], [-105.079814451566, 40.0803644248633], [-105.079806868887, 40.0792468487839], [-105.07980686709, 40.0792464927365], [-105.074398509616, 40.0792378032556], [-105.074428171987, 40.0770792412293], [-105.074428176479, 40.077078885858], [-105.074477935959, 40.0733382304379], [-105.07447794045, 40.0733378743597], [-105.074460452947, 40.0697997455531], [-105.074460452048, 40.0697993894563], [-105.074470305669, 40.0661092780692], [-105.074470306567, 40.0661089226406], [-105.08398976082, 40.0659564092388], [-105.090821788118, 40.065823335529], [-105.090835729073, 40.063501969189], [-105.09083573087, 40.0635016137468], [-105.090997371926, 40.0585548341228], [-105.090997382705, 40.0585544786548], [-105.091031993895, 40.0549861164826], [-105.09103199659, 40.054985760996], [-105.09114453663, 40.0516204499233], [-105.091144548308, 40.0516200944192], [-105.093428404425, 40.0513645648427], [-105.093428483477, 40.0513645559035], [-105.093197383786, 40.0503096591263], [-105.09319730653, 40.0503093111794], [-105.09394943268, 40.050230885547], [-105.09394976865, 40.0502308504773], [-105.0933334525, 40.0496408489047], [-105.093333226125, 40.0496406316076], [-105.0937302177, 40.0493988435122], [-105.093730451262, 40.0493987011684], [-105.093389324117, 40.0490831977532], [-105.093376857298, 40.0489614889835], [-105.093231922212, 40.0489305623469], [-105.093193434792, 40.0487479289048], [-105.093211407385, 40.0457371358975], [-105.093211409182, 40.0457367803627], [-105.093235609796, 40.043891966954], [-105.093235614287, 40.0438916114095], [-105.07452738552, 40.0442905194384], [-105.074515030092, 40.0399311567612], [-105.074515029194, 40.0399308011961], [-105.074533444657, 40.0369808398745], [-105.074533446454, 40.036980484294], [-105.074541646275, 40.0335539612196], [-105.074541647174, 40.0335536056213], [-105.074526192558, 40.0296910266459], [-105.074526190761, 40.0296906710274], [-105.055495803675, 40.0295073800482], [-105.055327131506, 40.0149257958809], [-105.055327127913, 40.0149254401854], [-105.055325425605, 40.0147782440188], [-105.055325422012, 40.0147778883226], [-105.055159764589, 40.0004507955486], [-105.053001098588, 40.0004770317556], [-105.053006558548, 39.987133029171], [-105.053006738211, 39.9866924967855], [-105.053010640493, 39.9771519016568], [-105.05301083902, 39.9766652375469], [-105.053024204155, 39.9439688991706], [-105.053024204155, 39.943968842696], [-105.05302754499, 39.9434587972734], [-105.053024412564, 39.9434588799197], [-105.053031894632, 39.925139174351], [-105.053570430154, 39.9251299788693], [-105.05303192787, 39.9250600076058], [-105.053036251461, 39.9144697863202], [-105.090214032913, 39.9143328184478], [-105.11166178014, 39.9144071448896], [-105.132217396984, 39.9141993628917], [-105.146910232788, 39.914231067145], [-105.146936632478, 39.9142793765881], [-105.146935497905, 39.914231120199], [-105.147108746991, 39.9142314826198], [-105.216840239155, 39.9141945556454], [-105.217428682379, 39.9141940643788], [-105.26015951654, 39.914150351287], [-105.276507948311, 39.9139411532714], [-105.295640131587, 39.9139421110036], [-105.30479116069, 39.9141099392348], [-105.314073573793, 39.9140847461129], [-105.322697793983, 39.9140070982676], [-105.323345985054, 39.9140080945838], [-105.323876454602, 39.9140089069328], [-105.323942762847, 39.914009008218], [-105.327898511268, 39.9140149881813], [-105.332546266089, 39.9140117015786], [-105.3360354044, 39.9139964454014], [-105.34193408122, 39.913943859726], [-105.346476613677, 39.9138891731991], [-105.351348321193, 39.9138245937212], [-105.360896595196, 39.9136935907695], [-105.368109649211, 39.9135509858515], [-105.370124167948, 39.9135127204328], [-105.393481614892, 39.9132528090935], [-105.396496761634, 39.9132048641086], [-105.39853271058, 39.9132141466307], [-105.398075011757, 39.8545669107192], [-105.537397648695, 39.8535158326399], [-105.537767219197, 39.8824046002687], [-105.700838907457, 39.8789651292159], [-105.69872361661, 39.8814216345448], [-105.698376198564, 39.8836025314875], [-105.698024806371, 39.8844207479493], [-105.699796823999, 39.8855078339261], [-105.699803200241, 39.8876881197799], [-105.700167365579, 39.8912304669444], [-105.697701800941, 39.8950502444677], [-105.695228171228, 39.8961446141553], [-105.69240139671, 39.897512057031], [-105.691345240244, 39.8994215751073], [-105.690645921558, 39.9024206384309], [-105.688174163934, 39.904332461253], [-105.688535557072, 39.9070572368792], [-105.688895469785, 39.9092369392513], [-105.688903763032, 39.9122348274134], [-105.686430113556, 39.9136015412885], [-105.68608362347, 39.9163274667815], [-105.68325656149, 39.9179672176709], [-105.682559613459, 39.9220563701935], [-105.681148106822, 39.9236938165692], [-105.680095544516, 39.9272384371618], [-105.676913890544, 39.9288785846413], [-105.678332724738, 39.9299665421782], [-105.675816332523, 39.9327255804661], [-105.675369255379, 39.9330000092607], [-105.675172694114, 39.9333855823344], [-105.675344193281, 39.9334968480767], [-105.675726230602, 39.93353682162], [-105.67634512312, 39.9334953195869], [-105.677082201591, 39.9333218292302], [-105.678398787743, 39.9331575776118], [-105.679478947193, 39.9332370098326], [-105.680124843069, 39.9334489165769], [-105.680731123241, 39.9336203256925], [-105.681350364305, 39.9337106014237], [-105.681745469418, 39.9337099787331], [-105.682219838279, 39.9338004775226], [-105.683050376573, 39.9341033251962], [-105.683472503908, 39.9343561232633], [-105.683749763531, 39.9346091504585], [-105.684344618929, 39.9354193030248], [-105.685176643935, 39.936259486955], [-105.686471023733, 39.9375957181691], [-105.686814162205, 39.9378486314483], [-105.6870780531, 39.938020561967], [-105.68744731458, 39.9381923219269], [-105.687855979763, 39.9383234598437], [-105.689385058801, 39.9387670624935], [-105.690097345567, 39.9391410236052], [-105.690335445829, 39.9395056272643], [-105.690521117717, 39.9399615654144], [-105.690745738759, 39.940214663489], [-105.690956877885, 39.9403562562021], [-105.691682674414, 39.9408417124451], [-105.692183878647, 39.9410842082018], [-105.693318099609, 39.941599387958], [-105.693701201434, 39.9419941567678], [-105.693926878894, 39.9426122428477], [-105.693732293024, 39.9436670035726], [-105.693510524133, 39.9444277841817], [-105.693195853272, 39.9449453898602], [-105.692867547782, 39.9453007966782], [-105.69259227164, 39.9457777806312], [-105.69208002801, 39.9463058510758], [-105.691948730248, 39.9464581513134], [-105.6918834371, 39.9466610366448], [-105.691975958184, 39.9467724088984], [-105.692108113837, 39.9469242700943], [-105.692610365506, 39.9475216189312], [-105.69294146296, 39.9481496690526], [-105.69302141841, 39.9484739754932], [-105.693588088268, 39.9485541350743], [-105.693878557617, 39.9487868389122], [-105.694076902937, 39.9490501123883], [-105.69438132941, 39.9495565371737], [-105.694461350437, 39.9499011212529], [-105.694344782351, 39.9506008928122], [-105.694056466264, 39.9511285947896], [-105.693636208323, 39.9515855469767], [-105.693162991103, 39.9519513376337], [-105.692321560735, 39.952550932259], [-105.691703673432, 39.9530082061715], [-105.691006478363, 39.953374360386], [-105.690348318687, 39.9535680851902], [-105.689453021743, 39.9537621985134], [-105.688992941485, 39.9541279492967], [-105.688783950231, 39.9547771725888], [-105.688653020778, 39.9550714114832], [-105.688627316385, 39.9553046447177], [-105.688695682669, 39.956206884047], [-105.688604721959, 39.9566632762269], [-105.688079135652, 39.9571710741394], [-105.687553039103, 39.957496372051], [-105.686526987877, 39.9580759474208], [-105.685790714297, 39.9586347679414], [-105.685540968275, 39.9588480847073], [-105.68522515296, 39.9589905360527], [-105.685488929769, 39.959091499216], [-105.686649416572, 39.9594850378527], [-105.687519840065, 39.9597979252701], [-105.688113030884, 39.9599084849865], [-105.688429628632, 39.9600499102463], [-105.688549214159, 39.960414709568], [-105.688523816091, 39.9607594696061], [-105.688446780165, 39.9614895868403], [-105.688422080088, 39.9620878130435], [-105.688608024166, 39.9626248640176], [-105.688530147417, 39.9630508192704], [-105.688675725697, 39.9632837726041], [-105.689032373034, 39.963607628602], [-105.689283756685, 39.9639823496838], [-105.689404732805, 39.9648439450805], [-105.688701232461, 39.9670148836518], [-105.688792943265, 39.9675519964411], [-105.689004977113, 39.967987615371], [-105.68954753529, 39.9688181030172], [-105.689997584061, 39.9695473521094], [-105.690182854402, 39.9698309321523], [-105.690407319137, 39.9699927811541], [-105.689975238468, 39.9709870923918], [-105.689726560543, 39.9715958263858], [-105.689491364534, 39.9723160652966], [-105.689009157873, 39.9742533585157], [-105.688747281001, 39.9748621122965], [-105.688512063432, 39.9755823484542], [-105.688157453474, 39.9760188944112], [-105.687855022158, 39.9762627172683], [-105.687330531797, 39.9772267525759], [-105.686646799779, 39.9777956313378], [-105.686174801573, 39.9786886051881], [-105.685543293115, 39.9790850336462], [-105.685017674469, 39.979653647754], [-105.684965700642, 39.9799274780427], [-105.685111165734, 39.9801097423109], [-105.685428512676, 39.9804945040097], [-105.685521621258, 39.9808086554387], [-105.685431186062, 39.9814779574668], [-105.685314059224, 39.98202563743], [-105.685079578273, 39.9830398883988], [-105.685185814836, 39.9833337420384], [-105.685516301435, 39.9836982051109], [-105.686190325359, 39.9843764144342], [-105.686626290343, 39.9847508427039], [-105.68723399165, 39.9852669317865], [-105.687419097599, 39.9854795446085], [-105.687419571011, 39.9856519032821], [-105.68735433805, 39.9858953393621], [-105.687236217675, 39.9860780282162], [-105.686933904039, 39.9863826810844], [-105.686381854263, 39.9869412048317], [-105.686237671965, 39.9872354615411], [-105.686159280481, 39.9874890557433], [-105.686068233532, 39.9879353080304], [-105.686243263977, 39.9892834772164], [-105.686112754038, 39.9897602094437], [-105.68570544082, 39.9902373863931], [-105.68494289062, 39.9909584618813], [-105.683995729442, 39.9916595503424], [-105.683194335191, 39.9926544224438], [-105.682918500296, 39.9930198543561], [-105.682827127259, 39.9933545774808], [-105.68282821422, 39.9937601249955], [-105.682869390298, 39.9943683835989], [-105.682910023793, 39.9947738679729], [-105.683305863728, 39.994915181869], [-105.684281385618, 39.9949339043658], [-105.685296784621, 39.9950742186657], [-105.686258879392, 39.9950016975855], [-105.687398386042, 39.9951736475305], [-105.68912136913, 39.9957168869033], [-105.690098006727, 39.9961309690676], [-105.690639610893, 39.9965356240372], [-105.691182728721, 39.9974776269806], [-105.691382400852, 39.9981667294556], [-105.691174491169, 39.9992417782736], [-105.691070675567, 39.9998299965783], [-105.690545171906, 40.0004797451098], [-105.690295825634, 40.0008857058619], [-105.690204448105, 40.0012102954616], [-105.690152676398, 40.0015550981387], [-105.690206200718, 40.0018388935449], [-105.690286545139, 40.0022848662834], [-105.690313846737, 40.0026193981152], [-105.690340921061, 40.0028728216597], [-105.690777282202, 40.0033384815213], [-105.690909940911, 40.003632285686], [-105.690687038347, 40.0040686193858], [-105.690174568342, 40.0046777887363], [-105.689912076124, 40.0051040475053], [-105.689623974734, 40.0058040927923], [-105.689334966046, 40.0061797013336], [-105.689045533353, 40.0064032274541], [-105.688216774622, 40.007073738809], [-105.689261122733, 40.0080757624443], [-105.689538899785, 40.0083997453915], [-105.689711316133, 40.0087644552136], [-105.689765605817, 40.0093219950349], [-105.689687681458, 40.0097479495853], [-105.689452127919, 40.0103870759599], [-105.689282188227, 40.0109145682375], [-105.68928286376, 40.0111578963856], [-105.689442043432, 40.0115023515927], [-105.689627960559, 40.0119785654361], [-105.689523718257, 40.0124248400307], [-105.689459001827, 40.0128609111265], [-105.689566374758, 40.0135400280138], [-105.689514956988, 40.0140166328767], [-105.689212924525, 40.0144632312669], [-105.688726735632, 40.0150723512036], [-105.688226707294, 40.0154483009029], [-105.687871021154, 40.0155705442053], [-105.687436022757, 40.0156219461686], [-105.687132745229, 40.0156224387708], [-105.686908332596, 40.015531554284], [-105.686644142563, 40.0153596232708], [-105.68635355284, 40.0151775975414], [-105.686049695, 40.0149651748676], [-105.685561183962, 40.0147327719884], [-105.684703886652, 40.0146530381377], [-105.683991552276, 40.014542650922], [-105.683212881808, 40.0142802846593], [-105.682606012341, 40.0141595815567], [-105.681669963324, 40.0142117537736], [-105.680799570374, 40.0141624278404], [-105.680351202351, 40.0141428526715], [-105.679718556625, 40.0142452273303], [-105.678756609178, 40.0144799126014], [-105.67783400255, 40.0146334204535], [-105.676925524625, 40.0151518912373], [-105.675635237552, 40.015904127555], [-105.675161086084, 40.0161177616032], [-105.674554916405, 40.0162707621659], [-105.673460803423, 40.0164042153847], [-105.672182131566, 40.0165582121919], [-105.67110116992, 40.0166814854782], [-105.669941390989, 40.0169265295249], [-105.669479796172, 40.0168967923221], [-105.668833068456, 40.0166544120332], [-105.668120613706, 40.016493233587], [-105.66717103606, 40.0164236426764], [-105.666248104243, 40.0164655312505], [-105.663321092111, 40.0166015165505], [-105.662266028895, 40.0165320358276], [-105.661541101037, 40.0166648555925], [-105.661001328536, 40.0170306041289], [-105.660527865177, 40.0175584764203], [-105.660213034416, 40.0182584847929], [-105.660068532318, 40.0184918752757], [-105.659739128188, 40.0186038576789], [-105.659067773159, 40.0191015818553], [-105.658330001189, 40.0193966190964], [-105.657552641363, 40.0196815676364], [-105.65627387159, 40.0198353871241], [-105.65527215842, 40.0200496541599], [-105.654112424405, 40.0203655093102], [-105.652807715778, 40.0207220987224], [-105.652293808468, 40.0208951361894], [-105.65191188164, 40.021118691169], [-105.651951849484, 40.0213011351381], [-105.652123552569, 40.0214225733929], [-105.652519733864, 40.0216755171242], [-105.652757693091, 40.0219388091115], [-105.652811123986, 40.0222428981879], [-105.652785227353, 40.0224558464821], [-105.652680999424, 40.0230237500653], [-105.652524066438, 40.0236120021593], [-105.652486046142, 40.0243014833405], [-105.652131426302, 40.024950828353], [-105.651684552178, 40.0256307088668], [-105.651316506118, 40.0261786813698], [-105.650552495257, 40.02658522945], [-105.650196884575, 40.0267986051213], [-105.649736946251, 40.0275494666235], [-105.649751071361, 40.0279752730156], [-105.64948739157, 40.0280161694726], [-105.649237988705, 40.0285538434114], [-105.648843218663, 40.0289598999634], [-105.648211378727, 40.0295183423441], [-105.647185025667, 40.0306146345719], [-105.646144928383, 40.0314676068571], [-105.645171268701, 40.0325638141051], [-105.642604297743, 40.0335286016175], [-105.640791197462, 40.034269301706], [-105.640679394938, 40.0353169614396], [-105.64077306407, 40.0359657215201], [-105.640641875902, 40.0363105976002], [-105.640602995918, 40.0366452212642], [-105.639412084973, 40.0384556590451], [-105.638881176149, 40.0398511937648], [-105.638990773308, 40.0412459551079], [-105.63899244687, 40.042066478912], [-105.638649347923, 40.0423860744261], [-105.638412566387, 40.0427107967615], [-105.638347433139, 40.0431164217321], [-105.638559648447, 40.0436839325524], [-105.638507810265, 40.0441402355653], [-105.638113029444, 40.0446172256566], [-105.637520286884, 40.0450538962934], [-105.637375689564, 40.0453075349913], [-105.637376138722, 40.045530584973], [-105.637429519311, 40.0458346816587], [-105.637522271262, 40.0460373448649], [-105.639109418299, 40.0470715420476], [-105.64078831387, 40.0475994335739], [-105.641378383044, 40.0479995852114], [-105.642091124357, 40.0481710667539], [-105.642499944049, 40.0483927512979], [-105.642963625653, 40.0490317756165], [-105.643162576437, 40.0495384620334], [-105.645203179555, 40.0509205005977], [-105.64570504944, 40.0531266754949], [-105.645901620587, 40.0533573069369], [-105.646192265107, 40.0535394350124], [-105.647101776993, 40.0538857390618], [-105.648172544557, 40.0541249512921], [-105.648476281124, 40.0542563632254], [-105.648678099331, 40.0544370531885], [-105.648860863372, 40.0551582082209], [-105.6492662515, 40.0558542133495], [-105.65034910949, 40.0570978096084], [-105.650726572589, 40.0575992022903], [-105.650912681956, 40.0582275566482], [-105.650979237238, 40.0584910746882], [-105.650847989781, 40.0588055444723], [-105.650264207916, 40.0594150068907], [-105.649781453282, 40.0598106599873], [-105.64945241297, 40.0601862166725], [-105.649242231448, 40.0606123122393], [-105.649150556577, 40.0609267289191], [-105.648887702338, 40.0614035850422], [-105.648533341213, 40.0622759659175], [-105.648349561177, 40.0627121645417], [-105.648284202452, 40.062996129787], [-105.647876385279, 40.0635644169813], [-105.6476130729, 40.0638384985315], [-105.647534932047, 40.0643151142751], [-105.647469438574, 40.064538248492], [-105.647218964917, 40.0646500934192], [-105.646929079473, 40.0648430970552], [-105.646732237933, 40.0653502791625], [-105.646455696064, 40.0656142350845], [-105.64591517347, 40.0658481090685], [-105.645032009171, 40.0662953223279], [-105.644267253607, 40.0665801636096], [-105.643660928519, 40.0669053564143], [-105.642948816027, 40.0671292906148], [-105.642066060462, 40.0677893922579], [-105.641644080451, 40.0679318515157], [-105.641169020786, 40.067932433798], [-105.638963860681, 40.0672456823479], [-105.639572495337, 40.0680357616702], [-105.640248087719, 40.0692921339189], [-105.640790040432, 40.0702169604369], [-105.641044047163, 40.0713087527853], [-105.640953663171, 40.0722720344214], [-105.640915036512, 40.0727384586512], [-105.641104220813, 40.073098577662], [-105.640955782297, 40.0732960337763], [-105.640163826644, 40.0732361665089], [-105.63912183122, 40.0735213087224], [-105.638737987387, 40.0743954288947], [-105.637316061192, 40.0746387216842], [-105.636933600765, 40.0747709773568], [-105.636524602308, 40.0748322936778], [-105.635799043832, 40.0749852292002], [-105.635311119394, 40.0751784358915], [-105.635087565551, 40.0755842436341], [-105.634930238205, 40.0761116365919], [-105.634694805041, 40.0771866052151], [-105.634682529562, 40.0776529964738], [-105.634709747617, 40.0780686496791], [-105.634830898908, 40.0792648662903], [-105.634726234398, 40.0797313642874], [-105.634581552636, 40.0799849990177], [-105.634213274811, 40.0806342996774], [-105.633778476739, 40.0810200728548], [-105.633119237288, 40.0813756859346], [-105.632538906749, 40.081589264725], [-105.63342320562, 40.0815781080407], [-105.63391161964, 40.0816079586279], [-105.634241788236, 40.0817089611514], [-105.634612337003, 40.082205321596], [-105.635180674134, 40.0826000642852], [-105.635593875808, 40.0830190035725], [-105.635962954032, 40.08437340378], [-105.636029883013, 40.0848397025128], [-105.635766157408, 40.0849718139727], [-105.635436191831, 40.0849823412285], [-105.63507998916, 40.0850740053308], [-105.634842760263, 40.0852567778351], [-105.634856481131, 40.0855203652015], [-105.635253735014, 40.0861586351441], [-105.635400039133, 40.0867160866397], [-105.635255425643, 40.0870102760099], [-105.635322050095, 40.0873244952416], [-105.635150713522, 40.0874564974148], [-105.634886895391, 40.0875480537211], [-105.63430681728, 40.0879137210321], [-105.633963957285, 40.0880864752708], [-105.63368733367, 40.0883808161006], [-105.63360876971, 40.0887053426369], [-105.633636243785, 40.0892527957953], [-105.633821804281, 40.0896378480114], [-105.633941370944, 40.0897992521708], [-105.634232095414, 40.0901848565852], [-105.634312295206, 40.0906916946626], [-105.634529386569, 40.0911473152326], [-105.634459283841, 40.0915938600025], [-105.634513287861, 40.0922021136768], [-105.634461045438, 40.092486054931], [-105.634382661141, 40.0929018299291], [-105.634608158938, 40.0934490521062], [-105.634768056364, 40.0941991224456], [-105.634650568403, 40.0948684078474], [-105.634651771247, 40.0954767229649], [-105.634440948328, 40.0956797401616], [-105.63392598999, 40.0956296457884], [-105.633424253056, 40.0955896729287], [-105.632896569183, 40.0957829139212], [-105.632382321412, 40.0960978018247], [-105.632066092873, 40.0964124608155], [-105.631926739019, 40.0968196840133], [-105.631896101078, 40.0972541592492], [-105.631989082998, 40.0975480721846], [-105.632155657601, 40.097720869312], [-105.633125850685, 40.0982666083331], [-105.633643622546, 40.0986874865519], [-105.633813988938, 40.0990971781198], [-105.633906962774, 40.0993809518024], [-105.634105495841, 40.0996341862422], [-105.634687156784, 40.100018775686], [-105.635123598774, 40.1004035326785], [-105.635506933262, 40.1006362716007], [-105.635811136054, 40.1009096563098], [-105.635945270696, 40.1011747895662], [-105.636049956766, 40.1014974136014], [-105.636063645294, 40.1017407236057], [-105.636514141426, 40.1025411409285], [-105.63638312843, 40.1030482250415], [-105.636159510806, 40.1034641725589], [-105.636121644122, 40.1043361362712], [-105.636083027345, 40.104832972774], [-105.636362773504, 40.106069550835], [-105.636562126734, 40.1067181856294], [-105.636629406955, 40.1073466989994], [-105.636445468816, 40.1078031534568], [-105.636234754593, 40.1080771435223], [-105.635720266074, 40.108310936934], [-105.635628323504, 40.1085543709742], [-105.635972438445, 40.10895950982], [-105.635986512351, 40.1093954527015], [-105.635696850587, 40.1098114747721], [-105.635565492638, 40.1101563419312], [-105.635462038159, 40.1112514304757], [-105.635199557619, 40.1120628250685], [-105.634910923528, 40.1130060513006], [-105.634515758228, 40.1135033019476], [-105.634106784025, 40.1136964109964], [-105.63342014506, 40.1137073446362], [-105.632852092695, 40.1135863366593], [-105.632244741732, 40.1136275877635], [-105.631716523361, 40.113618052849], [-105.630977394037, 40.1138013882937], [-105.630251602898, 40.1140556730634], [-105.629882363875, 40.1143196923027], [-105.629777284343, 40.1146138289828], [-105.629870802558, 40.1151814841034], [-105.629897889458, 40.1155363038458], [-105.62970021518, 40.1157494367575], [-105.629357935497, 40.1163074413801], [-105.629095169294, 40.1170174368529], [-105.628686600231, 40.117443712646], [-105.628238197174, 40.1177585071667], [-105.627842957313, 40.1182557361166], [-105.627552997309, 40.1185602136519], [-105.627038268042, 40.118722997301], [-105.626510143096, 40.1187844086735], [-105.62681455879, 40.1191490631873], [-105.627541842929, 40.1196551916076], [-105.627978484344, 40.1201008060197], [-105.628145704836, 40.1205502725794], [-105.628204708878, 40.1210130261716], [-105.628020524601, 40.1213883579668], [-105.627717345887, 40.1216928510119], [-105.627480102617, 40.121946577345], [-105.62753345985, 40.1222303985898], [-105.627864236606, 40.1225544669409], [-105.62826093533, 40.1228176295777], [-105.628591927682, 40.1232532198562], [-105.628698368161, 40.1236687827942], [-105.628553800486, 40.1240440703916], [-105.628356650824, 40.124551218814], [-105.628199330665, 40.125169845196], [-105.62693806726, 40.1251857411176], [-105.623379146022, 40.1252241799437], [-105.618069386735, 40.1251806437352], [-105.606183177136, 40.1253848148628], [-105.592395112809, 40.1256399904751], [-105.580257843851, 40.1258721100319], [-105.569784574599, 40.1260512671329], [-105.557264130156, 40.1262710620584], [-105.552456689013, 40.1263645924168], [-105.543171939392, 40.1265306516216], [-105.531668265679, 40.1266661790023], [-105.523109823727, 40.1267797324561], [-105.511672089949, 40.126811870412], [-105.504156989098, 40.1268428008361], [-105.499745664572, 40.126457610239], [-105.495268346211, 40.1261634952558], [-105.490592931365, 40.1260415464429], [-105.486009975618, 40.1259701132036], [-105.479525138194, 40.1259894213483], [-105.477319517253, 40.1259484559291], [-105.476778017291, 40.1259382097623], [-105.476210081707, 40.125988786673], [-105.471693662377, 40.1262203431745], [-105.446994427047, 40.1271247319894], [-105.446345096912, 40.1298618415669], [-105.446130893632, 40.1334913421779], [-105.445917207782, 40.1364415587313], [-105.445869700378, 40.138349768956], [-105.445808181951, 40.1406490001695], [-105.445740151636, 40.1431329096944], [-105.445712903937, 40.1441670277417], [-105.43000335759, 40.1437016080702], [-105.420540228604, 40.1436609046587], [-105.41073186358, 40.143019920567], [-105.406196335287, 40.1431255022094], [-105.40613358527, 40.1430960542381], [-105.406132499207, 40.1430999437361], [-105.40613206532, 40.1431014984364], [-105.406131414042, 40.1431038325471], [-105.40612924461, 40.1431116094818], [-105.406124903053, 40.1431271633485], [-105.39231565106, 40.1434475193341], [-105.374912116547, 40.1450651651282], [-105.356748405183, 40.14514538846]]]}, "properties": {"OBJECTID_1": 1, "OBJECTID": 1, "Shape_Leng": 629230.350434, "SHAPE__Area": 2131210942.8398438, "SHAPE__Length": 248330.74154643362}}]}