{"type": "FeatureCollection", "crs": {"type": "name", "properties": {"name": "EPSG:4326"}}, "features": [{"type": "Feature", "id": 1, "geometry": {"type": "Point", "coordinates": [-105.055650000392, 39.9470300002287]}, "properties": {"OBJECTID": 1, "SHNAME": "ASPEN CREEK", "LATITUDE": 39.94703, "LONGITUDE": -105.05565, "ICSCHNAME": "Aspen Creek K-8", "ICSCHADDRE": "5500 Aspen Creek Drive", "ICSCHCITY": "Broomfield", "ICSCHZIP": 80020, "ICSCHPHONE": "(720)561-8000", "SPTAB": "http://ac8.bvsd.org/"}}, {"type": "Feature", "id": 2, "geometry": {"type": "Point", "coordinates": [-105.262689999729, 39.9807500003466]}, "properties": {"OBJECTID": 2, "SHNAME": "BEAR CREEK", "LATITUDE": 39.98075, "LONGITUDE": -105.26269, "ICSCHNAME": "Bear Creek Elementary", "ICSCHADDRE": "2500 Table Mesa Drive", "ICSCHCITY": "Boulder", "ICSCHZIP": 80305, "ICSCHPHONE": "(720)561-3500", "SPTAB": "http://bce.bvsd.org"}}, {"type": "Feature", "id": 3, "geometry": {"type": "Point", "coordinates": [-105.059200000461, 39.9303499996578]}, "properties": {"OBJECTID": 3, "SHNAME": "BIRCH", "LATITUDE": 39.93035, "LONGITUDE": -105.0592, "ICSCHNAME": "Birch Elementary", "ICSCHADDRE": "1035 Birch Street", "ICSCHCITY": "Broomfield", "ICSCHZIP": 80020, "ICSCHPHONE": "(720)561-8800", "SPTAB": "http://bie.bvsd.org??"}}, {"type": "Feature", "id": 4, "geometry": {"type": "Point", "coordinates": [-105.158430000718, 39.9826399999641]}, "properties": {"OBJECTID": 4, "SHNAME": "COAL CREEK", "LATITUDE": 39.98264, "LONGITUDE": -105.15843, "ICSCHNAME": "Coal Creek Elementary School", "ICSCHADDRE": "801 West Tamarisk Street", "ICSCHCITY": "Louisville", "ICSCHZIP": 80027, "ICSCHPHONE": "(720)561-4500", "SPTAB": "http://cce.bvsd.org/"}}, {"type": "Feature", "id": 5, "geometry": {"type": "Point", "coordinates": [-105.269740000536, 40.0322800006277]}, "properties": {"OBJECTID": 5, "SHNAME": "COLUMBINE", "LATITUDE": 40.03228, "LONGITUDE": -105.26974, "ICSCHNAME": "Columbine Elementary School", "ICSCHADDRE": "3130 Repplier Drive", "ICSCHCITY": "Boulder", "ICSCHZIP": 80304, "ICSCHPHONE": "(720)561-2500", "SPTAB": "http://www.columbineelementary.org"}}, {"type": "Feature", "id": 6, "geometry": {"type": "Point", "coordinates": [-105.249359999839, 39.9908700002023]}, "properties": {"OBJECTID": 6, "SHNAME": "CREEKSIDE", "LATITUDE": 39.99087, "LONGITUDE": -105.24936, "ICSCHNAME": "Creekside Elementary at Martin Park", "ICSCHADDRE": "3740 Martin Drive", "ICSCHCITY": "Boulder", "ICSCHZIP": 80303, "ICSCHPHONE": "(720)561-3800", "SPTAB": "http://cre.bvsd.org/"}}, {"type": "Feature", "id": 7, "geometry": {"type": "Point", "coordinates": [-105.275000000342, 40.051459999777]}, "properties": {"OBJECTID": 7, "SHNAME": "CREST VIEW", "LATITUDE": 40.05146, "LONGITUDE": -105.275, "ICSCHNAME": "Crest View Elementary", "ICSCHADDRE": "1897 Sumac Avenue", "ICSCHCITY": "Boulder", "ICSCHZIP": 80304, "ICSCHPHONE": "(720)561-5461", "SPTAB": "http://cve.bvsd.org/"}}, {"type": "Feature", "id": 8, "geometry": {"type": "Point", "coordinates": [-105.177180000247, 40.0027500003012]}, "properties": {"OBJECTID": 8, "SHNAME": "DOUGLASS", "LATITUDE": 40.00275, "LONGITUDE": -105.17718, "ICSCHNAME": "Douglass Elementary School", "ICSCHADDRE": "840 75th Street", "ICSCHCITY": "Boulder", "ICSCHZIP": 80303, "ICSCHPHONE": "(720)561-5541", "SPTAB": "http://doe.bvsd.org"}}, {"type": "Feature", "id": 9, "geometry": {"type": "Point", "coordinates": [-105.233469999917, 40.0080400007867]}, "properties": {"OBJECTID": 9, "SHNAME": "EISENHOWER", "LATITUDE": 40.00804, "LONGITUDE": -105.23347, "ICSCHNAME": "Eisenhower Elementary School", "ICSCHADDRE": "1220 Eisenhower Drive", "ICSCHCITY": "Boulder", "ICSCHZIP": 80303, "ICSCHPHONE": "(720)561-6700", "SPTAB": "http://eie.bvsd.org"}}, {"type": "Feature", "id": 10, "geometry": {"type": "Point", "coordinates": [-105.160700000322, 39.9208499997664]}, "properties": {"OBJECTID": 10, "SHNAME": "ELDORADO", "LATITUDE": 39.92085, "LONGITUDE": -105.1607, "ICSCHNAME": "Eldorado K-8 School", "ICSCHADDRE": "3351 Indiana Street", "ICSCHCITY": "Superior", "ICSCHZIP": 80027, "ICSCHPHONE": "(720)561-4400", "SPTAB": "http://el8.bvsd.org/"}}, {"type": "Feature", "id": 11, "geometry": {"type": "Point", "coordinates": [-105.07823999952, 39.9204499997357]}, "properties": {"OBJECTID": 11, "SHNAME": "EMERALD", "LATITUDE": 39.92045, "LONGITUDE": -105.07824, "ICSCHNAME": "Emerald Elementary School", "ICSCHADDRE": "755 West Elmhurst Place", "ICSCHCITY": "Broomfield", "ICSCHZIP": 80020, "ICSCHPHONE": "(720)561-8500", "SPTAB": "http://eme.bvsd.org/"}}, {"type": "Feature", "id": 12, "geometry": {"type": "Point", "coordinates": [-105.158290000077, 39.9688800006843]}, "properties": {"OBJECTID": 12, "SHNAME": "FIRESIDE", "LATITUDE": 39.96888, "LONGITUDE": -105.15829, "ICSCHNAME": "Fireside Elementary School", "ICSCHADDRE": "845 West Dahlia Street", "ICSCHCITY": "Louisville", "ICSCHZIP": 80027, "ICSCHPHONE": "(720)561-7900", "SPTAB": "http://fie.bvsd.org"}}, {"type": "Feature", "id": 13, "geometry": {"type": "Point", "coordinates": [-105.285090000683, 40.007889999647]}, "properties": {"OBJECTID": 13, "SHNAME": "FLATIRONS", "LATITUDE": 40.00789, "LONGITUDE": -105.28509, "ICSCHNAME": "Flatirons Elementary School", "ICSCHADDRE": "1150 7th Street", "ICSCHCITY": "Boulder", "ICSCHZIP": 80302, "ICSCHPHONE": "(720)561-4600", "SPTAB": "http://fle.bvsd.org"}}, {"type": "Feature", "id": 14, "geometry": {"type": "Point", "coordinates": [-105.284629999477, 40.0355300002909]}, "properties": {"OBJECTID": 14, "SHNAME": "FOOTHILL", "LATITUDE": 40.03553, "LONGITUDE": -105.28463, "ICSCHNAME": "Foothill Elementary School", "ICSCHADDRE": "1001 Hawthorn Avenue", "ICSCHCITY": "Boulder", "ICSCHZIP": 80304, "ICSCHPHONE": "(720)561-2600", "SPTAB": "http://foe.bvsd.org"}}, {"type": "Feature", "id": 15, "geometry": {"type": "Point", "coordinates": [-105.412430000165, 40.0631900002489]}, "properties": {"OBJECTID": 15, "SHNAME": "GOLD HILL", "LATITUDE": 40.06319, "LONGITUDE": -105.41243, "ICSCHNAME": "Gold Hill Elementary School", "ICSCHADDRE": "890 Main Street", "ICSCHCITY": "Gold Hill", "ICSCHZIP": 80302, "ICSCHPHONE": "(720)561-5940", "SPTAB": "http://ghe.bvsd.org"}}, {"type": "Feature", "id": 16, "geometry": {"type": "Point", "coordinates": [-105.173630000178, 40.0575300005382]}, "properties": {"OBJECTID": 16, "SHNAME": "HEATHERWOOD", "LATITUDE": 40.05753, "LONGITUDE": -105.17363, "ICSCHNAME": "Heatherwood Elementary School", "ICSCHADDRE": "7750 Concord Drive", "ICSCHCITY": "Boulder", "ICSCHZIP": 80301, "ICSCHPHONE": "(720)561-5586", "SPTAB": "http://hee.bvsd.org/"}}, {"type": "Feature", "id": 17, "geometry": {"type": "Point", "coordinates": [-105.244139999317, 40.0044400001269]}, "properties": {"OBJECTID": 17, "SHNAME": "HIGH PEAKS", "LATITUDE": 40.00444, "LONGITUDE": -105.24414, "ICSCHNAME": "High Peaks Elementary School at Aurora 7", "ICSCHADDRE": "3995 Aurora Avenue", "ICSCHCITY": "Boulder", "ICSCHZIP": 80303, "ICSCHPHONE": "(720)561-6500", "SPTAB": "http://hpe.bvsd.org"}}, {"type": "Feature", "id": 18, "geometry": {"type": "Point", "coordinates": [-105.384760000257, 40.1130199996474]}, "properties": {"OBJECTID": 18, "SHNAME": "JAMESTOWN", "LATITUDE": 40.11302, "LONGITUDE": -105.38476, "ICSCHNAME": "Jamestown Elementary School", "ICSCHADDRE": "111 Mesa Street", "ICSCHCITY": "Jamestown", "ICSCHZIP": 80455, "ICSCHPHONE": "(720)561-6020", "SPTAB": "http://jae.bvsd.org"}}, {"type": "Feature", "id": 19, "geometry": {"type": "Point", "coordinates": [-105.082189999622, 39.9282500001055]}, "properties": {"OBJECTID": 19, "SHNAME": "KOHL", "LATITUDE": 39.92825, "LONGITUDE": -105.08219, "ICSCHNAME": "Kohl Elementary School", "ICSCHADDRE": "1000 West 10th Avenue", "ICSCHCITY": "Broomfield", "ICSCHZIP": 80020, "ICSCHPHONE": "(720)561-8600", "SPTAB": "https://sites.google.com/a/bvsd.org/kohl/"}}, {"type": "Feature", "id": 20, "geometry": {"type": "Point", "coordinates": [-105.096349999716, 39.9986900000046]}, "properties": {"OBJECTID": 20, "SHNAME": "LAFAYETTE", "LATITUDE": 39.99869, "LONGITUDE": -105.09635, "ICSCHNAME": "Lafayette Elementary School", "ICSCHADDRE": "101 North Bermont Avenue", "ICSCHCITY": "Lafayette", "ICSCHZIP": 80026, "ICSCHPHONE": "(720)561-8900", "SPTAB": "http://lae.bvsd.org"}}, {"type": "Feature", "id": 21, "geometry": {"type": "Point", "coordinates": [-105.138309999413, 39.9752499999605]}, "properties": {"OBJECTID": 21, "SHNAME": "LOUISVILLE EL", "LATITUDE": 39.97525, "LONGITUDE": -105.13831, "ICSCHNAME": "Louisville Elementary School", "ICSCHADDRE": "400 Hutchinson Street", "ICSCHCITY": "Louisville", "ICSCHZIP": 80027, "ICSCHPHONE": "(720)561-7200", "SPTAB": "http://loe.bvsd.org"}}, {"type": "Feature", "id": 22, "geometry": {"type": "Point", "coordinates": [-105.084787000363, 40.033840100378]}, "properties": {"OBJECTID": 22, "SHNAME": "MEADOWLARK", "LATITUDE": 40.0338401, "LONGITUDE": -105.084787, "ICSCHNAME": "Meadowlark School serving grades PK-8 (opens Fall 2017)", "ICSCHADDRE": "2300 Meadow Sweet Lane", "ICSCHCITY": "Erie", "ICSCHZIP": 80516, "ICSCHPHONE": "(720)561-5066", "SPTAB": "http://www.meadowlarkschool.org"}}, {"type": "Feature", "id": 23, "geometry": {"type": "Point", "coordinates": [-105.260690000462, 39.9721500003431]}, "properties": {"OBJECTID": 23, "SHNAME": "MESA", "LATITUDE": 39.97215, "LONGITUDE": -105.26069, "ICSCHNAME": "Mesa Elementary School", "ICSCHADDRE": "1575 Lehigh Street", "ICSCHCITY": "Boulder", "ICSCHZIP": 80305, "ICSCHPHONE": "(720)561-3000", "SPTAB": "http://mee.bvsd.org"}}, {"type": "Feature", "id": 24, "geometry": {"type": "Point", "coordinates": [-105.144709999942, 39.9517599998809]}, "properties": {"OBJECTID": 24, "SHNAME": "MONARCH K8", "LATITUDE": 39.95176, "LONGITUDE": -105.14471, "ICSCHNAME": "Monarch K-8 School", "ICSCHADDRE": "263 Campus Drive", "ICSCHCITY": "Louisville", "ICSCHZIP": 80027, "ICSCHPHONE": "(720)561-4000", "SPTAB": "http://mo8.bvsd.org"}}, {"type": "Feature", "id": 25, "geometry": {"type": "Point", "coordinates": [-105.517510000232, 39.9698100004125]}, "properties": {"OBJECTID": 25, "SHNAME": "NEDERLAND EL", "LATITUDE": 39.96981, "LONGITUDE": -105.51751, "ICSCHNAME": "Nederland Elementary School", "ICSCHADDRE": "1 Sundown Trail", "ICSCHCITY": "Nederland", "ICSCHZIP": 80466, "ICSCHPHONE": "(720)561-4800", "SPTAB": "http://nee.bvsd.org"}}, {"type": "Feature", "id": 26, "geometry": {"type": "Point", "coordinates": [-105.110679999688, 39.9810400001797]}, "properties": {"OBJECTID": 26, "SHNAME": "RYAN", "LATITUDE": 39.98104, "LONGITUDE": -105.11068, "ICSCHNAME": "Ryan Elementary School", "ICSCHADDRE": "1405 Centaur Village Drive", "ICSCHCITY": "Lafayette", "ICSCHZIP": 80026, "ICSCHPHONE": "(720)561-7000", "SPTAB": "http://rye.bvsd.org"}}, {"type": "Feature", "id": 27, "geometry": {"type": "Point", "coordinates": [-105.084149999605, 39.9897499999036]}, "properties": {"OBJECTID": 27, "SHNAME": "SANCHEZ", "LATITUDE": 39.98975, "LONGITUDE": -105.08415, "ICSCHNAME": "Alicia Sanchez Elementary School", "ICSCHADDRE": "655 Sir Galahad Drive", "ICSCHCITY": "Lafayette", "ICSCHZIP": 80026, "ICSCHPHONE": "(720)561-7300", "SPTAB": "http://sae.bvsd.org/"}}, {"type": "Feature", "id": 28, "geometry": {"type": "Point", "coordinates": [-105.156449999745, 39.9380099996221]}, "properties": {"OBJECTID": 28, "SHNAME": "SUPERIOR", "LATITUDE": 39.93801, "LONGITUDE": -105.15645, "ICSCHNAME": "Superior Elementary School", "ICSCHADDRE": "1800 South Indiana Street", "ICSCHCITY": "Superior", "ICSCHZIP": 80027, "ICSCHPHONE": "(720)561-4100", "SPTAB": "http://sue.bvsd.org"}}, {"type": "Feature", "id": 29, "geometry": {"type": "Point", "coordinates": [-105.269649999226, 40.0216199996991]}, "properties": {"OBJECTID": 29, "SHNAME": "WHITTIER", "LATITUDE": 40.02162, "LONGITUDE": -105.26965, "ICSCHNAME": "Whittier International Elementary School", "ICSCHADDRE": "2008 Pine Street", "ICSCHCITY": "Boulder", "ICSCHZIP": 80302, "ICSCHPHONE": "(720)561-5431", "SPTAB": "http://whe.bvsd.org"}}]}