{"type": "FeatureCollection", "crs": {"type": "name", "properties": {"name": "EPSG:4326"}}, "features": [{"type": "Feature", "id": 1, "geometry": {"type": "Point", "coordinates": [-105.273899999802, 40.0135999993247]}, "properties": {"OBJECTID": 1, "SHNAME": "BOULDER", "CDEID": 924, "BVSDID": 310, "LATITUDE": 40.0136, "LONGITUDE": -105.2739, "GMLAT": " ", "GMLON": " ", "ICSCHNAME": "Boulder High School", "ICSCHADDRE": "1604 Arapahoe Avenue", "ICSCHCITY": "Boulder", "ICSCHST": "CO", "ICSCHZIP": 80302, "ICSCHPHONE": "(720)561-2200", "SPTAB": "schools.bvsd.org/boulderhigh", "EL": " ", "MS": " ", "HS": "X", "NS": "X", "FO": " ", "CH": " ", "IB": " ", "AP": "X", "ICAN": "X", "MISE": "X", "ESL": "X", "DLI": " ", "AVID": "X", "PENG": " ", "NP": " ", "ILCM": "X", "ICLA": " ", "ICLD": " ", "ICAAN": "X", "DT": " ", "PS": " ", "FDK": " ", "KE": " ", "TAG": " ", "STEAM": " ", "ASP": " ", "BSP": " "}}, {"type": "Feature", "id": 2, "geometry": {"type": "Point", "coordinates": [-105.074599999938, 39.9303200001965]}, "properties": {"OBJECTID": 2, "SHNAME": "BROOMFIELD", "CDEID": 1070, "BVSDID": 315, "LATITUDE": 39.93032, "LONGITUDE": -105.0746, "GMLAT": " ", "GMLON": " ", "ICSCHNAME": "Broomfield High School", "ICSCHADDRE": "1 Eagle Way", "ICSCHCITY": "Broomfield", "ICSCHST": "CO", "ICSCHZIP": 80020, "ICSCHPHONE": "(720)561-8100", "SPTAB": "schools.bvsd.org/p12/broomfieldhigh", "EL": " ", "MS": " ", "HS": "X", "NS": "X", "FO": " ", "CH": " ", "IB": " ", "AP": "X", "ICAN": "X", "MISE": "X", "ESL": "X", "DLI": " ", "AVID": " ", "PENG": " ", "NP": " ", "ILCM": "X", "ICLA": " ", "ICLD": " ", "ICAAN": "X", "DT": " ", "PS": " ", "FDK": " ", "KE": " ", "TAG": " ", "STEAM": " ", "ASP": " ", "BSP": " "}}, {"type": "Feature", "id": 3, "geometry": {"type": "Point", "coordinates": [-105.110670000541, 39.9863399997278]}, "properties": {"OBJECTID": 3, "SHNAME": "CENTAURUS", "CDEID": 1380, "BVSDID": 320, "LATITUDE": 39.98634, "LONGITUDE": -105.11067, "GMLAT": " ", "GMLON": " ", "ICSCHNAME": "Centaurus High School", "ICSCHADDRE": "10300 South Boulder Road", "ICSCHCITY": "Lafayette", "ICSCHST": "CO", "ICSCHZIP": 80026, "ICSCHPHONE": "(720)561-7500", "SPTAB": "schools.bvsd.org/p12/centaurus", "EL": " ", "MS": " ", "HS": "X", "NS": "X", "FO": " ", "CH": " ", "IB": "X", "AP": "X", "ICAN": "X", "MISE": "X", "ESL": "X", "DLI": " ", "AVID": "X", "PENG": "X", "NP": " ", "ILCM": "X", "ICLA": " ", "ICLD": " ", "ICAAN": "X", "DT": " ", "PS": " ", "FDK": " ", "KE": " ", "TAG": " ", "STEAM": " ", "ASP": " ", "BSP": " "}}, {"type": "Feature", "id": 4, "geometry": {"type": "Point", "coordinates": [-105.245770000485, 39.9722299999955]}, "properties": {"OBJECTID": 4, "SHNAME": "FAIRVIEW", "CDEID": 2892, "BVSDID": 330, "LATITUDE": 39.97223, "LONGITUDE": -105.24577, "GMLAT": " ", "GMLON": " ", "ICSCHNAME": "Fairview High School", "ICSCHADDRE": "1515 Greenbriar Boulevard", "ICSCHCITY": "Boulder", "ICSCHST": "CO", "ICSCHZIP": 80305, "ICSCHPHONE": "(720)561-3100", "SPTAB": "www.fairviewhs.org", "EL": " ", "MS": " ", "HS": "X", "NS": "X", "FO": " ", "CH": " ", "IB": "X", "AP": "X", "ICAN": "X", "MISE": "X", "ESL": "X", "DLI": " ", "AVID": " ", "PENG": " ", "NP": " ", "ILCM": "X", "ICLA": " ", "ICLD": " ", "ICAAN": "X", "DT": " ", "PS": " ", "FDK": " ", "KE": " ", "TAG": " ", "STEAM": " ", "ASP": " ", "BSP": " "}}, {"type": "Feature", "id": 5, "geometry": {"type": "Point", "coordinates": [-105.141420000164, 39.9513000002501]}, "properties": {"OBJECTID": 5, "SHNAME": "MONARCH", "CDEID": 5999, "BVSDID": 360, "LATITUDE": 39.9513, "LONGITUDE": -105.14142, "GMLAT": " ", "GMLON": " ", "ICSCHNAME": "Monarch High School", "ICSCHADDRE": "329 Campus Drive", "ICSCHCITY": "Louisville", "ICSCHST": "CO", "ICSCHZIP": 80027, "ICSCHPHONE": "(720)561-4200", "SPTAB": "schools.bvsd.org/p12/monarchhigh", "EL": " ", "MS": " ", "HS": "X", "NS": "X", "FO": " ", "CH": " ", "IB": " ", "AP": "X", "ICAN": "X", "MISE": "X", "ESL": " ", "DLI": " ", "AVID": " ", "PENG": " ", "NP": " ", "ILCM": "X", "ICLA": " ", "ICLD": "X", "ICAAN": "X", "DT": " ", "PS": " ", "FDK": " ", "KE": " ", "TAG": " ", "STEAM": " ", "ASP": " ", "BSP": " "}}, {"type": "Feature", "id": 6, "geometry": {"type": "Point", "coordinates": [-105.524300000749, 39.9529699999917]}, "properties": {"OBJECTID": 6, "SHNAME": "NEDERLAND MSHS", "CDEID": 6212, "BVSDID": 503, "LATITUDE": 39.95297, "LONGITUDE": -105.5243, "GMLAT": " ", "GMLON": " ", "ICSCHNAME": "Nederland Middle Senior High School", "ICSCHADDRE": "597 County Road 130", "ICSCHCITY": "Nederland", "ICSCHST": "CO", "ICSCHZIP": 80466, "ICSCHPHONE": "(720)561-4900", "SPTAB": "schools.bvsd.org/p12/nmshs", "EL": " ", "MS": "X", "HS": "X", "NS": "X", "FO": " ", "CH": " ", "IB": " ", "AP": "X", "ICAN": "X", "MISE": " ", "ESL": " ", "DLI": " ", "AVID": " ", "PENG": " ", "NP": " ", "ILCM": "X", "ICLA": " ", "ICLD": " ", "ICAAN": " ", "DT": " ", "PS": " ", "FDK": " ", "KE": " ", "TAG": " ", "STEAM": " ", "ASP": " ", "BSP": " "}}]}