{"type": "FeatureCollection", "crs": {"type": "name", "properties": {"name": "EPSG:4326"}}, "features": [{"type": "Feature", "id": 1, "geometry": {"type": "Polygon", "coordinates": [[[-105.356554354709, 40.1306571579198], [-105.356701399937, 40.1235502056329], [-105.347583440515, 40.123633280968], [-105.338347744298, 40.123862807462], [-105.32855675359, 40.1238058813259], [-105.328654981671, 40.1162629212073], [-105.328560412428, 40.1066209798836], [-105.328589805304, 40.1054348068525], [-105.32859847764, 40.1019898258529], [-105.328911565669, 40.1019894864154], [-105.328594176506, 40.1018421593767], [-105.328592069957, 40.1018439706302], [-105.328589964306, 40.1018457811965], [-105.319568094076, 40.1018725521493], [-105.313775342102, 40.1019871776905], [-105.311946589576, 40.1020076085289], [-105.311946505134, 40.102007609216], [-105.311946420693, 40.1020076105902], [-105.309521482363, 40.1020293194659], [-105.306534348685, 40.1020559920884], [-105.305744269613, 40.102063034379], [-105.306067069329, 40.1092518483205], [-105.301193814914, 40.1141724641021], [-105.301353079027, 40.1092843903006], [-105.301224749299, 40.1019133733486], [-105.282208452288, 40.1018283860151], [-105.282205769919, 40.10182599964], [-105.282205316269, 40.1018255956121], [-105.282205119538, 40.1018254210831], [-105.282205053063, 40.1018253613035], [-105.282204986588, 40.1018253028981], [-105.282204921011, 40.1018252438056], [-105.28220472428, 40.1018250685895], [-105.282204406276, 40.1018247861822], [-105.282204202359, 40.1018247868694], [-105.282199777257, 40.1018248047346], [-105.282074508089, 40.0873502073288], [-105.282074506293, 40.0873499832793], [-105.282074504496, 40.0873497578553], [-105.282074500903, 40.0873493083818], [-105.282074492818, 40.0873484087476], [-105.282074477547, 40.087346609479], [-105.281880735194, 40.0873466665223], [-105.28187963925, 40.0873472671949], [-105.281878544203, 40.0873478664929], [-105.281874164018, 40.0873502664338], [-105.279469147627, 40.087350945455], [-105.263493594853, 40.0873541824886], [-105.206813629331, 40.0871937402073], [-105.206848122842, 40.0945139372756], [-105.197342930243, 40.0945603827748], [-105.197369241897, 40.0873361403194], [-105.197405070304, 40.0826299996517], [-105.197504932421, 40.0825565997648], [-105.201443969483, 40.0791350271369], [-105.204582124334, 40.076377876904], [-105.205224594035, 40.0758506063004], [-105.206886789925, 40.0744863985428], [-105.206853769652, 40.0744351213691], [-105.206855824997, 40.0744333355073], [-105.20685685267, 40.0744324425763], [-105.206857881241, 40.0744315489579], [-105.206843919624, 40.0711545936275], [-105.206804683908, 40.0672308109681], [-105.206839954461, 40.0621586567886], [-105.206839859239, 40.0617982860559], [-105.206847071813, 40.0611352270338], [-105.206878285574, 40.056645667921], [-105.206876779099, 40.0541720590022], [-105.206852444636, 40.0510083089058], [-105.168820791151, 40.0510501219203], [-105.168835404046, 40.0436750026507], [-105.168893130684, 40.0145241346988], [-105.179548422867, 40.0147006368333], [-105.21297620064, 40.0146389113966], [-105.215585196584, 40.0146336860222], [-105.219080112858, 40.0146265934099], [-105.220544418873, 40.0146235909691], [-105.240607404107, 40.0145805736284], [-105.244258265219, 40.0145723705745], [-105.256064290298, 40.0145530184361], [-105.256055655691, 40.0109278632219], [-105.258585978081, 40.0109331886458], [-105.258424533757, 40.000478033006], [-105.258421762454, 40.0002984834535], [-105.258421747183, 40.0002974994042], [-105.258421327669, 40.0002703733545], [-105.260090101922, 40.0004165025276], [-105.260242328633, 40.0004298305232], [-105.260242413973, 40.0004054192596], [-105.260252177762, 39.997628032246], [-105.261297666734, 39.9977126644385], [-105.261669697721, 39.9973974869077], [-105.256471237901, 39.9894747099612], [-105.256334882624, 39.9892668668098], [-105.257064826675, 39.9892684078185], [-105.25762755203, 39.9892695923098], [-105.258143383531, 39.9892706756272], [-105.263020339903, 39.9892808040245], [-105.263489277549, 39.9892817668967], [-105.269854409073, 39.9892946496982], [-105.270485736071, 39.9898566115433], [-105.270547381161, 39.9899114830719], [-105.271384162746, 39.9893512223607], [-105.271485485524, 39.9892833801721], [-105.271496394665, 39.9892826650726], [-105.271507305602, 39.9892819492849], [-105.27193461981, 39.9892539158655], [-105.271935182155, 39.9892538800761], [-105.271939328778, 39.9892536130321], [-105.271940524436, 39.989253535259], [-105.271949301875, 39.9892529598756], [-105.271975007167, 39.9892512729559], [-105.272003481964, 39.9892494057125], [-105.272144595617, 39.9892401493333], [-105.27230655288, 39.9892295267607], [-105.272454586256, 39.9892198168166], [-105.272491458505, 39.9857650181144], [-105.272491642659, 39.9857477915182], [-105.272491826814, 39.9857305649178], [-105.276018471584, 39.9857537156562], [-105.277050024991, 39.9857604671217], [-105.277053012788, 39.985760486394], [-105.277053193349, 39.9857604877705], [-105.277192137571, 39.9857613963172], [-105.282260523134, 39.9857944281741], [-105.292740424647, 39.9754048757464], [-105.292997675195, 39.9751497910509], [-105.293118794146, 39.9750333288491], [-105.294917016529, 39.9733041758864], [-105.296678420562, 39.9716103152], [-105.298248023501, 39.9701008067212], [-105.300463003989, 39.9679704793022], [-105.302477193044, 39.9660331174747], [-105.3026806381, 39.9658374251537], [-105.30285550056, 39.9656692245835], [-105.303069004052, 39.9654638516371], [-105.303084349972, 39.9654490909406], [-105.303085016522, 39.9654484499494], [-105.303085490832, 39.965447988656], [-105.303085693852, 39.9654477910572], [-105.303086858068, 39.9654466309389], [-105.303087839927, 39.9654456525839], [-105.303088891854, 39.9654446026251], [-105.303089965341, 39.9654435326999], [-105.303090975945, 39.965442524051], [-105.303091629021, 39.9654418741093], [-105.303092496793, 39.9654410086678], [-105.303100780158, 39.9654327494502], [-105.303107690898, 39.9654258596536], [-105.303125522456, 39.9654080798856], [-105.303137265234, 39.9653963712889], [-105.303144262211, 39.9653893954264], [-105.303149413151, 39.9653842606073], [-105.303159355705, 39.9653743469215], [-105.303171090397, 39.965362646581], [-105.303172014764, 39.9653617260587], [-105.303181980674, 39.9653517889607], [-105.303202045444, 39.9653317825687], [-105.303202202649, 39.9653316262795], [-105.313640419638, 39.9549361031203], [-105.325825642462, 39.9430824023962], [-105.325830403533, 39.9430777790005], [-105.325832424743, 39.9430757941015], [-105.325833731791, 39.943074511011], [-105.325838565626, 39.9430696878851], [-105.325844370539, 39.9430638957259], [-105.335935705776, 39.9330192040328], [-105.335935960898, 39.933018956745], [-105.335941578961, 39.9330217581921], [-105.336647620639, 39.9333738475907], [-105.340058884895, 39.9350748677994], [-105.343381800742, 39.9368097071408], [-105.344414979201, 39.9373490746123], [-105.351589124486, 39.9410443623519], [-105.356234023563, 39.944823002926], [-105.367600411345, 39.954068555151], [-105.370171810099, 39.9561577916528], [-105.370171854117, 39.9561662998836], [-105.37017186849, 39.9561691361898], [-105.370171876575, 39.9561705546871], [-105.370171882863, 39.9561719724959], [-105.370171884659, 39.9561722561953], [-105.370171884659, 39.9561723126598], [-105.370171897236, 39.9561748088018], [-105.370174169075, 39.9566174411743], [-105.370221266847, 39.9657896429927], [-105.37019742017, 39.9783248478167], [-105.370205564296, 39.9854591428313], [-105.370593256511, 39.9857285378942], [-105.395218638648, 40.0017313668141], [-105.397857468541, 40.0033539565554], [-105.400407843125, 40.0050104502882], [-105.406267934609, 40.0086129687626], [-105.406471683295, 40.0087382118704], [-105.406617407102, 40.0087393678134], [-105.406674548039, 40.008774491272], [-105.406833916357, 40.0088724531978], [-105.406845705847, 40.0088724628306], [-105.406849636874, 40.0088724662709], [-105.406851600592, 40.008872467647], [-105.406853566105, 40.0088724690232], [-105.406853959567, 40.0088724697112], [-105.406854037721, 40.0088724697112], [-105.406857496235, 40.0088724724635], [-105.420414715094, 40.0088826261642], [-105.425284126516, 40.0088858834397], [-105.425749272374, 40.0088894957539], [-105.425816863413, 40.008920267847], [-105.43152722101, 40.0115197320046], [-105.432443438819, 40.01193676768], [-105.43327109442, 40.0123877844134], [-105.439814396898, 40.0159530236125], [-105.444655475457, 40.0185965260684], [-105.446229851145, 40.0194561367153], [-105.447715690677, 40.020349725118], [-105.449339267094, 40.0213261009721], [-105.46678816024, 40.0212137260977], [-105.469830565461, 40.0211938626425], [-105.475310492612, 40.0267974364144], [-105.477463031204, 40.0289939929234], [-105.478701673234, 40.0302578822568], [-105.486864513304, 40.0386390422083], [-105.489284359083, 40.0411080705758], [-105.489221607269, 40.0411113490083], [-105.489212417504, 40.0411118290473], [-105.489170495824, 40.0411140187953], [-105.489174213951, 40.041115168688], [-105.489176999627, 40.0411160297321], [-105.489187879124, 40.0411193948188], [-105.489203479267, 40.0411242192787], [-105.489206201162, 40.0411250610661], [-105.489223287119, 40.0411303449323], [-105.489317375763, 40.0412219029972], [-105.489369947869, 40.0412730593705], [-105.492403470548, 40.0442247729495], [-105.493807568778, 40.0455908919523], [-105.495123138037, 40.0469910304083], [-105.499087857934, 40.0512101783302], [-105.499187043619, 40.0513287495463], [-105.499187328385, 40.0513290912994], [-105.499187613151, 40.0513294316772], [-105.499187897917, 40.051329772055], [-105.499188182683, 40.0513301124327], [-105.499189321747, 40.0513314739437], [-105.499103010716, 40.0513682388577], [-105.499050713495, 40.0514373334077], [-105.499216564056, 40.0513640408675], [-105.503992624351, 40.0570730177605], [-105.504101322297, 40.0571782501785], [-105.50674733961, 40.0597397945548], [-105.512609308573, 40.0654137159332], [-105.512976913561, 40.0657694875098], [-105.512294748205, 40.0657436029636], [-105.504731554249, 40.0654563526589], [-105.494673863614, 40.0653620874963], [-105.494667852088, 40.0653620311221], [-105.494661840562, 40.0653619740604], [-105.494649817511, 40.0653618606245], [-105.494644556078, 40.0653618111252], [-105.494625770509, 40.0653616344402], [-105.493839740144, 40.0655935533883], [-105.493729359653, 40.0656266098624], [-105.492059929631, 40.0661265545079], [-105.492059893698, 40.0661265655076], [-105.492059856867, 40.0661265758198], [-105.489446166327, 40.0668897548618], [-105.489363216792, 40.0669142248372], [-105.489343153819, 40.0669201433058], [-105.489323092642, 40.0669260610864], [-105.489232298119, 40.0669528450869], [-105.485587520398, 40.0680279630862], [-105.476075946167, 40.0711353737189], [-105.467328795124, 40.0729714269113], [-105.467139297312, 40.0730111944563], [-105.46694593315, 40.0731046853189], [-105.457645807066, 40.0776005655336], [-105.448928300427, 40.0818119650132], [-105.448738161218, 40.0819038072769], [-105.448577978128, 40.0819811799045], [-105.4481389975, 40.0821843940655], [-105.448126821734, 40.0821900300932], [-105.44812413128, 40.0821912755177], [-105.448117337322, 40.0821944200085], [-105.448048982715, 40.0822260635437], [-105.447891972475, 40.0822917060134], [-105.445893014355, 40.0831273974069], [-105.444362849253, 40.0837670540847], [-105.444346323845, 40.0837739621819], [-105.444329793945, 40.0837808620306], [-105.443683660016, 40.0840505782821], [-105.439224616982, 40.085911745726], [-105.435689475047, 40.0871407990992], [-105.433312538196, 40.0916951047325], [-105.432119950994, 40.0941167533294], [-105.428653611027, 40.1010083289943], [-105.428310471657, 40.101606029498], [-105.428222051382, 40.1017600434404], [-105.427501623185, 40.1030148830302], [-105.425448154396, 40.1063140901583], [-105.422565984367, 40.1110498289902], [-105.421576123569, 40.1126761170701], [-105.420511740331, 40.1146050128013], [-105.419790448854, 40.1158532203486], [-105.419363635008, 40.1165918034553], [-105.418992560727, 40.11723391958], [-105.416364209681, 40.1217816987496], [-105.414551707679, 40.1249092386488], [-105.414472175335, 40.1250473629496], [-105.414472155572, 40.1250473979808], [-105.414472134911, 40.1250474330121], [-105.413336703918, 40.1270192958274], [-105.410832211685, 40.1319747003867], [-105.408292797446, 40.1378627280643], [-105.407536107855, 40.1397888057774], [-105.406768103982, 40.1415692271133], [-105.406690621594, 40.1417488468895], [-105.406257579728, 40.1427526918597], [-105.406168312342, 40.1429716375687], [-105.40613358527, 40.1430960542381], [-105.406132499207, 40.1430999437361], [-105.40613206532, 40.1431014984364], [-105.406131414042, 40.1431038325471], [-105.40612924461, 40.1431116094818], [-105.406124903053, 40.1431271633485], [-105.39231565106, 40.1434475193341], [-105.374912116547, 40.1450651651282], [-105.356748405183, 40.14514538846], [-105.356623481866, 40.1354629202071], [-105.356588019074, 40.1334858587486], [-105.356554354709, 40.1306571579198]]]}, "properties": {"OBJECTID_1": 1, "OBJECTID": 1, "SchName": "Boulder High", "SchCode": 310, "SchType": "High", "SchType2": "Neighborhood", "StdtPop": 0, "SHAPE_Leng": 321926.960969, "State_CD": 924, "SHAPE__Area": 541254232.7265625, "SHAPE__Length": 128240.56451037349}}, {"type": "Feature", "id": 2, "geometry": {"type": "Polygon", "coordinates": [[[-105.197853455395, 40.0737187814837], [-105.197859598973, 40.0728143699379], [-105.193856530896, 40.0728038222405], [-105.188537569268, 40.0727945077645], [-105.188085446287, 40.0727916474295], [-105.182979756385, 40.0727826532874], [-105.180759622263, 40.0727765339155], [-105.17849895346, 40.0727735354093], [-105.1759525117, 40.0727680539581], [-105.159642382297, 40.072740309862], [-105.159437915856, 40.0510228104408], [-105.168820791151, 40.0510501219203], [-105.206852444636, 40.0510083089058], [-105.206876779099, 40.0541720590022], [-105.206878285574, 40.056645667921], [-105.206847071813, 40.0611352270338], [-105.206839859239, 40.0617982860559], [-105.206839954461, 40.0621586567886], [-105.206804683908, 40.0672308109681], [-105.206843919624, 40.0711545936275], [-105.206857881241, 40.0744315489579], [-105.20685685267, 40.0744324425763], [-105.206855824997, 40.0744333355073], [-105.206853769652, 40.0744351213691], [-105.206886789925, 40.0744863985428], [-105.205224594035, 40.0758506063004], [-105.204582124334, 40.076377876904], [-105.201443969483, 40.0791350271369], [-105.197504932421, 40.0825565997648], [-105.197405070304, 40.0826299996517], [-105.197446533843, 40.0771829930808], [-105.197411292934, 40.0770340547534], [-105.19746259572, 40.0762475318328], [-105.197188061586, 40.0761124587005], [-105.197345693461, 40.0756770422036], [-105.197375915482, 40.0755951998961], [-105.197453315225, 40.0754561338057], [-105.197745968378, 40.0750327253002], [-105.19780533534, 40.0749507736102], [-105.198012831798, 40.0748120478391], [-105.19760625969, 40.074634030202], [-105.197378667021, 40.0744958035241], [-105.197847766364, 40.0740399030921], [-105.197853455395, 40.0737187814837]]]}, "properties": {"OBJECTID_1": 2, "OBJECTID": 2, "SchName": "Boulder-Fairview", "SchCode": 3, "SchType": "High", "SchType2": "Dual", "StdtPop": 0, "SHAPE_Leng": 48240.081729, "State_CD": 0, "SHAPE__Area": 17520901.28515625, "SHAPE__Length": 19220.982971568505}}, {"type": "Feature", "id": 3, "geometry": {"type": "Polygon", "coordinates": [[[-105.05301083902, 39.9766652375469], [-105.053024204155, 39.9439688991706], [-105.053024204155, 39.943968842696], [-105.05302754499, 39.9434587972734], [-105.053024412564, 39.9434588799197], [-105.053031894632, 39.925139174351], [-105.053570430154, 39.9251299788693], [-105.05303192787, 39.9250600076058], [-105.053036251461, 39.9144697863202], [-105.090214032913, 39.9143328184478], [-105.11166178014, 39.9144071448896], [-105.132217396984, 39.9141993628917], [-105.146910232788, 39.914231067145], [-105.146936632478, 39.9142793765881], [-105.147105314528, 39.9214488762477], [-105.147126086273, 39.926587089775], [-105.147070802153, 39.9288383479862], [-105.147025764218, 39.9289307234857], [-105.146993720414, 39.928970071451], [-105.14698646023, 39.928978986049], [-105.14327898639, 39.9289191801716], [-105.142461020916, 39.9289166444586], [-105.137617140512, 39.9289015059535], [-105.137557522022, 39.9289013185821], [-105.137557237256, 39.9289549143584], [-105.137533227085, 39.9334772050172], [-105.137574568453, 39.9394298527442], [-105.137575337411, 39.9395404860225], [-105.137505523042, 39.9395081508762], [-105.133720889309, 39.9377551101512], [-105.128179820125, 39.9352940866767], [-105.128072128292, 39.9352462514901], [-105.128069855554, 39.9352942478561], [-105.127914008632, 39.9385848285047], [-105.12782054252, 39.943284551854], [-105.127691313578, 39.9445326710634], [-105.127670622682, 39.9452856914113], [-105.127565474878, 39.9457480069377], [-105.127506753805, 39.9463151118931], [-105.127399242533, 39.9464788870391], [-105.127354169564, 39.9466770568726], [-105.126464287664, 39.9480326023394], [-105.126247226843, 39.9482337317116], [-105.126232760374, 39.9482557684866], [-105.125994881995, 39.9484675536597], [-105.125222495243, 39.9491832328114], [-105.125119683957, 39.9492467369943], [-105.124888462094, 39.9494525897493], [-105.122427750155, 39.9509317380108], [-105.122168559247, 39.9510875324496], [-105.121547396685, 39.9514805469533], [-105.121089882915, 39.9517358886871], [-105.119966930419, 39.9524108343169], [-105.117357037956, 39.9539465832456], [-105.114377993607, 39.9550234420732], [-105.111846105453, 39.9558729326395], [-105.109463787693, 39.9565512776253], [-105.109463254992, 39.9566443366668], [-105.109385040477, 39.956573757925], [-105.109295089472, 39.9566016759858], [-105.108222622296, 39.9569054948686], [-105.106791995917, 39.9573767970046], [-105.104285401627, 39.9578665221316], [-105.103377530065, 39.9580959442303], [-105.099102749462, 39.958280473584], [-105.09582120283, 39.9584018910367], [-105.092927760741, 39.9585910288297], [-105.09029391021, 39.9586813549328], [-105.087745386155, 39.9589380290069], [-105.085844569879, 39.9591637554478], [-105.084141671324, 39.9595168980925], [-105.083490590372, 39.9596708916819], [-105.08147722597, 39.9603439123161], [-105.079485917005, 39.9612336143265], [-105.078719007281, 39.9616174267683], [-105.076909583805, 39.9628040113501], [-105.074843030155, 39.9644665414767], [-105.074499236811, 39.9647698978547], [-105.072849345146, 39.9662587137774], [-105.072831055447, 39.9662744698545], [-105.07189531545, 39.9671324659049], [-105.071128950104, 39.9678098420452], [-105.070156930746, 39.9687402370535], [-105.068811384706, 39.9698647056014], [-105.067962778597, 39.9704250352335], [-105.067413946586, 39.9708514114063], [-105.066114350271, 39.9714322201572], [-105.065171547719, 39.9719106968296], [-105.062184059206, 39.973194983692], [-105.06181814395, 39.9733520822174], [-105.061083878105, 39.9736801793426], [-105.060073951638, 39.9741008881798], [-105.053010640493, 39.9771519016568], [-105.05301083902, 39.9766652375469]]]}, "properties": {"OBJECTID_1": 3, "OBJECTID": 3, "SchName": "Broomfield High", "SchCode": 315, "SchType": "High", "SchType2": "Neighborhood", "StdtPop": 0, "SHAPE_Leng": 93181.4060219, "State_CD": 1070, "SHAPE__Area": 62602051.41796875, "SHAPE__Length": 37060.57379485056}}, {"type": "Feature", "id": 4, "geometry": {"type": "Polygon", "coordinates": [[[-105.131462219257, 40.0871880915358], [-105.131398666146, 40.0835606658548], [-105.121825846576, 40.0836909914286], [-105.121773237639, 40.0801257707759], [-105.112997676477, 40.080191232438], [-105.113072004881, 40.0798522187179], [-105.112231143147, 40.0798622140739], [-105.11192264461, 40.0795308062755], [-105.111922626644, 40.079531161634], [-105.111905406838, 40.0798660845073], [-105.102855334899, 40.0799732482064], [-105.102296873846, 40.0801381765971], [-105.093290438469, 40.0800623030297], [-105.083948805727, 40.0803404690384], [-105.082131396228, 40.0803561506778], [-105.079814451566, 40.0803644248633], [-105.079806868887, 40.0792468487839], [-105.07980686709, 40.0792464927365], [-105.074398509616, 40.0792378032556], [-105.074428171987, 40.0770792412293], [-105.074428176479, 40.077078885858], [-105.074477935959, 40.0733382304379], [-105.07447794045, 40.0733378743597], [-105.074460452947, 40.0697997455531], [-105.074460452048, 40.0697993894563], [-105.074470305669, 40.0661092780692], [-105.074470306567, 40.0661089226406], [-105.08398976082, 40.0659564092388], [-105.090821788118, 40.065823335529], [-105.090835729073, 40.063501969189], [-105.09083573087, 40.0635016137468], [-105.090997371926, 40.0585548341228], [-105.090997382705, 40.0585544786548], [-105.091031993895, 40.0549861164826], [-105.09103199659, 40.054985760996], [-105.09114453663, 40.0516204499233], [-105.091144548308, 40.0516200944192], [-105.093428404425, 40.0513645648427], [-105.093428483477, 40.0513645559035], [-105.093197383786, 40.0503096591263], [-105.09319730653, 40.0503093111794], [-105.09394943268, 40.050230885547], [-105.09394976865, 40.0502308504773], [-105.0933334525, 40.0496408489047], [-105.093333226125, 40.0496406316076], [-105.0937302177, 40.0493988435122], [-105.093730451262, 40.0493987011684], [-105.093389324117, 40.0490831977532], [-105.093376857298, 40.0489614889835], [-105.093231922212, 40.0489305623469], [-105.093193434792, 40.0487479289048], [-105.093211407385, 40.0457371358975], [-105.093211409182, 40.0457367803627], [-105.093235609796, 40.043891966954], [-105.093235614287, 40.0438916114095], [-105.07452738552, 40.0442905194384], [-105.074515030092, 40.0399311567612], [-105.074515029194, 40.0399308011961], [-105.074533444657, 40.0369808398745], [-105.074533446454, 40.036980484294], [-105.074541646275, 40.0335539612196], [-105.074541647174, 40.0335536056213], [-105.074526192558, 40.0296910266459], [-105.074526190761, 40.0296906710274], [-105.055495803675, 40.0295073800482], [-105.055327131506, 40.0149257958809], [-105.055327127913, 40.0149254401854], [-105.055325425605, 40.0147782440188], [-105.055325422012, 40.0147778883226], [-105.055159764589, 40.0004507955486], [-105.053001098588, 40.0004770317556], [-105.053006558548, 39.987133029171], [-105.053006738211, 39.9866924967855], [-105.053010640493, 39.9771519016568], [-105.060073951638, 39.9741008881798], [-105.061083878105, 39.9736801793426], [-105.06181814395, 39.9733520822174], [-105.062184059206, 39.973194983692], [-105.065171547719, 39.9719106968296], [-105.066114350271, 39.9714322201572], [-105.067413946586, 39.9708514114063], [-105.067962778597, 39.9704250352335], [-105.068811384706, 39.9698647056014], [-105.070156930746, 39.9687402370535], [-105.071128950104, 39.9678098420452], [-105.07189531545, 39.9671324659049], [-105.072831055447, 39.9662744698545], [-105.072849345146, 39.9662587137774], [-105.074499236811, 39.9647698978547], [-105.074843030155, 39.9644665414767], [-105.076909583805, 39.9628040113501], [-105.078719007281, 39.9616174267683], [-105.079485917005, 39.9612336143265], [-105.08147722597, 39.9603439123161], [-105.083490590372, 39.9596708916819], [-105.084141671324, 39.9595168980925], [-105.085844569879, 39.9591637554478], [-105.087745386155, 39.9589380290069], [-105.09029391021, 39.9586813549328], [-105.092927760741, 39.9585910288297], [-105.09582120283, 39.9584018910367], [-105.099102749462, 39.958280473584], [-105.103377530065, 39.9580959442303], [-105.104285401627, 39.9578665221316], [-105.106791995917, 39.9573767970046], [-105.108222622296, 39.9569054948686], [-105.109295089472, 39.9566016759858], [-105.109385040477, 39.956573757925], [-105.109463254992, 39.9566443366668], [-105.109456258912, 39.9578668395642], [-105.109388158529, 39.9621130160408], [-105.109340673583, 39.9650735826789], [-105.109372190077, 39.9723200361512], [-105.109372765897, 39.9724524187217], [-105.110716963565, 39.9724721772615], [-105.114142163387, 39.9724836953289], [-105.114196290476, 39.9725439677449], [-105.114195278075, 39.9725439525995], [-105.114194266572, 39.972543938831], [-105.114122821761, 39.9730401084054], [-105.114111508378, 39.9731186812976], [-105.11408701671, 39.9732887566894], [-105.114086928675, 39.973289372824], [-105.114086086055, 39.9732952250698], [-105.114086073479, 39.9732953200715], [-105.114086063597, 39.9732956759839], [-105.114078541105, 39.9734515013951], [-105.114078523139, 39.9734518566182], [-105.113963813667, 39.9758277761361], [-105.113963801989, 39.9758281320352], [-105.113950042494, 39.9766982015211], [-105.113950037104, 39.9766985574157], [-105.113941599228, 39.9772321033448], [-105.113941600127, 39.9772324592366], [-105.113951045912, 39.9777455452887], [-105.1139510522, 39.9777459011778], [-105.113993610785, 39.9800574566134], [-105.113993617073, 39.9800578124906], [-105.114052705558, 39.9832668719737], [-105.114153554923, 39.983266647582], [-105.117379628789, 39.9832455850467], [-105.117421236058, 39.983245313161], [-105.117402405573, 39.9832544065329], [-105.117379999793, 39.9832652255169], [-105.117396530591, 39.984139046583], [-105.117396534184, 39.9841394024388], [-105.117403566196, 39.9845112708227], [-105.1174035644, 39.9845116266767], [-105.117392719937, 39.9849039541776], [-105.117392710056, 39.9849043100295], [-105.117384959392, 39.9851846732563], [-105.117384156298, 39.9851846705031], [-105.117380748988, 39.9851846594904], [-105.117376854791, 39.9870313131469], [-105.118552806092, 39.9870313007578], [-105.118523917171, 39.9888427061067], [-105.118527744892, 39.9902848486338], [-105.118517946967, 39.9915568190302], [-105.118517950561, 39.9915571748474], [-105.118526144993, 39.9923862116019], [-105.118526148586, 39.9923865674148], [-105.118526275248, 39.9923993636025], [-105.118526278842, 39.9923997194153], [-105.118526404606, 39.9924125142241], [-105.121261673136, 39.9924215327355], [-105.122358203485, 39.9924251300917], [-105.12235825918, 39.9924304025891], [-105.122358256485, 39.9924307584018], [-105.122358307689, 39.9924356750861], [-105.122358312181, 39.9924360308987], [-105.122361615286, 39.9927502533633], [-105.122361619778, 39.9927506091743], [-105.122376250639, 39.9941417638087], [-105.122376261418, 39.9941426894491], [-105.12238538381, 39.9941427775398], [-105.122394573575, 39.9941428649423], [-105.122394596932, 39.9941456301638], [-105.122394594237, 39.9941459859675], [-105.12239467239, 39.994154746172], [-105.124676435433, 39.9941743071148], [-105.124769117315, 39.9941751006188], [-105.124769115519, 39.9941754564223], [-105.124767337753, 39.9975014323209], [-105.127898669001, 39.9975097378998], [-105.127924787517, 39.9975098067173], [-105.127924813569, 39.9974765575569], [-105.127924814467, 39.9974762017705], [-105.127926088278, 39.9958479461753], [-105.127926092769, 39.9958475903803], [-105.127944779524, 39.9941725941647], [-105.127944784016, 39.9941722383611], [-105.127944843304, 39.9941667120493], [-105.127944845999, 39.9941663562456], [-105.127944850491, 39.9941660348524], [-105.128017539469, 39.994166380333], [-105.128024820314, 39.9941663817094], [-105.128146417169, 39.9941664209372], [-105.12818539507, 39.994166433325], [-105.12826449173, 39.9941664587887], [-105.128269359701, 39.9941664601651], [-105.12828425826, 39.9941664649826], [-105.128287857809, 39.994166466359], [-105.128405190362, 39.9941665055868], [-105.128536061424, 39.9941665468794], [-105.128665938949, 39.9941665888601], [-105.128796810011, 39.9941666301525], [-105.12892371052, 39.9941666700686], [-105.129058058062, 39.9941667127375], [-105.129166878179, 39.9941667464597], [-105.129321779175, 39.9941667953225], [-105.129981820822, 39.9941669997204], [-105.130064863782, 39.9941670251841], [-105.130490739787, 39.9941671552554], [-105.130582670678, 39.9941671827838], [-105.130932291393, 39.9941672880796], [-105.130949000057, 39.994167292897], [-105.131189028105, 39.9941673644707], [-105.131195740316, 39.9941673672235], [-105.131264436283, 39.9941673913108], [-105.131402086032, 39.9941674270977], [-105.131494548726, 39.994167454626], [-105.131538710804, 39.994167467702], [-105.131618246741, 39.994167491101], [-105.131673006244, 39.994167507618], [-105.131744538192, 39.9941675289524], [-105.131813756977, 39.9941675489105], [-105.131879095041, 39.9941675674921], [-105.131949083683, 39.9941675874502], [-105.132017004404, 39.9941676074082], [-105.137116737577, 39.9941689700605], [-105.137133602548, 39.9941689845128], [-105.137150468417, 39.9941689989652], [-105.13719040482, 39.9942206730578], [-105.13733383972, 39.9944062583275], [-105.137333837923, 39.9944066141299], [-105.137333860381, 39.9944697734996], [-105.137333860381, 39.9944701293017], [-105.137334227792, 39.9954913623766], [-105.137334227792, 39.9954917181733], [-105.137334566457, 39.9964325298156], [-105.137334566457, 39.9964328856074], [-105.137317018766, 39.9973941588901], [-105.137317011579, 39.9973945146769], [-105.13729573588, 39.9985599364549], [-105.137295728694, 39.9985602922356], [-105.137294494409, 39.9986279304595], [-105.137225127401, 39.9986009840455], [-105.13626134739, 39.9982265628762], [-105.136204230708, 39.9982116096873], [-105.136187912811, 39.9982073375436], [-105.136171594913, 39.9982030647114], [-105.136138668963, 39.9981944440361], [-105.136081534315, 39.9982339393412], [-105.134815954505, 39.9991087704569], [-105.134751541706, 39.9991532949799], [-105.134665227082, 39.9992129582494], [-105.134578130025, 39.9992731623579], [-105.134492760428, 39.9993321731506], [-105.134460068939, 39.9993547694426], [-105.134371923548, 39.999393138254], [-105.134371855276, 39.9994059523973], [-105.134371852581, 39.9994063081737], [-105.134371846293, 39.9994075592402], [-105.134371802275, 39.9994157820086], [-105.13437081323, 39.9994164591534], [-105.134370014628, 39.9994170186237], [-105.134367645771, 39.9994186543688], [-105.134368492882, 39.9994261614545], [-105.134370113443, 39.9994405253168], [-105.134371589375, 39.9994536979799], [-105.134371596561, 39.9994540537559], [-105.134370832095, 39.9995966840393], [-105.134370830298, 39.9995970398146], [-105.134370757535, 39.9996106831444], [-105.134370755738, 39.9996110389197], [-105.134370682076, 39.9996246815585], [-105.134370384734, 39.9996802347686], [-105.134370362276, 39.9996843382228], [-105.134355551752, 39.9997046442271], [-105.134352444479, 39.9997089038903], [-105.134279246157, 39.9998092591404], [-105.13425782493, 39.9998386259931], [-105.134255092255, 39.9998423715993], [-105.134014797408, 40.000025658313], [-105.133891246718, 40.0000388329277], [-105.133889244373, 40.0000390462539], [-105.133887242926, 40.0000392595801], [-105.13387569688, 40.000099629492], [-105.133869178704, 40.0001337162277], [-105.133868076471, 40.000133712787], [-105.133864084358, 40.0001337004003], [-105.133865543222, 40.0001395021766], [-105.133866198992, 40.0001421116338], [-105.133866718219, 40.0001441788304], [-105.133866807152, 40.0001445346029], [-105.133866979628, 40.0001452172457], [-105.133864220902, 40.0001473195377], [-105.133855215292, 40.0001541906946], [-105.133862564409, 40.0001542140916], [-105.133865257558, 40.0001542230376], [-105.133866026516, 40.000150204942], [-105.137270275828, 40.0001464999535], [-105.137748963789, 40.0001459714559], [-105.138152018094, 40.0001472369599], [-105.138347085461, 40.0001478487235], [-105.139680921063, 40.000172543596], [-105.14062348646, 40.0001899840089], [-105.140670360551, 40.0001901298962], [-105.142035712647, 40.0001943771425], [-105.142052695297, 40.0001871804959], [-105.142060428893, 40.000183902849], [-105.142061276903, 40.000183543636], [-105.142069678846, 40.0001799838484], [-105.142087959562, 40.0001757104516], [-105.14209096263, 40.0001750078529], [-105.142122612972, 40.0001676082006], [-105.143232753695, 40.0001630698661], [-105.144718071305, 40.000154885724], [-105.145504199587, 40.0001615442424], [-105.145768280924, 40.000159489433], [-105.146052846545, 40.0001572749733], [-105.146128119077, 40.0001566893595], [-105.14662421549, 40.0001528274736], [-105.146726522821, 40.0001520305983], [-105.14733682475, 40.0001472761844], [-105.147376227553, 40.0001469692704], [-105.147915502388, 40.0001427646863], [-105.148337395263, 40.0001394739625], [-105.148428401788, 40.0001387644819], [-105.149326308338, 40.0001317550057], [-105.150335729952, 40.0001238653872], [-105.15134656192, 40.0001168373294], [-105.151346627497, 40.0001168380176], [-105.151361579955, 40.000116733419], [-105.15194266957, 40.000116101699], [-105.15197742449, 40.0001160631626], [-105.152679454291, 40.0001152951892], [-105.160191402954, 40.0001353946209], [-105.165480705805, 40.0001492539215], [-105.166308772833, 40.0001516534933], [-105.166403669962, 40.0146084535467], [-105.168893130684, 40.0145241346988], [-105.168835404046, 40.0436750026507], [-105.168820791151, 40.0510501219203], [-105.159437915856, 40.0510228104408], [-105.159642382297, 40.072740309862], [-105.150181782068, 40.0727231615853], [-105.1501796324, 40.0727214629803], [-105.150128429327, 40.0726713200898], [-105.150127592995, 40.0726705013768], [-105.150125135205, 40.0726680947315], [-105.150117762731, 40.0726608754827], [-105.150117742968, 40.0726942254911], [-105.150177630953, 40.0727414922171], [-105.150178857154, 40.0727424594112], [-105.150179469805, 40.0727429433519], [-105.150181703017, 40.0727447051985], [-105.15016031952, 40.078589820689], [-105.15006438304, 40.0829766610134], [-105.15005188478, 40.0854092920051], [-105.150046017883, 40.0865511391324], [-105.149978320843, 40.0871466883193], [-105.131462219257, 40.0871880915358]]]}, "properties": {"OBJECTID_1": 4, "OBJECTID": 4, "SchName": "Centaurus", "SchCode": 320, "SchType": "High", "SchType2": "Neighborhood", "StdtPop": 0, "SHAPE_Leng": 171009.368829, "State_CD": 1380, "SHAPE__Area": 159464014.6953125, "SHAPE__Length": 67861.00590978858}}, {"type": "Feature", "id": 5, "geometry": {"type": "Polygon", "coordinates": [[[-105.179548422867, 40.0147006368333], [-105.168893130684, 40.0145241346988], [-105.166403669962, 40.0146084535467], [-105.166308772833, 40.0001516534933], [-105.165480705805, 40.0001492539215], [-105.165890502864, 39.9967966153865], [-105.166087480948, 39.9946104011976], [-105.166067563502, 39.9904809892061], [-105.166066515168, 39.9902876656301], [-105.166062850041, 39.9896116747319], [-105.166053002709, 39.9877953631203], [-105.166049624145, 39.9871720848683], [-105.166048099704, 39.9868911640301], [-105.166047537359, 39.9867872747379], [-105.166038599122, 39.9862262106368], [-105.1660213344, 39.9851424991161], [-105.166005851937, 39.9841706248275], [-105.165989463072, 39.9831418340694], [-105.165957794764, 39.9822636575872], [-105.165901085018, 39.9806910354493], [-105.165887281506, 39.9803082559223], [-105.16583040108, 39.9787308129119], [-105.165830130687, 39.9787233152537], [-105.165829861193, 39.9787158169063], [-105.165829173981, 39.9786967409636], [-105.165828703264, 39.9786837178024], [-105.165832485172, 39.9786837288162], [-105.165836266181, 39.97868373983], [-105.165836592269, 39.9786839642368], [-105.16583787686, 39.9786848480964], [-105.165839517184, 39.9786859756369], [-105.165847446613, 39.9786914302345], [-105.165848395234, 39.9786920834921], [-105.165850046337, 39.9786932186046], [-105.165850293374, 39.9786933886305], [-105.165881895207, 39.9787151264773], [-105.165881882631, 39.9787112207005], [-105.165881869156, 39.9787073135467], [-105.165881841308, 39.9786994992384], [-105.165881792799, 39.9786848880215], [-105.165881791901, 39.9786848005993], [-105.165881791901, 39.9786847345163], [-105.165881791003, 39.9786844488452], [-105.165881789206, 39.978683871996], [-105.165886521531, 39.9786838857632], [-105.166039244112, 39.9786843283814], [-105.166307382241, 39.9786851048563], [-105.169117320535, 39.9786932055256], [-105.171823484549, 39.9787009420495], [-105.175309371856, 39.9786832393893], [-105.175312876184, 39.9741816049366], [-105.17532183598, 39.9722990418383], [-105.182684804443, 39.9723195494324], [-105.182684985903, 39.9723107423684], [-105.182685016446, 39.9723092705085], [-105.182685025429, 39.9723088285375], [-105.18268502992, 39.9723085986024], [-105.182689980536, 39.9723086047982], [-105.182690022757, 39.9723063109547], [-105.18269051683, 39.9723063137084], [-105.182691460061, 39.9723063178389], [-105.182694656267, 39.9723063329844], [-105.182713875722, 39.9723064245454], [-105.182731128766, 39.970060035284], [-105.182770102174, 39.968158933138], [-105.184418994913, 39.9681127174935], [-105.184403599585, 39.9673025844194], [-105.184411936849, 39.9655000218364], [-105.184800669314, 39.9656413887131], [-105.185750436504, 39.965986773022], [-105.186359852695, 39.9662083824329], [-105.188455452471, 39.9669703953242], [-105.191031894368, 39.9679085016371], [-105.194042239615, 39.9690057841278], [-105.19405964088, 39.968295791242], [-105.194067339442, 39.9664004735889], [-105.194067127439, 39.9656625021152], [-105.194064446867, 39.9650302566559], [-105.194072568535, 39.9641736105542], [-105.194077418539, 39.9630448849019], [-105.194063299718, 39.9619751285969], [-105.194052638512, 39.9607812014515], [-105.194086348692, 39.9575190648104], [-105.203470015402, 39.9572237946247], [-105.203494196253, 39.9549088509478], [-105.20351417209, 39.9503109394362], [-105.203518826261, 39.9499951830696], [-105.203497307119, 39.9435152928629], [-105.203496258785, 39.9432658737469], [-105.203495996477, 39.9432036078431], [-105.203495783576, 39.9431529048372], [-105.203465785236, 39.9360145130402], [-105.203465578623, 39.9359655563112], [-105.20353896649, 39.9359657450408], [-105.217531148712, 39.9360009059163], [-105.217497049562, 39.928649842283], [-105.217496299469, 39.9285891089009], [-105.217435648814, 39.928553165107], [-105.217420052264, 39.9285532829036], [-105.217404455714, 39.9285533993224], [-105.217404321865, 39.9284848761175], [-105.217389422408, 39.9208775397061], [-105.217387513488, 39.9206741735179], [-105.217356577306, 39.9173791532403], [-105.217428682379, 39.9141940643788], [-105.26015951654, 39.914150351287], [-105.276507948311, 39.9139411532714], [-105.295640131587, 39.9139421110036], [-105.30479116069, 39.9141099392348], [-105.314073573793, 39.9140847461129], [-105.322697793983, 39.9140070982676], [-105.323345985054, 39.9140080945838], [-105.323876454602, 39.9140089069328], [-105.323942762847, 39.914009008218], [-105.323958811249, 39.9194393611855], [-105.323930745185, 39.9221067808762], [-105.323950737192, 39.9225708754255], [-105.32394565632, 39.9245414482466], [-105.324107640532, 39.9283013561817], [-105.324199192335, 39.9283378429383], [-105.324202225047, 39.9284082358846], [-105.324204662176, 39.9284647872986], [-105.331262078577, 39.9312567858948], [-105.332672489268, 39.931783508074], [-105.335441432944, 39.9328175029829], [-105.335891699107, 39.9329968840653], [-105.335900824194, 39.9330014344379], [-105.335912639735, 39.9330073273284], [-105.335914134531, 39.9330080726362], [-105.335923324297, 39.9330126794916], [-105.335923588401, 39.9330128027911], [-105.335924086966, 39.933013057656], [-105.33592397827, 39.9330131664902], [-105.335923845319, 39.9330132959891], [-105.335151840351, 39.9337744939956], [-105.335935705776, 39.9330192040328], [-105.325844370539, 39.9430638957259], [-105.325838565626, 39.9430696878851], [-105.325833731791, 39.943074511011], [-105.325832424743, 39.9430757941015], [-105.325830403533, 39.9430777790005], [-105.325825642462, 39.9430824023962], [-105.313640419638, 39.9549361031203], [-105.303202202649, 39.9653316262795], [-105.303202045444, 39.9653317825687], [-105.303181980674, 39.9653517889607], [-105.303172014764, 39.9653617260587], [-105.303171090397, 39.965362646581], [-105.303159355705, 39.9653743469215], [-105.303149413151, 39.9653842606073], [-105.303144262211, 39.9653893954264], [-105.303137265234, 39.9653963712889], [-105.303125522456, 39.9654080798856], [-105.303107690898, 39.9654258596536], [-105.303100780158, 39.9654327494502], [-105.303092496793, 39.9654410086678], [-105.303091629021, 39.9654418741093], [-105.303090975945, 39.965442524051], [-105.303089965341, 39.9654435326999], [-105.303088891854, 39.9654446026251], [-105.303087839927, 39.9654456525839], [-105.303086858068, 39.9654466309389], [-105.303085693852, 39.9654477910572], [-105.303085490832, 39.965447988656], [-105.303085016522, 39.9654484499494], [-105.303084349972, 39.9654490909406], [-105.303069004052, 39.9654638516371], [-105.30285550056, 39.9656692245835], [-105.3026806381, 39.9658374251537], [-105.302477193044, 39.9660331174747], [-105.300463003989, 39.9679704793022], [-105.298248023501, 39.9701008067212], [-105.296678420562, 39.9716103152], [-105.294917016529, 39.9733041758864], [-105.293118794146, 39.9750333288491], [-105.292997675195, 39.9751497910509], [-105.292740424647, 39.9754048757464], [-105.282260523134, 39.9857944281741], [-105.277192137571, 39.9857613963172], [-105.277053193349, 39.9857604877705], [-105.277053012788, 39.985760486394], [-105.277050024991, 39.9857604671217], [-105.276018471584, 39.9857537156562], [-105.272491826814, 39.9857305649178], [-105.272491642659, 39.9857477915182], [-105.272491458505, 39.9857650181144], [-105.272454586256, 39.9892198168166], [-105.27230655288, 39.9892295267607], [-105.272144595617, 39.9892401493333], [-105.272003481964, 39.9892494057125], [-105.271975007167, 39.9892512729559], [-105.271949301875, 39.9892529598756], [-105.271940524436, 39.989253535259], [-105.271939328778, 39.9892536130321], [-105.271935182155, 39.9892538800761], [-105.27193461981, 39.9892539158655], [-105.271507305602, 39.9892819492849], [-105.271496394665, 39.9892826650726], [-105.271485485524, 39.9892833801721], [-105.271384162746, 39.9893512223607], [-105.270547381161, 39.9899114830719], [-105.270485736071, 39.9898566115433], [-105.269854409073, 39.9892946496982], [-105.263489277549, 39.9892817668967], [-105.263020339903, 39.9892808040245], [-105.258143383531, 39.9892706756272], [-105.25762755203, 39.9892695923098], [-105.257064826675, 39.9892684078185], [-105.256334882624, 39.9892668668098], [-105.256471237901, 39.9894747099612], [-105.261669697721, 39.9973974869077], [-105.261297666734, 39.9977126644385], [-105.260252177762, 39.997628032246], [-105.260242413973, 40.0004054192596], [-105.260242328633, 40.0004298305232], [-105.260090101922, 40.0004165025276], [-105.258421327669, 40.0002703733545], [-105.258421747183, 40.0002974994042], [-105.258421762454, 40.0002984834535], [-105.258424533757, 40.000478033006], [-105.258585978081, 40.0109331886458], [-105.256055655691, 40.0109278632219], [-105.256064290298, 40.0145530184361], [-105.244258265219, 40.0145723705745], [-105.240607404107, 40.0145805736284], [-105.220544418873, 40.0146235909691], [-105.219080112858, 40.0146265934099], [-105.215585196584, 40.0146336860222], [-105.21297620064, 40.0146389113966], [-105.179548422867, 40.0147006368333]]]}, "properties": {"OBJECTID_1": 5, "OBJECTID": 5, "SchName": "Fairview", "SchCode": 330, "SchType": "High", "SchType2": "Neighborhood", "StdtPop": 0, "SHAPE_Leng": 161782.263375, "State_CD": 2892, "SHAPE__Area": 176774321.9140625, "SHAPE__Length": 64360.75749351745}}, {"type": "Feature", "id": 6, "geometry": {"type": "Polygon", "coordinates": [[[-105.139680921063, 40.000172543596], [-105.138347085461, 40.0001478487235], [-105.138152018094, 40.0001472369599], [-105.137748963789, 40.0001459714559], [-105.137270275828, 40.0001464999535], [-105.133866026516, 40.000150204942], [-105.133865257558, 40.0001542230376], [-105.133862564409, 40.0001542140916], [-105.133855215292, 40.0001541906946], [-105.133864220902, 40.0001473195377], [-105.133866979628, 40.0001452172457], [-105.133866807152, 40.0001445346029], [-105.133866718219, 40.0001441788304], [-105.133866198992, 40.0001421116338], [-105.133865543222, 40.0001395021766], [-105.133864084358, 40.0001337004003], [-105.133868076471, 40.000133712787], [-105.133869178704, 40.0001337162277], [-105.13387569688, 40.000099629492], [-105.133887242926, 40.0000392595801], [-105.133889244373, 40.0000390462539], [-105.133891246718, 40.0000388329277], [-105.134014797408, 40.000025658313], [-105.134255092255, 39.9998423715993], [-105.13425782493, 39.9998386259931], [-105.134279246157, 39.9998092591404], [-105.134352444479, 39.9997089038903], [-105.134355551752, 39.9997046442271], [-105.134370362276, 39.9996843382228], [-105.134370384734, 39.9996802347686], [-105.134370682076, 39.9996246815585], [-105.134370755738, 39.9996110389197], [-105.134370757535, 39.9996106831444], [-105.134370830298, 39.9995970398146], [-105.134370832095, 39.9995966840393], [-105.134371596561, 39.9994540537559], [-105.134371589375, 39.9994536979799], [-105.134370113443, 39.9994405253168], [-105.134368492882, 39.9994261614545], [-105.134367645771, 39.9994186543688], [-105.134370014628, 39.9994170186237], [-105.13437081323, 39.9994164591534], [-105.134371802275, 39.9994157820086], [-105.134371846293, 39.9994075592402], [-105.134371852581, 39.9994063081737], [-105.134371855276, 39.9994059523973], [-105.134371923548, 39.999393138254], [-105.134460068939, 39.9993547694426], [-105.134492760428, 39.9993321731506], [-105.134578130025, 39.9992731623579], [-105.134665227082, 39.9992129582494], [-105.134751541706, 39.9991532949799], [-105.134815954505, 39.9991087704569], [-105.136081534315, 39.9982339393412], [-105.136138668963, 39.9981944440361], [-105.136171594913, 39.9982030647114], [-105.136187912811, 39.9982073375436], [-105.136204230708, 39.9982116096873], [-105.13626134739, 39.9982265628762], [-105.137225127401, 39.9986009840455], [-105.137294494409, 39.9986279304595], [-105.137295728694, 39.9985602922356], [-105.13729573588, 39.9985599364549], [-105.137317011579, 39.9973945146769], [-105.137317018766, 39.9973941588901], [-105.137334566457, 39.9964328856074], [-105.137334566457, 39.9964325298156], [-105.137334227792, 39.9954917181733], [-105.137334227792, 39.9954913623766], [-105.137333860381, 39.9944701293017], [-105.137333860381, 39.9944697734996], [-105.137333837923, 39.9944066141299], [-105.13733383972, 39.9944062583275], [-105.13719040482, 39.9942206730578], [-105.137150468417, 39.9941689989652], [-105.137133602548, 39.9941689845128], [-105.137116737577, 39.9941689700605], [-105.132017004404, 39.9941676074082], [-105.131949083683, 39.9941675874502], [-105.131879095041, 39.9941675674921], [-105.131813756977, 39.9941675489105], [-105.131744538192, 39.9941675289524], [-105.131673006244, 39.994167507618], [-105.131618246741, 39.994167491101], [-105.131538710804, 39.994167467702], [-105.131494548726, 39.994167454626], [-105.131402086032, 39.9941674270977], [-105.131264436283, 39.9941673913108], [-105.131195740316, 39.9941673672235], [-105.131189028105, 39.9941673644707], [-105.130949000057, 39.994167292897], [-105.130932291393, 39.9941672880796], [-105.130582670678, 39.9941671827838], [-105.130490739787, 39.9941671552554], [-105.130064863782, 39.9941670251841], [-105.129981820822, 39.9941669997204], [-105.129321779175, 39.9941667953225], [-105.129166878179, 39.9941667464597], [-105.129058058062, 39.9941667127375], [-105.12892371052, 39.9941666700686], [-105.128796810011, 39.9941666301525], [-105.128665938949, 39.9941665888601], [-105.128536061424, 39.9941665468794], [-105.128405190362, 39.9941665055868], [-105.128287857809, 39.994166466359], [-105.12828425826, 39.9941664649826], [-105.128269359701, 39.9941664601651], [-105.12826449173, 39.9941664587887], [-105.12818539507, 39.994166433325], [-105.128146417169, 39.9941664209372], [-105.128024820314, 39.9941663817094], [-105.128017539469, 39.994166380333], [-105.127944850491, 39.9941660348524], [-105.127944845999, 39.9941663562456], [-105.127944843304, 39.9941667120493], [-105.127944784016, 39.9941722383611], [-105.127944779524, 39.9941725941647], [-105.127926092769, 39.9958475903803], [-105.127926088278, 39.9958479461753], [-105.127924814467, 39.9974762017705], [-105.127924813569, 39.9974765575569], [-105.127924787517, 39.9975098067173], [-105.127898669001, 39.9975097378998], [-105.124767337753, 39.9975014323209], [-105.124769115519, 39.9941754564223], [-105.124769117315, 39.9941751006188], [-105.124676435433, 39.9941743071148], [-105.12239467239, 39.994154746172], [-105.122394594237, 39.9941459859675], [-105.122394596932, 39.9941456301638], [-105.122394573575, 39.9941428649423], [-105.12238538381, 39.9941427775398], [-105.122376261418, 39.9941426894491], [-105.122376250639, 39.9941417638087], [-105.122361619778, 39.9927506091743], [-105.122361615286, 39.9927502533633], [-105.122358312181, 39.9924360308987], [-105.122358307689, 39.9924356750861], [-105.122358256485, 39.9924307584018], [-105.12235825918, 39.9924304025891], [-105.122358203485, 39.9924251300917], [-105.121261673136, 39.9924215327355], [-105.118526404606, 39.9924125142241], [-105.118526278842, 39.9923997194153], [-105.118526275248, 39.9923993636025], [-105.118526148586, 39.9923865674148], [-105.118526144993, 39.9923862116019], [-105.118517950561, 39.9915571748474], [-105.118517946967, 39.9915568190302], [-105.118509137189, 39.9906653547463], [-105.118509132698, 39.9906649989244], [-105.11850903568, 39.9906550269636], [-105.118509037476, 39.9906546711417], [-105.118508935068, 39.9906443419808], [-105.118495183658, 39.9906441919437], [-105.118552806092, 39.9870313007578], [-105.117376854791, 39.9870313131469], [-105.117392710056, 39.9849043100295], [-105.117392719937, 39.9849039541776], [-105.1174035644, 39.9845116266767], [-105.117403566196, 39.9845112708227], [-105.117396534184, 39.9841394024388], [-105.117396530591, 39.984139046583], [-105.117379999793, 39.9832652255169], [-105.117402405573, 39.9832544065329], [-105.117421236058, 39.983245313161], [-105.117379628789, 39.9832455850467], [-105.114153554923, 39.983266647582], [-105.114052705558, 39.9832668719737], [-105.113993617073, 39.9800578124906], [-105.113993610785, 39.9800574566134], [-105.1139510522, 39.9777459011778], [-105.113951045912, 39.9777455452887], [-105.113941600127, 39.9772324592366], [-105.113941599228, 39.9772321033448], [-105.113950037104, 39.9766985574157], [-105.113950042494, 39.9766982015211], [-105.113963801989, 39.9758281320352], [-105.113963813667, 39.9758277761361], [-105.114078523139, 39.9734518566182], [-105.114078541105, 39.9734515013951], [-105.114086063597, 39.9732956759839], [-105.114086073479, 39.9732953200715], [-105.114086086055, 39.9732952250698], [-105.114086928675, 39.973289372824], [-105.11408701671, 39.9732887566894], [-105.114111508378, 39.9731186812976], [-105.114122821761, 39.9730401084054], [-105.114194266572, 39.972543938831], [-105.114195278075, 39.9725439525995], [-105.114196290476, 39.9725439677449], [-105.114142163387, 39.9724836953289], [-105.110716963565, 39.9724721772615], [-105.109372765897, 39.9724524187217], [-105.109372190077, 39.9723200361512], [-105.109340673583, 39.9650735826789], [-105.109388158529, 39.9621130160408], [-105.109456258912, 39.9578668395642], [-105.109463254992, 39.9566443366668], [-105.109463787693, 39.9565512776253], [-105.111846105453, 39.9558729326395], [-105.114377993607, 39.9550234420732], [-105.117357037956, 39.9539465832456], [-105.119966930419, 39.9524108343169], [-105.121089882915, 39.9517358886871], [-105.121547396685, 39.9514805469533], [-105.122168559247, 39.9510875324496], [-105.122427750155, 39.9509317380108], [-105.124888462094, 39.9494525897493], [-105.125119683957, 39.9492467369943], [-105.125222495243, 39.9491832328114], [-105.125994881995, 39.9484675536597], [-105.126232760374, 39.9482557684866], [-105.126247226843, 39.9482337317116], [-105.126464287664, 39.9480326023394], [-105.127354169564, 39.9466770568726], [-105.127399242533, 39.9464788870391], [-105.127506753805, 39.9463151118931], [-105.127565474878, 39.9457480069377], [-105.127670622682, 39.9452856914113], [-105.127691313578, 39.9445326710634], [-105.12782054252, 39.943284551854], [-105.127914008632, 39.9385848285047], [-105.128069855554, 39.9352942478561], [-105.128072128292, 39.9352462514901], [-105.128179820125, 39.9352940866767], [-105.133720889309, 39.9377551101512], [-105.137505523042, 39.9395081508762], [-105.137575337411, 39.9395404860225], [-105.137574568453, 39.9394298527442], [-105.137533227085, 39.9334772050172], [-105.137557237256, 39.9289549143584], [-105.137557522022, 39.9289013185821], [-105.137617140512, 39.9289015059535], [-105.142461020916, 39.9289166444586], [-105.14327898639, 39.9289191801716], [-105.14698646023, 39.928978986049], [-105.146993720414, 39.928970071451], [-105.147025764218, 39.9289307234857], [-105.147070802153, 39.9288383479862], [-105.147126086273, 39.926587089775], [-105.147105314528, 39.9214488762477], [-105.146936632478, 39.9142793765881], [-105.146935497905, 39.914231120199], [-105.147108746991, 39.9142314826198], [-105.216840239155, 39.9141945556454], [-105.217428682379, 39.9141940643788], [-105.217356577306, 39.9173791532403], [-105.217387513488, 39.9206741735179], [-105.217389422408, 39.9208775397061], [-105.217404321865, 39.9284848761175], [-105.217404455714, 39.9285533993224], [-105.217420052264, 39.9285532829036], [-105.217435648814, 39.928553165107], [-105.217496299469, 39.9285891089009], [-105.217497049562, 39.928649842283], [-105.217531148712, 39.9360009059163], [-105.20353896649, 39.9359657450408], [-105.203465578623, 39.9359655563112], [-105.203465785236, 39.9360145130402], [-105.203495783576, 39.9431529048372], [-105.203495996477, 39.9432036078431], [-105.203496258785, 39.9432658737469], [-105.203497307119, 39.9435152928629], [-105.203518826261, 39.9499951830696], [-105.20351417209, 39.9503109394362], [-105.203494196253, 39.9549088509478], [-105.203470015402, 39.9572237946247], [-105.194086352285, 39.9575190710076], [-105.194052638512, 39.9607812014515], [-105.194063492856, 39.9621398632404], [-105.194077418539, 39.9630448849019], [-105.194072568535, 39.9641736105542], [-105.194067127439, 39.9656625021152], [-105.19405964088, 39.968295791242], [-105.194042239615, 39.9690057841278], [-105.189630016773, 39.9673974718847], [-105.187325401488, 39.9665594865759], [-105.186839789313, 39.9663829047516], [-105.186196905489, 39.9661491282157], [-105.184411936849, 39.9655000218364], [-105.184403599585, 39.9673025844194], [-105.184418994913, 39.9681127174935], [-105.182770102174, 39.968158933138], [-105.182731128766, 39.970060035284], [-105.182713875722, 39.9723064245454], [-105.182694656267, 39.9723063329844], [-105.182691460061, 39.9723063178389], [-105.18269051683, 39.9723063137084], [-105.182690022757, 39.9723063109547], [-105.182689980536, 39.9723086047982], [-105.18268502992, 39.9723085986024], [-105.182685025429, 39.9723088285375], [-105.182685016446, 39.9723092705085], [-105.182684985903, 39.9723107423684], [-105.182684804443, 39.9723195494324], [-105.17532183598, 39.9722990418383], [-105.175312876184, 39.9741816049366], [-105.175309371856, 39.9786832393893], [-105.171823484549, 39.9787009420495], [-105.169117320535, 39.9786932055256], [-105.166307382241, 39.9786851048563], [-105.166039244112, 39.9786843283814], [-105.165886521531, 39.9786838857632], [-105.165881789206, 39.978683871996], [-105.165881791003, 39.9786844488452], [-105.165881791901, 39.9786847345163], [-105.165881791901, 39.9786848005993], [-105.165881792799, 39.9786848880215], [-105.165881841308, 39.9786994992384], [-105.165881869156, 39.9787073135467], [-105.165881882631, 39.9787112207005], [-105.165881895207, 39.9787151264773], [-105.165850293374, 39.9786933886305], [-105.165850046337, 39.9786932186046], [-105.165848395234, 39.9786920834921], [-105.165847446613, 39.9786914302345], [-105.165839517184, 39.9786859756369], [-105.16583787686, 39.9786848480964], [-105.165836592269, 39.9786839642368], [-105.165836266181, 39.97868373983], [-105.165832485172, 39.9786837288162], [-105.165828703264, 39.9786837178024], [-105.165829173981, 39.9786967409636], [-105.165829861193, 39.9787158169063], [-105.165830130687, 39.9787233152537], [-105.16583040108, 39.9787308129119], [-105.165887281506, 39.9803082559223], [-105.165901085018, 39.9806910354493], [-105.165957794764, 39.9822636575872], [-105.165989463072, 39.9831418340694], [-105.166005851937, 39.9841706248275], [-105.1660213344, 39.9851424991161], [-105.166038599122, 39.9862262106368], [-105.166047537359, 39.9867872747379], [-105.166048099704, 39.9868911640301], [-105.166049624145, 39.9871720848683], [-105.166053002709, 39.9877953631203], [-105.166062850041, 39.9896116747319], [-105.166066515168, 39.9902876656301], [-105.166067563502, 39.9904809892061], [-105.166087480948, 39.9946104011976], [-105.165890502864, 39.9967966153865], [-105.165480705805, 40.0001492539215], [-105.160191402954, 40.0001353946209], [-105.152679454291, 40.0001152951892], [-105.15197742449, 40.0001160631626], [-105.15194266957, 40.000116101699], [-105.151361579955, 40.000116733419], [-105.151346627497, 40.0001168380176], [-105.15134656192, 40.0001168373294], [-105.150335729952, 40.0001238653872], [-105.149326308338, 40.0001317550057], [-105.148428401788, 40.0001387644819], [-105.148337395263, 40.0001394739625], [-105.147915502388, 40.0001427646863], [-105.147376227553, 40.0001469692704], [-105.14733682475, 40.0001472761844], [-105.146726522821, 40.0001520305983], [-105.14662421549, 40.0001528274736], [-105.146128119077, 40.0001566893595], [-105.146052846545, 40.0001572749733], [-105.145768280924, 40.000159489433], [-105.145504199587, 40.0001615442424], [-105.144718071305, 40.000154885724], [-105.143232753695, 40.0001630698661], [-105.142122612972, 40.0001676082006], [-105.14209096263, 40.0001750078529], [-105.142087959562, 40.0001757104516], [-105.142069678846, 40.0001799838484], [-105.142061276903, 40.000183543636], [-105.142060428893, 40.000183902849], [-105.142052695297, 40.0001871804959], [-105.142035712647, 40.0001943771425], [-105.140670360551, 40.0001901298962], [-105.14062348646, 40.0001899840089], [-105.139680921063, 40.000172543596]]]}, "properties": {"OBJECTID_1": 6, "OBJECTID": 6, "SchName": "Monarch", "SchCode": 360, "SchType": "High", "SchType2": "Neighborhood", "StdtPop": 0, "SHAPE_Leng": 129026.313614, "State_CD": 5999, "SHAPE__Area": 94255082.4765625, "SHAPE__Length": 51078.7721898514}}, {"type": "Feature", "id": 7, "geometry": {"type": "Polygon", "coordinates": [[[-105.420540228604, 40.1436609046587], [-105.41073186358, 40.143019920567], [-105.406196335287, 40.1431255022094], [-105.40613358527, 40.1430960542381], [-105.406168312342, 40.1429716375687], [-105.406257579728, 40.1427526918597], [-105.406690621594, 40.1417488468895], [-105.406768103982, 40.1415692271133], [-105.407536107855, 40.1397888057774], [-105.408292797446, 40.1378627280643], [-105.410832211685, 40.1319747003867], [-105.413336703918, 40.1270192958274], [-105.414472134911, 40.1250474330121], [-105.414472155572, 40.1250473979808], [-105.414472175335, 40.1250473629496], [-105.414551707679, 40.1249092386488], [-105.416364209681, 40.1217816987496], [-105.418992560727, 40.11723391958], [-105.419363635008, 40.1165918034553], [-105.419790448854, 40.1158532203486], [-105.420511740331, 40.1146050128013], [-105.421576123569, 40.1126761170701], [-105.422565984367, 40.1110498289902], [-105.425448154396, 40.1063140901583], [-105.427501623185, 40.1030148830302], [-105.428222051382, 40.1017600434404], [-105.428310471657, 40.101606029498], [-105.428653611027, 40.1010083289943], [-105.432119950994, 40.0941167533294], [-105.433312538196, 40.0916951047325], [-105.435689475047, 40.0871407990992], [-105.439224616982, 40.085911745726], [-105.443683660016, 40.0840505782821], [-105.444329793945, 40.0837808620306], [-105.444346323845, 40.0837739621819], [-105.444362849253, 40.0837670540847], [-105.445893014355, 40.0831273974069], [-105.447891972475, 40.0822917060134], [-105.448048982715, 40.0822260635437], [-105.448117337322, 40.0821944200085], [-105.44812413128, 40.0821912755177], [-105.448126821734, 40.0821900300932], [-105.4481389975, 40.0821843940655], [-105.448577978128, 40.0819811799045], [-105.448738161218, 40.0819038072769], [-105.448928300427, 40.0818119650132], [-105.457645807066, 40.0776005655336], [-105.46694593315, 40.0731046853189], [-105.467139297312, 40.0730111944563], [-105.467328795124, 40.0729714269113], [-105.476075946167, 40.0711353737189], [-105.485587520398, 40.0680279630862], [-105.489232298119, 40.0669528450869], [-105.489323092642, 40.0669260610864], [-105.489343153819, 40.0669201433058], [-105.489363216792, 40.0669142248372], [-105.489446166327, 40.0668897548618], [-105.492059856867, 40.0661265758198], [-105.492059893698, 40.0661265655076], [-105.492059929631, 40.0661265545079], [-105.493729359653, 40.0656266098624], [-105.493839740144, 40.0655935533883], [-105.494625770509, 40.0653616344402], [-105.494644556078, 40.0653618111252], [-105.494649817511, 40.0653618606245], [-105.494661840562, 40.0653619740604], [-105.494667852088, 40.0653620311221], [-105.494673863614, 40.0653620874963], [-105.504731554249, 40.0654563526589], [-105.512294748205, 40.0657436029636], [-105.512976913561, 40.0657694875098], [-105.512609308573, 40.0654137159332], [-105.50674733961, 40.0597397945548], [-105.504101322297, 40.0571782501785], [-105.503992624351, 40.0570730177605], [-105.499216564056, 40.0513640408675], [-105.499050713495, 40.0514373334077], [-105.499103010716, 40.0513682388577], [-105.499189321747, 40.0513314739437], [-105.499188182683, 40.0513301124327], [-105.499187897917, 40.051329772055], [-105.499187613151, 40.0513294316772], [-105.499187328385, 40.0513290912994], [-105.499187043619, 40.0513287495463], [-105.499087857934, 40.0512101783302], [-105.495123138037, 40.0469910304083], [-105.493807568778, 40.0455908919523], [-105.492403470548, 40.0442247729495], [-105.489369947869, 40.0412730593705], [-105.489317375763, 40.0412219029972], [-105.489223287119, 40.0411303449323], [-105.489206201162, 40.0411250610661], [-105.489203479267, 40.0411242192787], [-105.489187879124, 40.0411193948188], [-105.489176999627, 40.0411160297321], [-105.489174213951, 40.041115168688], [-105.489170495824, 40.0411140187953], [-105.489212417504, 40.0411118290473], [-105.489221607269, 40.0411113490083], [-105.489284359083, 40.0411080705758], [-105.486864513304, 40.0386390422083], [-105.478701673234, 40.0302578822568], [-105.477463031204, 40.0289939929234], [-105.475310492612, 40.0267974364144], [-105.469830565461, 40.0211938626425], [-105.46678816024, 40.0212137260977], [-105.449339267094, 40.0213261009721], [-105.447715690677, 40.020349725118], [-105.446229851145, 40.0194561367153], [-105.444655475457, 40.0185965260684], [-105.439814396898, 40.0159530236125], [-105.43327109442, 40.0123877844134], [-105.432443438819, 40.01193676768], [-105.43152722101, 40.0115197320046], [-105.425816863413, 40.008920267847], [-105.425749272374, 40.0088894957539], [-105.425284126516, 40.0088858834397], [-105.420414715094, 40.0088826261642], [-105.406857496235, 40.0088724724635], [-105.406854037721, 40.0088724697112], [-105.406853959567, 40.0088724697112], [-105.406853566105, 40.0088724690232], [-105.406851600592, 40.008872467647], [-105.406849636874, 40.0088724662709], [-105.406845705847, 40.0088724628306], [-105.406833916357, 40.0088724531978], [-105.406674548039, 40.008774491272], [-105.406617407102, 40.0087393678134], [-105.406471683295, 40.0087382118704], [-105.406267934609, 40.0086129687626], [-105.400407843125, 40.0050104502882], [-105.397857468541, 40.0033539565554], [-105.395218638648, 40.0017313668141], [-105.370593256511, 39.9857285378942], [-105.370205564296, 39.9854591428313], [-105.37019742017, 39.9783248478167], [-105.370221266847, 39.9657896429927], [-105.370174169075, 39.9566174411743], [-105.370171897236, 39.9561748088018], [-105.370171884659, 39.9561723126598], [-105.370171884659, 39.9561722561953], [-105.370171882863, 39.9561719724959], [-105.370171876575, 39.9561705546871], [-105.37017186849, 39.9561691361898], [-105.370171854117, 39.9561662998836], [-105.370171810099, 39.9561577916528], [-105.367600411345, 39.954068555151], [-105.356234023563, 39.944823002926], [-105.351589124486, 39.9410443623519], [-105.344414979201, 39.9373490746123], [-105.343381800742, 39.9368097071408], [-105.340058884895, 39.9350748677994], [-105.336647620639, 39.9333738475907], [-105.335941578961, 39.9330217581921], [-105.335935960898, 39.933018956745], [-105.335935705776, 39.9330192040328], [-105.335151840351, 39.9337744939956], [-105.335923845319, 39.9330132959891], [-105.33592397827, 39.9330131664902], [-105.335924086966, 39.933013057656], [-105.335923588401, 39.9330128027911], [-105.335923324297, 39.9330126794916], [-105.335914134531, 39.9330080726362], [-105.335912639735, 39.9330073273284], [-105.335900824194, 39.9330014344379], [-105.335891699107, 39.9329968840653], [-105.335441432944, 39.9328175029829], [-105.332672489268, 39.931783508074], [-105.331262078577, 39.9312567858948], [-105.324204662176, 39.9284647872986], [-105.324202225047, 39.9284082358846], [-105.324199192335, 39.9283378429383], [-105.324107640532, 39.9283013561817], [-105.32394565632, 39.9245414482466], [-105.323950737192, 39.9225708754255], [-105.323930745185, 39.9221067808762], [-105.323958811249, 39.9194393611855], [-105.323942762847, 39.914009008218], [-105.327898511268, 39.9140149881813], [-105.332546266089, 39.9140117015786], [-105.3360354044, 39.9139964454014], [-105.34193408122, 39.913943859726], [-105.346476613677, 39.9138891731991], [-105.351348321193, 39.9138245937212], [-105.360896595196, 39.9136935907695], [-105.368109649211, 39.9135509858515], [-105.370124167948, 39.9135127204328], [-105.393481614892, 39.9132528090935], [-105.396496761634, 39.9132048641086], [-105.39853271058, 39.9132141466307], [-105.398075011757, 39.8545669107192], [-105.537397648695, 39.8535158326399], [-105.537767219197, 39.8824046002687], [-105.700838907457, 39.8789651292159], [-105.69872361661, 39.8814216345448], [-105.698376198564, 39.8836025314875], [-105.698024806371, 39.8844207479493], [-105.699796823999, 39.8855078339261], [-105.699803200241, 39.8876881197799], [-105.700167365579, 39.8912304669444], [-105.697701800941, 39.8950502444677], [-105.695228171228, 39.8961446141553], [-105.69240139671, 39.897512057031], [-105.691345240244, 39.8994215751073], [-105.690645921558, 39.9024206384309], [-105.688174163934, 39.904332461253], [-105.688535557072, 39.9070572368792], [-105.688895469785, 39.9092369392513], [-105.688903763032, 39.9122348274134], [-105.686430113556, 39.9136015412885], [-105.68608362347, 39.9163274667815], [-105.68325656149, 39.9179672176709], [-105.682559613459, 39.9220563701935], [-105.681148106822, 39.9236938165692], [-105.680095544516, 39.9272384371618], [-105.676913890544, 39.9288785846413], [-105.678332724738, 39.9299665421782], [-105.675816332523, 39.9327255804661], [-105.675369255379, 39.9330000092607], [-105.675172694114, 39.9333855823344], [-105.675344193281, 39.9334968480767], [-105.675726230602, 39.93353682162], [-105.67634512312, 39.9334953195869], [-105.677082201591, 39.9333218292302], [-105.678398787743, 39.9331575776118], [-105.679478947193, 39.9332370098326], [-105.680124843069, 39.9334489165769], [-105.680731123241, 39.9336203256925], [-105.681350364305, 39.9337106014237], [-105.681745469418, 39.9337099787331], [-105.682219838279, 39.9338004775226], [-105.683050376573, 39.9341033251962], [-105.683472503908, 39.9343561232633], [-105.683749763531, 39.9346091504585], [-105.684344618929, 39.9354193030248], [-105.685176643935, 39.936259486955], [-105.686471023733, 39.9375957181691], [-105.686814162205, 39.9378486314483], [-105.6870780531, 39.938020561967], [-105.68744731458, 39.9381923219269], [-105.687855979763, 39.9383234598437], [-105.689385058801, 39.9387670624935], [-105.690097345567, 39.9391410236052], [-105.690335445829, 39.9395056272643], [-105.690521117717, 39.9399615654144], [-105.690745738759, 39.940214663489], [-105.690956877885, 39.9403562562021], [-105.691682674414, 39.9408417124451], [-105.692183878647, 39.9410842082018], [-105.693318099609, 39.941599387958], [-105.693701201434, 39.9419941567678], [-105.693926878894, 39.9426122428477], [-105.693732293024, 39.9436670035726], [-105.693510524133, 39.9444277841817], [-105.693195853272, 39.9449453898602], [-105.692867547782, 39.9453007966782], [-105.69259227164, 39.9457777806312], [-105.69208002801, 39.9463058510758], [-105.691948730248, 39.9464581513134], [-105.6918834371, 39.9466610366448], [-105.691975958184, 39.9467724088984], [-105.692108113837, 39.9469242700943], [-105.692610365506, 39.9475216189312], [-105.69294146296, 39.9481496690526], [-105.69302141841, 39.9484739754932], [-105.693588088268, 39.9485541350743], [-105.693878557617, 39.9487868389122], [-105.694076902937, 39.9490501123883], [-105.69438132941, 39.9495565371737], [-105.694461350437, 39.9499011212529], [-105.694344782351, 39.9506008928122], [-105.694056466264, 39.9511285947896], [-105.693636208323, 39.9515855469767], [-105.693162991103, 39.9519513376337], [-105.692321560735, 39.952550932259], [-105.691703673432, 39.9530082061715], [-105.691006478363, 39.953374360386], [-105.690348318687, 39.9535680851902], [-105.689453021743, 39.9537621985134], [-105.688992941485, 39.9541279492967], [-105.688783950231, 39.9547771725888], [-105.688653020778, 39.9550714114832], [-105.688627316385, 39.9553046447177], [-105.688695682669, 39.956206884047], [-105.688604721959, 39.9566632762269], [-105.688079135652, 39.9571710741394], [-105.687553039103, 39.957496372051], [-105.686526987877, 39.9580759474208], [-105.685790714297, 39.9586347679414], [-105.685540968275, 39.9588480847073], [-105.68522515296, 39.9589905360527], [-105.685488929769, 39.959091499216], [-105.686649416572, 39.9594850378527], [-105.687519840065, 39.9597979252701], [-105.688113030884, 39.9599084849865], [-105.688429628632, 39.9600499102463], [-105.688549214159, 39.960414709568], [-105.688523816091, 39.9607594696061], [-105.688446780165, 39.9614895868403], [-105.688422080088, 39.9620878130435], [-105.688608024166, 39.9626248640176], [-105.688530147417, 39.9630508192704], [-105.688675725697, 39.9632837726041], [-105.689032373034, 39.963607628602], [-105.689283756685, 39.9639823496838], [-105.689404732805, 39.9648439450805], [-105.688701232461, 39.9670148836518], [-105.688792943265, 39.9675519964411], [-105.689004977113, 39.967987615371], [-105.68954753529, 39.9688181030172], [-105.689997584061, 39.9695473521094], [-105.690182854402, 39.9698309321523], [-105.690407319137, 39.9699927811541], [-105.689975238468, 39.9709870923918], [-105.689726560543, 39.9715958263858], [-105.689491364534, 39.9723160652966], [-105.689009157873, 39.9742533585157], [-105.688747281001, 39.9748621122965], [-105.688512063432, 39.9755823484542], [-105.688157453474, 39.9760188944112], [-105.687855022158, 39.9762627172683], [-105.687330531797, 39.9772267525759], [-105.686646799779, 39.9777956313378], [-105.686174801573, 39.9786886051881], [-105.685543293115, 39.9790850336462], [-105.685017674469, 39.979653647754], [-105.684965700642, 39.9799274780427], [-105.685111165734, 39.9801097423109], [-105.685428512676, 39.9804945040097], [-105.685521621258, 39.9808086554387], [-105.685431186062, 39.9814779574668], [-105.685314059224, 39.98202563743], [-105.685079578273, 39.9830398883988], [-105.685185814836, 39.9833337420384], [-105.685516301435, 39.9836982051109], [-105.686190325359, 39.9843764144342], [-105.686626290343, 39.9847508427039], [-105.68723399165, 39.9852669317865], [-105.687419097599, 39.9854795446085], [-105.687419571011, 39.9856519032821], [-105.68735433805, 39.9858953393621], [-105.687236217675, 39.9860780282162], [-105.686933904039, 39.9863826810844], [-105.686381854263, 39.9869412048317], [-105.686237671965, 39.9872354615411], [-105.686159280481, 39.9874890557433], [-105.686068233532, 39.9879353080304], [-105.686243263977, 39.9892834772164], [-105.686112754038, 39.9897602094437], [-105.68570544082, 39.9902373863931], [-105.68494289062, 39.9909584618813], [-105.683995729442, 39.9916595503424], [-105.683194335191, 39.9926544224438], [-105.682918500296, 39.9930198543561], [-105.682827127259, 39.9933545774808], [-105.68282821422, 39.9937601249955], [-105.682869390298, 39.9943683835989], [-105.682910023793, 39.9947738679729], [-105.683305863728, 39.994915181869], [-105.684281385618, 39.9949339043658], [-105.685296784621, 39.9950742186657], [-105.686258879392, 39.9950016975855], [-105.687398386042, 39.9951736475305], [-105.68912136913, 39.9957168869033], [-105.690098006727, 39.9961309690676], [-105.690639610893, 39.9965356240372], [-105.691182728721, 39.9974776269806], [-105.691382400852, 39.9981667294556], [-105.691174491169, 39.9992417782736], [-105.691070675567, 39.9998299965783], [-105.690545171906, 40.0004797451098], [-105.690295825634, 40.0008857058619], [-105.690204448105, 40.0012102954616], [-105.690152676398, 40.0015550981387], [-105.690206200718, 40.0018388935449], [-105.690286545139, 40.0022848662834], [-105.690313846737, 40.0026193981152], [-105.690340921061, 40.0028728216597], [-105.690777282202, 40.0033384815213], [-105.690909940911, 40.003632285686], [-105.690687038347, 40.0040686193858], [-105.690174568342, 40.0046777887363], [-105.689912076124, 40.0051040475053], [-105.689623974734, 40.0058040927923], [-105.689334966046, 40.0061797013336], [-105.689045533353, 40.0064032274541], [-105.688216774622, 40.007073738809], [-105.689261122733, 40.0080757624443], [-105.689538899785, 40.0083997453915], [-105.689711316133, 40.0087644552136], [-105.689765605817, 40.0093219950349], [-105.689687681458, 40.0097479495853], [-105.689452127919, 40.0103870759599], [-105.689282188227, 40.0109145682375], [-105.68928286376, 40.0111578963856], [-105.689442043432, 40.0115023515927], [-105.689627960559, 40.0119785654361], [-105.689523718257, 40.0124248400307], [-105.689459001827, 40.0128609111265], [-105.689566374758, 40.0135400280138], [-105.689514956988, 40.0140166328767], [-105.689212924525, 40.0144632312669], [-105.688726735632, 40.0150723512036], [-105.688226707294, 40.0154483009029], [-105.687871021154, 40.0155705442053], [-105.687436022757, 40.0156219461686], [-105.687132745229, 40.0156224387708], [-105.686908332596, 40.015531554284], [-105.686644142563, 40.0153596232708], [-105.68635355284, 40.0151775975414], [-105.686049695, 40.0149651748676], [-105.685561183962, 40.0147327719884], [-105.684703886652, 40.0146530381377], [-105.683991552276, 40.014542650922], [-105.683212881808, 40.0142802846593], [-105.682606012341, 40.0141595815567], [-105.681669963324, 40.0142117537736], [-105.680799570374, 40.0141624278404], [-105.680351202351, 40.0141428526715], [-105.679718556625, 40.0142452273303], [-105.678756609178, 40.0144799126014], [-105.67783400255, 40.0146334204535], [-105.676925524625, 40.0151518912373], [-105.675635237552, 40.015904127555], [-105.675161086084, 40.0161177616032], [-105.674554916405, 40.0162707621659], [-105.673460803423, 40.0164042153847], [-105.672182131566, 40.0165582121919], [-105.67110116992, 40.0166814854782], [-105.669941390989, 40.0169265295249], [-105.669479796172, 40.0168967923221], [-105.668833068456, 40.0166544120332], [-105.668120613706, 40.016493233587], [-105.66717103606, 40.0164236426764], [-105.666248104243, 40.0164655312505], [-105.663321092111, 40.0166015165505], [-105.662266028895, 40.0165320358276], [-105.661541101037, 40.0166648555925], [-105.661001328536, 40.0170306041289], [-105.660527865177, 40.0175584764203], [-105.660213034416, 40.0182584847929], [-105.660068532318, 40.0184918752757], [-105.659739128188, 40.0186038576789], [-105.659067773159, 40.0191015818553], [-105.658330001189, 40.0193966190964], [-105.657552641363, 40.0196815676364], [-105.65627387159, 40.0198353871241], [-105.65527215842, 40.0200496541599], [-105.654112424405, 40.0203655093102], [-105.652807715778, 40.0207220987224], [-105.652293808468, 40.0208951361894], [-105.65191188164, 40.021118691169], [-105.651951849484, 40.0213011351381], [-105.652123552569, 40.0214225733929], [-105.652519733864, 40.0216755171242], [-105.652757693091, 40.0219388091115], [-105.652811123986, 40.0222428981879], [-105.652785227353, 40.0224558464821], [-105.652680999424, 40.0230237500653], [-105.652524066438, 40.0236120021593], [-105.652486046142, 40.0243014833405], [-105.652131426302, 40.024950828353], [-105.651684552178, 40.0256307088668], [-105.651316506118, 40.0261786813698], [-105.650552495257, 40.02658522945], [-105.650196884575, 40.0267986051213], [-105.649736946251, 40.0275494666235], [-105.649751071361, 40.0279752730156], [-105.64948739157, 40.0280161694726], [-105.649237988705, 40.0285538434114], [-105.648843218663, 40.0289598999634], [-105.648211378727, 40.0295183423441], [-105.647185025667, 40.0306146345719], [-105.646144928383, 40.0314676068571], [-105.645171268701, 40.0325638141051], [-105.642604297743, 40.0335286016175], [-105.640791197462, 40.034269301706], [-105.640679394938, 40.0353169614396], [-105.64077306407, 40.0359657215201], [-105.640641875902, 40.0363105976002], [-105.640602995918, 40.0366452212642], [-105.639412084973, 40.0384556590451], [-105.638881176149, 40.0398511937648], [-105.638990773308, 40.0412459551079], [-105.63899244687, 40.042066478912], [-105.638649347923, 40.0423860744261], [-105.638412566387, 40.0427107967615], [-105.638347433139, 40.0431164217321], [-105.638559648447, 40.0436839325524], [-105.638507810265, 40.0441402355653], [-105.638113029444, 40.0446172256566], [-105.637520286884, 40.0450538962934], [-105.637375689564, 40.0453075349913], [-105.637376138722, 40.045530584973], [-105.637429519311, 40.0458346816587], [-105.637522271262, 40.0460373448649], [-105.639109418299, 40.0470715420476], [-105.64078831387, 40.0475994335739], [-105.641378383044, 40.0479995852114], [-105.642091124357, 40.0481710667539], [-105.642499944049, 40.0483927512979], [-105.642963625653, 40.0490317756165], [-105.643162576437, 40.0495384620334], [-105.645203179555, 40.0509205005977], [-105.64570504944, 40.0531266754949], [-105.645901620587, 40.0533573069369], [-105.646192265107, 40.0535394350124], [-105.647101776993, 40.0538857390618], [-105.648172544557, 40.0541249512921], [-105.648476281124, 40.0542563632254], [-105.648678099331, 40.0544370531885], [-105.648860863372, 40.0551582082209], [-105.6492662515, 40.0558542133495], [-105.65034910949, 40.0570978096084], [-105.650726572589, 40.0575992022903], [-105.650912681956, 40.0582275566482], [-105.650979237238, 40.0584910746882], [-105.650847989781, 40.0588055444723], [-105.650264207916, 40.0594150068907], [-105.649781453282, 40.0598106599873], [-105.64945241297, 40.0601862166725], [-105.649242231448, 40.0606123122393], [-105.649150556577, 40.0609267289191], [-105.648887702338, 40.0614035850422], [-105.648533341213, 40.0622759659175], [-105.648349561177, 40.0627121645417], [-105.648284202452, 40.062996129787], [-105.647876385279, 40.0635644169813], [-105.6476130729, 40.0638384985315], [-105.647534932047, 40.0643151142751], [-105.647469438574, 40.064538248492], [-105.647218964917, 40.0646500934192], [-105.646929079473, 40.0648430970552], [-105.646732237933, 40.0653502791625], [-105.646455696064, 40.0656142350845], [-105.64591517347, 40.0658481090685], [-105.645032009171, 40.0662953223279], [-105.644267253607, 40.0665801636096], [-105.643660928519, 40.0669053564143], [-105.642948816027, 40.0671292906148], [-105.642066060462, 40.0677893922579], [-105.641644080451, 40.0679318515157], [-105.641169020786, 40.067932433798], [-105.638963860681, 40.0672456823479], [-105.639572495337, 40.0680357616702], [-105.640248087719, 40.0692921339189], [-105.640790040432, 40.0702169604369], [-105.641044047163, 40.0713087527853], [-105.640953663171, 40.0722720344214], [-105.640915036512, 40.0727384586512], [-105.641104220813, 40.073098577662], [-105.640955782297, 40.0732960337763], [-105.640163826644, 40.0732361665089], [-105.63912183122, 40.0735213087224], [-105.638737987387, 40.0743954288947], [-105.637316061192, 40.0746387216842], [-105.636933600765, 40.0747709773568], [-105.636524602308, 40.0748322936778], [-105.635799043832, 40.0749852292002], [-105.635311119394, 40.0751784358915], [-105.635087565551, 40.0755842436341], [-105.634930238205, 40.0761116365919], [-105.634694805041, 40.0771866052151], [-105.634682529562, 40.0776529964738], [-105.634709747617, 40.0780686496791], [-105.634830898908, 40.0792648662903], [-105.634726234398, 40.0797313642874], [-105.634581552636, 40.0799849990177], [-105.634213274811, 40.0806342996774], [-105.633778476739, 40.0810200728548], [-105.633119237288, 40.0813756859346], [-105.632538906749, 40.081589264725], [-105.63342320562, 40.0815781080407], [-105.63391161964, 40.0816079586279], [-105.634241788236, 40.0817089611514], [-105.634612337003, 40.082205321596], [-105.635180674134, 40.0826000642852], [-105.635593875808, 40.0830190035725], [-105.635962954032, 40.08437340378], [-105.636029883013, 40.0848397025128], [-105.635766157408, 40.0849718139727], [-105.635436191831, 40.0849823412285], [-105.63507998916, 40.0850740053308], [-105.634842760263, 40.0852567778351], [-105.634856481131, 40.0855203652015], [-105.635253735014, 40.0861586351441], [-105.635400039133, 40.0867160866397], [-105.635255425643, 40.0870102760099], [-105.635322050095, 40.0873244952416], [-105.635150713522, 40.0874564974148], [-105.634886895391, 40.0875480537211], [-105.63430681728, 40.0879137210321], [-105.633963957285, 40.0880864752708], [-105.63368733367, 40.0883808161006], [-105.63360876971, 40.0887053426369], [-105.633636243785, 40.0892527957953], [-105.633821804281, 40.0896378480114], [-105.633941370944, 40.0897992521708], [-105.634232095414, 40.0901848565852], [-105.634312295206, 40.0906916946626], [-105.634529386569, 40.0911473152326], [-105.634459283841, 40.0915938600025], [-105.634513287861, 40.0922021136768], [-105.634461045438, 40.092486054931], [-105.634382661141, 40.0929018299291], [-105.634608158938, 40.0934490521062], [-105.634768056364, 40.0941991224456], [-105.634650568403, 40.0948684078474], [-105.634651771247, 40.0954767229649], [-105.634440948328, 40.0956797401616], [-105.63392598999, 40.0956296457884], [-105.633424253056, 40.0955896729287], [-105.632896569183, 40.0957829139212], [-105.632382321412, 40.0960978018247], [-105.632066092873, 40.0964124608155], [-105.631926739019, 40.0968196840133], [-105.631896101078, 40.0972541592492], [-105.631989082998, 40.0975480721846], [-105.632155657601, 40.097720869312], [-105.633125850685, 40.0982666083331], [-105.633643622546, 40.0986874865519], [-105.633813988938, 40.0990971781198], [-105.633906962774, 40.0993809518024], [-105.634105495841, 40.0996341862422], [-105.634687156784, 40.100018775686], [-105.635123598774, 40.1004035326785], [-105.635506933262, 40.1006362716007], [-105.635811136054, 40.1009096563098], [-105.635945270696, 40.1011747895662], [-105.636049956766, 40.1014974136014], [-105.636063645294, 40.1017407236057], [-105.636514141426, 40.1025411409285], [-105.63638312843, 40.1030482250415], [-105.636159510806, 40.1034641725589], [-105.636121644122, 40.1043361362712], [-105.636083027345, 40.104832972774], [-105.636362773504, 40.106069550835], [-105.636562126734, 40.1067181856294], [-105.636629406955, 40.1073466989994], [-105.636445468816, 40.1078031534568], [-105.636234754593, 40.1080771435223], [-105.635720266074, 40.108310936934], [-105.635628323504, 40.1085543709742], [-105.635972438445, 40.10895950982], [-105.635986512351, 40.1093954527015], [-105.635696850587, 40.1098114747721], [-105.635565492638, 40.1101563419312], [-105.635462038159, 40.1112514304757], [-105.635199557619, 40.1120628250685], [-105.634910923528, 40.1130060513006], [-105.634515758228, 40.1135033019476], [-105.634106784025, 40.1136964109964], [-105.63342014506, 40.1137073446362], [-105.632852092695, 40.1135863366593], [-105.632244741732, 40.1136275877635], [-105.631716523361, 40.113618052849], [-105.630977394037, 40.1138013882937], [-105.630251602898, 40.1140556730634], [-105.629882363875, 40.1143196923027], [-105.629777284343, 40.1146138289828], [-105.629870802558, 40.1151814841034], [-105.629897889458, 40.1155363038458], [-105.62970021518, 40.1157494367575], [-105.629357935497, 40.1163074413801], [-105.629095169294, 40.1170174368529], [-105.628686600231, 40.117443712646], [-105.628238197174, 40.1177585071667], [-105.627842957313, 40.1182557361166], [-105.627552997309, 40.1185602136519], [-105.627038268042, 40.118722997301], [-105.626510143096, 40.1187844086735], [-105.62681455879, 40.1191490631873], [-105.627541842929, 40.1196551916076], [-105.627978484344, 40.1201008060197], [-105.628145704836, 40.1205502725794], [-105.628204708878, 40.1210130261716], [-105.628020524601, 40.1213883579668], [-105.627717345887, 40.1216928510119], [-105.627480102617, 40.121946577345], [-105.62753345985, 40.1222303985898], [-105.627864236606, 40.1225544669409], [-105.62826093533, 40.1228176295777], [-105.628591927682, 40.1232532198562], [-105.628698368161, 40.1236687827942], [-105.628553800486, 40.1240440703916], [-105.628356650824, 40.124551218814], [-105.628199330665, 40.125169845196], [-105.62693806726, 40.1251857411176], [-105.623379146022, 40.1252241799437], [-105.618069386735, 40.1251806437352], [-105.606183177136, 40.1253848148628], [-105.592395112809, 40.1256399904751], [-105.580257843851, 40.1258721100319], [-105.569784574599, 40.1260512671329], [-105.557264130156, 40.1262710620584], [-105.552456689013, 40.1263645924168], [-105.543171939392, 40.1265306516216], [-105.531668265679, 40.1266661790023], [-105.523109823727, 40.1267797324561], [-105.511672089949, 40.126811870412], [-105.504156989098, 40.1268428008361], [-105.499745664572, 40.126457610239], [-105.495268346211, 40.1261634952558], [-105.490592931365, 40.1260415464429], [-105.486009975618, 40.1259701132036], [-105.479525138194, 40.1259894213483], [-105.477319517253, 40.1259484559291], [-105.476778017291, 40.1259382097623], [-105.476210081707, 40.125988786673], [-105.471693662377, 40.1262203431745], [-105.446994427047, 40.1271247319894], [-105.446345096912, 40.1298618415669], [-105.446130893632, 40.1334913421779], [-105.445917207782, 40.1364415587313], [-105.445869700378, 40.138349768956], [-105.445808181951, 40.1406490001695], [-105.445740151636, 40.1431329096944], [-105.445712903937, 40.1441670277417], [-105.43000335759, 40.1437016080702], [-105.420540228604, 40.1436609046587]]]}, "properties": {"OBJECTID_1": 7, "OBJECTID": 7, "SchName": "Nederland", "SchCode": 503, "SchType": "High", "SchType2": "Neighborhood", "StdtPop": 0, "SHAPE_Leng": 460889.21933, "State_CD": 6212, "SHAPE__Area": 1079340742.7226562, "SHAPE__Length": 183400.2714726015}}]}