{"type": "FeatureCollection", "crs": {"type": "name", "properties": {"name": "EPSG:4326"}}, "features": [{"type": "Feature", "id": 1, "geometry": {"type": "Point", "coordinates": [-105.104290000103, 39.9880599999096]}, "properties": {"OBJECTID": 1, "SHNAME": "ANGEVINE", "CDEID": 4878, "BVSDID": 252, "LATITUDE": 39.98806, "LONGITUDE": -105.10429, "ICSCHNAME": "Angevine Middle School", "ICSCHADDRE": "1150 South Boulder Road", "ICSCHCITY": "Lafayette", "ICSCHST": "CO", "ICSCHZIP": 80026, "ICSCHPHONE": "(720)561-7100", "SPTAB": "http://anm.bvsd.org"}}, {"type": "Feature", "id": 2, "geometry": {"type": "Point", "coordinates": [-105.055650000392, 39.9470300002287]}, "properties": {"OBJECTID": 2, "SHNAME": "ASPEN CREEK", "CDEID": 441, "BVSDID": 505, "LATITUDE": 39.94703, "LONGITUDE": -105.05565, "ICSCHNAME": "Aspen Creek K-8", "ICSCHADDRE": "5500 Aspen Creek Drive", "ICSCHCITY": "Broomfield", "ICSCHST": "CO", "ICSCHZIP": 80020, "ICSCHPHONE": "(720)561-8000", "SPTAB": "http://ac8.bvsd.org/"}}, {"type": "Feature", "id": 3, "geometry": {"type": "Point", "coordinates": [-105.078299999795, 39.9376399996881]}, "properties": {"OBJECTID": 3, "SHNAME": "BROOMFIELD HEIGHTS", "CDEID": 1066, "BVSDID": 225, "LATITUDE": 39.93764, "LONGITUDE": -105.0783, "ICSCHNAME": "Broomfield Heights Middle School", "ICSCHADDRE": "1555 Daphne Street", "ICSCHCITY": "Broomfield", "ICSCHST": "CO", "ICSCHZIP": 80020, "ICSCHPHONE": "(720)561-8400", "SPTAB": "http://bhm.bvsd.org/"}}, {"type": "Feature", "id": 4, "geometry": {"type": "Point", "coordinates": [-105.279769999704, 40.0232500002009]}, "properties": {"OBJECTID": 4, "SHNAME": "CASEY", "CDEID": 1352, "BVSDID": 240, "LATITUDE": 40.02325, "LONGITUDE": -105.27977, "ICSCHNAME": "Casey Middle School", "ICSCHADDRE": "1301 High Street", "ICSCHCITY": "Boulder", "ICSCHST": "CO", "ICSCHZIP": 80304, "ICSCHPHONE": "(720)561-2700", "SPTAB": "http://cam.bvsd.org"}}, {"type": "Feature", "id": 5, "geometry": {"type": "Point", "coordinates": [-105.268189999734, 40.0449199998499]}, "properties": {"OBJECTID": 5, "SHNAME": "CENTENNIAL", "CDEID": 1390, "BVSDID": 250, "LATITUDE": 40.04492, "LONGITUDE": -105.26819, "ICSCHNAME": "Centennial Middle School", "ICSCHADDRE": "2205 Norwood Avenue", "ICSCHCITY": "Boulder", "ICSCHST": "CO", "ICSCHZIP": 80304, "ICSCHPHONE": "(720)561-5441", "SPTAB": "http://cem.bvsd.org"}}, {"type": "Feature", "id": 6, "geometry": {"type": "Point", "coordinates": [-105.160700000322, 39.9208499997664]}, "properties": {"OBJECTID": 6, "SHNAME": "ELDORADO", "CDEID": 2589, "BVSDID": 506, "LATITUDE": 39.92085, "LONGITUDE": -105.1607, "ICSCHNAME": "Eldorado K-8 School", "ICSCHADDRE": "3351 Indiana Street", "ICSCHCITY": "Superior", "ICSCHST": "CO", "ICSCHZIP": 80027, "ICSCHPHONE": "(720)561-4400", "SPTAB": "http://el8.bvsd.org/"}}, {"type": "Feature", "id": 7, "geometry": {"type": "Point", "coordinates": [-105.133329999989, 39.9847999999161]}, "properties": {"OBJECTID": 7, "SHNAME": "LOUISVILLE MS", "CDEID": 5306, "BVSDID": 254, "LATITUDE": 39.9848, "LONGITUDE": -105.13333, "ICSCHNAME": "Louisville Middle School", "ICSCHADDRE": "1341 Main Street", "ICSCHCITY": "Louisville", "ICSCHST": "CO", "ICSCHZIP": 80027, "ICSCHPHONE": "(720)561-7400", "SPTAB": "http://lom.bvsd.org"}}, {"type": "Feature", "id": 8, "geometry": {"type": "Point", "coordinates": [-105.227839999317, 39.9928099993079]}, "properties": {"OBJECTID": 8, "SHNAME": "MANHATTAN", "CDEID": 1136, "BVSDID": 230, "LATITUDE": 39.99281, "LONGITUDE": -105.22784, "ICSCHNAME": "Manhattan School of Arts and Academics", "ICSCHADDRE": "290 Manhattan Drive", "ICSCHCITY": "Boulder", "ICSCHST": "CO", "ICSCHZIP": 80303, "ICSCHPHONE": "(720)561-6300", "SPTAB": "http://mam.bvsd.org/"}}, {"type": "Feature", "id": 9, "geometry": {"type": "Point", "coordinates": [-105.084787000363, 40.033840100378]}, "properties": {"OBJECTID": 9, "SHNAME": "MEADOWLARK", "CDEID": 2639, "BVSDID": 509, "LATITUDE": 40.0338401, "LONGITUDE": -105.084787, "ICSCHNAME": "Meadowlark School serving grades PK-8", "ICSCHADDRE": "2300 Meadow Sweet Lane", "ICSCHCITY": "Erie", "ICSCHST": "CO", "ICSCHZIP": 80516, "ICSCHPHONE": "(720)561-5066", "SPTAB": "http://www.meadowlarkschool.org"}}, {"type": "Feature", "id": 10, "geometry": {"type": "Point", "coordinates": [-105.144709999942, 39.9517599998809]}, "properties": {"OBJECTID": 10, "SHNAME": "MONARCH K8", "CDEID": 6000, "BVSDID": 502, "LATITUDE": 39.95176, "LONGITUDE": -105.14471, "ICSCHNAME": "Monarch K-8 School", "ICSCHADDRE": "263 Campus Drive", "ICSCHCITY": "Louisville", "ICSCHST": "CO", "ICSCHZIP": 80027, "ICSCHPHONE": "(720)561-4000", "SPTAB": "http://mo8.bvsd.org"}}, {"type": "Feature", "id": 11, "geometry": {"type": "Point", "coordinates": [-105.524300000749, 39.9529699999917]}, "properties": {"OBJECTID": 11, "SHNAME": "NEDERLAND MSHS", "CDEID": 6212, "BVSDID": 503, "LATITUDE": 39.95297, "LONGITUDE": -105.5243, "ICSCHNAME": "Nederland Middle Senior High School", "ICSCHADDRE": "597 County Road 130", "ICSCHCITY": "Nederland", "ICSCHST": "CO", "ICSCHZIP": 80466, "ICSCHPHONE": "(720)561-4900", "SPTAB": "http://neh.bvsd.org"}}, {"type": "Feature", "id": 12, "geometry": {"type": "Point", "coordinates": [-105.20905999965, 40.0023400003248]}, "properties": {"OBJECTID": 12, "SHNAME": "PLATT", "CDEID": 6224, "BVSDID": 260, "LATITUDE": 40.00234, "LONGITUDE": -105.20906, "ICSCHNAME": "Nevin Platt Middle School", "ICSCHADDRE": "6096 Baseline Road", "ICSCHCITY": "Boulder", "ICSCHST": "CO", "ICSCHZIP": 80303, "ICSCHPHONE": "(720)561-5536", "SPTAB": "http://npm.bvsd.org"}}, {"type": "Feature", "id": 13, "geometry": {"type": "Point", "coordinates": [-105.245159999492, 39.9747199996713]}, "properties": {"OBJECTID": 13, "SHNAME": "SOUTHERN HILLS", "CDEID": 8135, "BVSDID": 270, "LATITUDE": 39.97472, "LONGITUDE": -105.24516, "ICSCHNAME": "Southern Hills Middle School", "ICSCHADDRE": "1500 Knox Drive", "ICSCHCITY": "Boulder", "ICSCHST": "CO", "ICSCHZIP": 80305, "ICSCHPHONE": "(720)561-3400", "SPTAB": "http://shm.bvsd.org/"}}]}